{"type":"FeatureCollection","features":[{"type":"Feature","properties":{"UFID":"100035808010A00110100000003759749"},"geometry":{"type":"MultiPolygon","coordinates":[[[[128.9864785,35.7509033],[128.9864425,35.750784],[128.9864068,35.7506894],[128.9863553,35.7505769],[128.9863039,35.7504778],[128.9862748,35.7504011],[128.986263,35.7503517],[128.9862587,35.7503064],[128.9862636,35.7502313],[128.9862731,35.7501483],[128.9862733,35.7501046],[128.9862725,35.7500945],[128.9862722,35.7500781],[128.9862599,35.7500154],[128.9862558,35.7500006],[128.9862556,35.75],[128.9862425,35.749953],[128.9862397,35.7499465],[128.9862174,35.7498954],[128.9862016,35.7498605],[128.9861553,35.749754],[128.9861297,35.749685],[128.9861112,35.7496382],[128.9861024,35.7496076],[128.9860897,35.7495572],[128.9860783,35.7494929],[128.9860666,35.7494161],[128.9860524,35.7493088],[128.9860428,35.7492281],[128.9860336,35.7491644],[128.986027,35.7491292],[128.9860127,35.749084],[128.9860002,35.7490522],[128.985962,35.7489681],[128.9858705,35.7487932],[128.985773,35.7486222],[128.9856747,35.7484675],[128.9856489,35.7484222],[128.9856334,35.7483915],[128.985625,35.7483689],[128.9856221,35.7483562],[128.9856209,35.7483507],[128.985619,35.7483364],[128.9856183,35.7483283],[128.9856178,35.7483201],[128.9856171,35.7483098],[128.985617,35.7483004],[128.9856171,35.7482888],[128.9856173,35.7482802],[128.9856176,35.7482691],[128.9856178,35.7482568],[128.9856177,35.7482432],[128.985616,35.7482237],[128.9856119,35.7482001],[128.9856023,35.7481719],[128.9855843,35.7481427],[128.9855653,35.7481197],[128.9855401,35.7480946],[128.9855046,35.7480637],[128.9854265,35.7480071],[128.9853126,35.7479258],[128.9851667,35.7478276],[128.9850783,35.7477679],[128.9850329,35.7477326],[128.9850075,35.7477103],[128.9849665,35.7476618],[128.9849382,35.7476357],[128.9848852,35.7475963],[128.9848347,35.7475638],[128.9847971,35.7475414],[128.9847696,35.7475582],[128.9847759,35.7475622],[128.9848147,35.7475853],[128.9848637,35.7476169],[128.9849145,35.7476547],[128.9849403,35.7476785],[128.9849815,35.7477272],[128.9850092,35.7477516],[128.9850563,35.7477881],[128.9851455,35.7478484],[128.9852911,35.7479464],[128.9854046,35.7480274],[128.9854814,35.7480831],[128.9855152,35.7481125],[128.9855386,35.7481358],[128.9855556,35.7481564],[128.9855712,35.7481817],[128.9855794,35.7482056],[128.985583,35.7482265],[128.9855845,35.7482442],[128.9855846,35.7482567],[128.9855844,35.7482686],[128.9855842,35.7482795],[128.9855839,35.7482883],[128.9855838,35.7483005],[128.985584,35.7483107],[128.9855847,35.7483215],[128.9855852,35.74833],[128.9855859,35.7483387],[128.9855881,35.7483546],[128.9855895,35.7483611],[128.9855928,35.7483753],[128.9856021,35.7484006],[128.9856185,35.7484331],[128.9856449,35.7484794],[128.9857432,35.7486341],[128.9858402,35.7488042],[128.9859311,35.7489781],[128.9859688,35.749061],[128.9859809,35.7490915],[128.9859945,35.7491347],[128.9860007,35.749168],[128.9860098,35.749231],[128.9860194,35.7493116],[128.9860337,35.7494192],[128.9860454,35.7494965],[128.986057,35.7495619],[128.98607,35.7496134],[128.9860792,35.7496454],[128.986098,35.7496931],[128.9861238,35.7497624],[128.9861704,35.7498697],[128.9861976,35.7499296],[128.9862061,35.7499498],[128.9862105,35.7499604],[128.9862216,35.75],[128.9862217,35.7500006],[128.9862273,35.7500206],[128.9862391,35.7500804],[128.9862393,35.7500955],[128.9862401,35.7501055],[128.98624,35.750147],[128.9862305,35.7502294],[128.9862255,35.7503067],[128.98623,35.7503553],[128.9862426,35.7504077],[128.9862727,35.7504871],[128.9863245,35.7505869],[128.9863754,35.7506981],[128.9864105,35.7507912],[128.9864504,35.7509232],[128.986454,35.7509346],[128.9864785,35.7509033]]]]}},{"type":"Feature","properties":{"UFID":"100035808010A00110100000003936714"},"geometry":{"type":"MultiPolygon","coordinates":[[[[129.0000915,35.7468671],[129.0000759,35.7468645],[129.0,35.7468427],[128.9999392,35.7468267],[128.9999262,35.7468235],[128.9998601,35.7468082],[128.9997894,35.7467852],[128.9997498,35.7467682],[128.9997182,35.7467494],[128.9996701,35.7467205],[128.9996102,35.7466857],[128.9995297,35.7466512],[128.9994439,35.7466131],[128.9993882,35.7465838],[128.9993608,35.7465632],[128.9993465,35.7465473],[128.9993406,35.7465388],[128.9993357,35.7465293],[128.9993343,35.7465249],[128.999332,35.7465183],[128.9993305,35.7465124],[128.9993279,35.7465024],[128.9992943,35.7465037],[128.999298,35.7465179],[128.9992997,35.7465247],[128.9993023,35.746532],[128.9993042,35.7465379],[128.9993108,35.7465507],[128.9993186,35.746562],[128.999336,35.7465813],[128.9993678,35.7466053],[128.9994269,35.7466363],[128.999514,35.746675],[128.9995928,35.7467088],[128.9996507,35.7467424],[128.9996986,35.7467712],[128.9997322,35.7467913],[128.9997755,35.7468098],[128.9998494,35.7468339],[128.9999169,35.7468495],[128.9999294,35.7468525],[129.0,35.7468711],[129.0000677,35.7468907],[129.0000908,35.7468946],[129.0000915,35.7468671]]]]}},{"type":"Feature","properties":{"UFID":"100035808010A00110100000003936715"},"geometry":{"type":"MultiPolygon","coordinates":[[[[128.9993279,35.7465024],[128.9993371,35.7464394],[128.9993044,35.7464347],[128.9992943,35.7465037],[128.9993279,35.7465024]]]]}},{"type":"Feature","properties":{"UFID":"100035808010A00110100000003936716"},"geometry":{"type":"MultiPolygon","coordinates":[[[[128.9843618,35.7466722],[128.9843431,35.7466371],[128.9843327,35.7466378],[128.9843154,35.7466398],[128.9843064,35.7466407],[128.9842844,35.7466433],[128.9842662,35.746648],[128.9842551,35.7466488],[128.9842429,35.7466504],[128.9842339,35.7466558],[128.9842258,35.7466636],[128.9842214,35.7466697],[128.9842088,35.7466957],[128.9841983,35.7467174],[128.9841784,35.7467652],[128.9841628,35.7468067],[128.9841932,35.7468181],[128.98421,35.7467735],[128.9842294,35.7467267],[128.9842396,35.7467056],[128.9842513,35.7466816],[128.984253,35.7466793],[128.9842563,35.7466761],[128.9842593,35.7466757],[128.9842643,35.7466753],[128.9843146,35.7466757],[128.9843538,35.7466705],[128.9843579,35.746671],[128.9843618,35.7466722]]]]}},{"type":"Feature","properties":{"UFID":"100035808010A00110100000003936717"},"geometry":{"type":"MultiPolygon","coordinates":[[[[128.9844381,35.7466404],[128.9844183,35.7466142],[128.9843832,35.7466315],[128.9843559,35.7466363],[128.9843431,35.7466371],[128.9843618,35.7466722],[128.9844381,35.7466404]]]]}},{"type":"Feature","properties":{"UFID":"100035808010A00110100000003936718"},"geometry":{"type":"MultiPolygon","coordinates":[[[[128.9846224,35.747591],[128.9846124,35.747565],[128.9846067,35.7475658],[128.9845954,35.7475659],[128.9845625,35.7475666],[128.9845019,35.7475664],[128.9844516,35.7475656],[128.9844139,35.7475625],[128.9843748,35.7475572],[128.9843694,35.7475839],[128.9844096,35.7475893],[128.9844496,35.7475926],[128.9845015,35.7475934],[128.9845629,35.7475936],[128.984596,35.747593],[128.9846098,35.7475928],[128.9846224,35.747591]]]]}},{"type":"Feature","properties":{"UFID":"100035808010A00110100000003936719"},"geometry":{"type":"MultiPolygon","coordinates":[[[[128.9844321,35.7469069],[128.9844314,35.7468985],[128.9844268,35.7468401],[128.984417,35.746739],[128.984415,35.746701],[128.9844144,35.7466974],[128.9844176,35.7466885],[128.984421,35.7466788],[128.9844289,35.746657],[128.9844381,35.7466404],[128.9843618,35.7466722],[128.9843725,35.74668],[128.9843807,35.7466963],[128.984382,35.7467035],[128.9843839,35.7467406],[128.9843937,35.746842],[128.9843983,35.7469003],[128.984399,35.7469083],[128.9844321,35.7469069]]]]}},{"type":"Feature","properties":{"UFID":"100035808010A00110100000003936720"},"geometry":{"type":"MultiPolygon","coordinates":[[[[128.9844321,35.7469069],[128.984399,35.7469083],[128.9844002,35.7469222],[128.9844004,35.7469341],[128.9844336,35.746934],[128.9844321,35.7469069]]]]}},{"type":"Feature","properties":{"UFID":"100035808010A00110100000003936721"},"geometry":{"type":"MultiPolygon","coordinates":[[[[128.9847389,35.7475018],[128.9847246,35.747489],[128.9846485,35.7474134],[128.9845977,35.7473623],[128.9845661,35.7473274],[128.9845371,35.7472937],[128.9845098,35.747255],[128.984491,35.7472221],[128.9844754,35.7471897],[128.9844608,35.7471488],[128.9844497,35.7471058],[128.9844421,35.7470725],[128.9844377,35.7470336],[128.9844347,35.7469919],[128.9844336,35.746934],[128.9844004,35.7469341],[128.9844016,35.7469929],[128.9844047,35.7470357],[128.9844092,35.7470762],[128.9844171,35.747111],[128.9844286,35.7471554],[128.984444,35.7471985],[128.9844605,35.7472328],[128.9844804,35.7472675],[128.9845091,35.7473082],[128.9845392,35.7473432],[128.9845715,35.7473789],[128.9846228,35.7474305],[128.9846995,35.7475066],[128.9847043,35.747511],[128.9847389,35.7475018]]]]}},{"type":"Feature","properties":{"UFID":"100035808010A00110100000003936722"},"geometry":{"type":"MultiPolygon","coordinates":[[[[128.9847918,35.7455659],[128.9847634,35.7455317],[128.9847607,35.7455493],[128.9847531,35.745605],[128.9847453,35.7456663],[128.9847442,35.745674],[128.9847434,35.7456772],[128.9847411,35.7456865],[128.9847358,35.7457022],[128.9847107,35.7457537],[128.9846543,35.7458624],[128.9846053,35.7459365],[128.9845885,35.7459696],[128.9845849,35.7459776],[128.9845821,35.7459968],[128.9845823,35.7460104],[128.9845846,35.7460784],[128.9845848,35.7460912],[128.9845845,35.7461018],[128.9845839,35.7461154],[128.9845831,35.746126],[128.9845802,35.7461435],[128.9845692,35.7461878],[128.9845623,35.746213],[128.9845608,35.746222],[128.9845588,35.7462396],[128.9845576,35.7462609],[128.9845576,35.7462727],[128.9845578,35.7462855],[128.9845584,35.7462987],[128.9845595,35.746317],[128.9845601,35.7463299],[128.9845606,35.7463464],[128.9845604,35.7463607],[128.9845594,35.7463842],[128.9845573,35.7464123],[128.9845515,35.7464355],[128.9845397,35.7464631],[128.9845253,35.7464868],[128.9844998,35.7465213],[128.9844555,35.7465725],[128.9844306,35.7465997],[128.9844183,35.7466142],[128.9844381,35.7466404],[128.9844414,35.7466344],[128.9844575,35.7466155],[128.9844823,35.7465884],[128.9845275,35.7465361],[128.9845544,35.7464998],[128.9845703,35.7464736],[128.9845836,35.7464427],[128.9845903,35.7464158],[128.9845925,35.7463855],[128.9845935,35.7463613],[128.9845938,35.7463463],[128.9845933,35.7463291],[128.9845926,35.7463158],[128.9845915,35.7462976],[128.984591,35.7462849],[128.9845908,35.7462726],[128.9845908,35.7462616],[128.9845919,35.7462414],[128.9845938,35.7462251],[128.984595,35.7462178],[128.9846017,35.7461935],[128.984613,35.746148],[128.9846162,35.7461286],[128.9846171,35.7461167],[128.9846177,35.7461026],[128.984618,35.7460913],[128.9846177,35.7460778],[128.9846155,35.7460098],[128.9846153,35.7459982],[128.9846173,35.745984],[128.9846194,35.7459795],[128.9846354,35.7459481],[128.9846842,35.7458741],[128.9847414,35.745764],[128.9847672,35.7457109],[128.9847734,35.7456929],[128.9847759,35.7456826],[128.984777,35.7456783],[128.9847783,35.7456693],[128.9847861,35.7456079],[128.9847918,35.7455659]]]]}},{"type":"Feature","properties":{"UFID":"100035808010A00110100000003936723"},"geometry":{"type":"MultiPolygon","coordinates":[[[[128.9844321,35.7469069],[128.9844336,35.746934],[128.9844616,35.7469319],[128.9844737,35.7469307],[128.9844831,35.7469297],[128.984494,35.7469291],[128.9845185,35.7469309],[128.9845601,35.7469406],[128.9845693,35.7469147],[128.9845247,35.7469042],[128.9844944,35.746902],[128.9844799,35.7469028],[128.9844695,35.7469038],[128.984458,35.746905],[128.9844321,35.7469069]]]]}},{"type":"Feature","properties":{"UFID":"100035808010A00110100000003936724"},"geometry":{"type":"MultiPolygon","coordinates":[[[[128.9847282,35.7475512],[128.984691,35.7475354],[128.9846124,35.747565],[128.9846224,35.747591],[128.9847282,35.7475512]]]]}},{"type":"Feature","properties":{"UFID":"100035808010A00110100000003936725"},"geometry":{"type":"MultiPolygon","coordinates":[[[[128.9847043,35.747511],[128.984698,35.7475168],[128.9846879,35.7475227],[128.984691,35.7475354],[128.9847282,35.7475512],[128.984742,35.7475541],[128.9847696,35.7475582],[128.9847043,35.747511]]]]}},{"type":"Feature","properties":{"UFID":"100035808010A00110100000003936726"},"geometry":{"type":"MultiPolygon","coordinates":[[[[128.9847971,35.7475414],[128.9847959,35.7475407],[128.9847601,35.7475177],[128.9847471,35.7475091],[128.9847389,35.7475018],[128.9847043,35.747511],[128.9847696,35.7475582],[128.9847971,35.7475414]]]]}},{"type":"Feature","properties":{"UFID":"100035808010A00110100000003936727"},"geometry":{"type":"MultiPolygon","coordinates":[[[[128.9848034,35.7454837],[128.9847752,35.745449],[128.9847713,35.7454739],[128.9847672,35.7455065],[128.9847634,35.7455317],[128.9847918,35.7455659],[128.9847937,35.7455524],[128.9848002,35.7455096],[128.9848034,35.7454837]]]]}},{"type":"Feature","properties":{"UFID":"100035808010A00110100000003936728"},"geometry":{"type":"MultiPolygon","coordinates":[[[[128.9848034,35.7454837],[128.9848002,35.7455096],[128.9847937,35.7455524],[128.9847918,35.7455659],[128.984809,35.7455866],[128.9848303,35.7456233],[128.9848574,35.7456813],[128.9848621,35.7456812],[128.9849019,35.7456675],[128.9849028,35.7456623],[128.9848737,35.7456133],[128.9848553,35.7455849],[128.9848424,35.7455551],[128.9848099,35.7454916],[128.9848034,35.7454837]]]]}},{"type":"Feature","properties":{"UFID":"100035808010A00110100000003936729"},"geometry":{"type":"MultiPolygon","coordinates":[[[[128.9996969,35.7317878],[128.9996434,35.7317828],[128.9996743,35.7318076],[128.9997227,35.7318426],[128.9997664,35.7318682],[128.9998431,35.731917],[128.9998917,35.7319482],[128.9999284,35.7319768],[128.999958,35.732008],[128.9999835,35.7320471],[128.9999818,35.7320524],[129.0,35.732057],[129.0000337,35.7320656],[129.0,35.7320148],[128.999986,35.7319933],[128.9999531,35.7319586],[128.9999135,35.7319278],[128.9998636,35.7318958],[128.9997863,35.7318465],[128.9997435,35.7318214],[128.9996969,35.7317878]]]]}},{"type":"Feature","properties":{"UFID":"100035808010A00110100000003936730"},"geometry":{"type":"MultiPolygon","coordinates":[[[[128.9999818,35.7320524],[128.9999386,35.7320313],[128.9999216,35.7320545],[128.999965,35.7320757],[128.9999661,35.7320763],[129.0,35.7320933],[129.0000065,35.7320995],[129.0,35.7320871],[128.9999818,35.7320524]]]]}},{"type":"Feature","properties":{"UFID":"100035905001A00110100000003936731"},"geometry":{"type":"MultiPolygon","coordinates":[[[[129.0000337,35.7320656],[129.0,35.732057],[128.9999818,35.7320524],[129.0,35.7320871],[129.0000065,35.7320995],[129.0000647,35.7321124],[129.0000337,35.7320656]]]]}},{"type":"Feature","properties":{"UFID":"100035808010A00110100000003936732"},"geometry":{"type":"MultiPolygon","coordinates":[[[[128.9995655,35.7316823],[128.9994961,35.7316644],[128.9996434,35.7317828],[128.9996969,35.7317878],[128.9995655,35.7316823]]]]}},{"type":"Feature","properties":{"UFID":"100035808010A00110100000003936733"},"geometry":{"type":"MultiPolygon","coordinates":[[[[128.998535,35.7310617],[128.9984265,35.7310248],[128.9984388,35.7310447],[128.9984482,35.7310604],[128.9984508,35.7310714],[128.99845,35.7310931],[128.9984415,35.7310991],[128.9984366,35.7311014],[128.9984277,35.7311046],[128.9984139,35.7311089],[128.9983976,35.7311113],[128.9983747,35.7311141],[128.9983158,35.7311194],[128.9982626,35.7311279],[128.9982416,35.731131],[128.9982447,35.7311581],[128.9982688,35.7311545],[128.9983209,35.7311461],[128.9983789,35.7311409],[128.998403,35.731138],[128.9984229,35.731135],[128.9984403,35.7311296],[128.9984517,35.7311255],[128.9984609,35.7311212],[128.9984748,35.7311114],[128.998535,35.7310617]]]]}},{"type":"Feature","properties":{"UFID":"100035808010A00110100000003936734"},"geometry":{"type":"MultiPolygon","coordinates":[[[[128.9985446,35.7310358],[128.9985136,35.7310288],[128.9984693,35.7310138],[128.9984445,35.7310021],[128.998438,35.7309983],[128.9984265,35.7310248],[128.998535,35.7310617],[128.9985446,35.7310358]]]]}},{"type":"Feature","properties":{"UFID":"100035808010A00110100000003936735"},"geometry":{"type":"MultiPolygon","coordinates":[[[[128.9985446,35.7310358],[128.998535,35.7310617],[128.9985459,35.7310641],[128.9986584,35.7310882],[128.9987594,35.7311126],[128.9988694,35.7311475],[128.9990635,35.7312123],[128.9992298,35.7312655],[128.999259,35.7312795],[128.9992803,35.7312916],[128.9992931,35.7313013],[128.9993017,35.7313109],[128.999308,35.7313219],[128.9993169,35.7313401],[128.9993281,35.7313638],[128.9993482,35.731404],[128.9993731,35.731449],[128.9993998,35.7314916],[128.999422,35.7315252],[128.9994324,35.7315461],[128.9994452,35.7315782],[128.9994598,35.7316067],[128.9994678,35.7316184],[128.9994961,35.7316644],[128.9995655,35.7316823],[128.9995233,35.7316483],[128.9994971,35.7316057],[128.9994897,35.7315948],[128.9994763,35.7315688],[128.9994636,35.7315369],[128.9994521,35.7315137],[128.9994291,35.731479],[128.999403,35.7314373],[128.9993787,35.7313933],[128.9993589,35.7313538],[128.9993477,35.7313302],[128.9993384,35.7313111],[128.9993304,35.7312972],[128.9993181,35.7312833],[128.9993011,35.7312705],[128.9992769,35.7312567],[128.9992443,35.7312411],[128.9990758,35.7311872],[128.9988817,35.7311224],[128.9987702,35.731087],[128.9986673,35.7310622],[128.9985546,35.731038],[128.9985446,35.7310358]]]]}},{"type":"Feature","properties":{"UFID":"100035808010A00110100000003936736"},"geometry":{"type":"MultiPolygon","coordinates":[[[[128.9923176,35.728741],[128.9922855,35.7287157],[128.9922708,35.7287377],[128.9922422,35.7287666],[128.9921516,35.7288458],[128.9920874,35.7289102],[128.992043,35.7289528],[128.992002,35.7289829],[128.9919458,35.7290087],[128.9918996,35.7290186],[128.9918433,35.7290253],[128.9917662,35.7290324],[128.9916832,35.7290305],[128.9914836,35.729024],[128.9913705,35.7290272],[128.9912605,35.7290243],[128.9911882,35.7290113],[128.991109,35.7289942],[128.9910609,35.7289843],[128.9910383,35.7289817],[128.9910048,35.7289848],[128.9909771,35.7289947],[128.9909234,35.7290213],[128.9908709,35.7290549],[128.9908198,35.7291023],[128.9907914,35.7291382],[128.990762,35.7291853],[128.9907288,35.7292448],[128.9906833,35.7293334],[128.9906462,35.7294197],[128.9906149,35.7294722],[128.9905939,35.7294937],[128.9905799,35.7295039],[128.990548,35.7295245],[128.9905187,35.7295367],[128.9904946,35.7295435],[128.9904646,35.7295499],[128.9904219,35.7295552],[128.9903756,35.7295593],[128.9903792,35.7295862],[128.9904262,35.729582],[128.9904713,35.7295764],[128.9905042,35.7295694],[128.9905317,35.7295616],[128.990566,35.7295473],[128.9906013,35.7295246],[128.9906181,35.7295124],[128.9906431,35.7294867],[128.9906769,35.7294301],[128.9907143,35.7293431],[128.9907592,35.7292556],[128.9907919,35.729197],[128.9908202,35.7291517],[128.9908463,35.7291186],[128.9908937,35.7290746],[128.9909423,35.7290435],[128.9909924,35.7290188],[128.9910136,35.7290112],[128.9910378,35.729009],[128.9910545,35.7290109],[128.9911007,35.7290204],[128.9911804,35.7290375],[128.9912564,35.7290512],[128.9913705,35.7290542],[128.9914835,35.7290511],[128.991682,35.7290575],[128.9917676,35.7290595],[128.9918475,35.7290522],[128.9919062,35.7290452],[128.9919584,35.7290339],[128.9920215,35.729005],[128.9920668,35.7289717],[128.9921129,35.7289275],[128.9921766,35.7288636],[128.9922673,35.7287843],[128.9923176,35.728741]]]]}},{"type":"Feature","properties":{"UFID":"100035808010A00110100000003936737"},"geometry":{"type":"MultiPolygon","coordinates":[[[[128.9950701,35.7286088],[128.9950239,35.7285649],[128.9950231,35.7285654],[128.9949885,35.7285899],[128.9949518,35.7286124],[128.9948413,35.7286549],[128.9948554,35.7286794],[128.994969,35.7286356],[128.9949989,35.7286173],[128.995008,35.7286158],[128.9950175,35.7286153],[128.9950282,35.7286156],[128.9950362,35.7286159],[128.9950503,35.7286162],[128.9950701,35.7286088]]]]}},{"type":"Feature","properties":{"UFID":"100035808010A00110100000003936738"},"geometry":{"type":"MultiPolygon","coordinates":[[[[128.9951253,35.7285852],[128.9951055,35.7285272],[128.9950985,35.7285285],[128.995065,35.7285323],[128.9950239,35.7285649],[128.9950701,35.7286088],[128.9950907,35.7286011],[128.9951116,35.7285924],[128.9951253,35.7285852]]]]}},{"type":"Feature","properties":{"UFID":"100035808010A00110100000003936739"},"geometry":{"type":"MultiPolygon","coordinates":[[[[128.9953046,35.7285422],[128.9953139,35.72849],[128.9952674,35.7284979],[128.9951716,35.7285148],[128.9951439,35.7285194],[128.9951055,35.7285272],[128.9951253,35.7285852],[128.995174,35.7285777],[128.9952352,35.7285619],[128.9952897,35.7285426],[128.9953046,35.7285422]]]]}},{"type":"Feature","properties":{"UFID":"100035808010A00110100000003936740"},"geometry":{"type":"MultiPolygon","coordinates":[[[[128.9993044,35.7464347],[128.9993371,35.7464394],[128.9993397,35.7464214],[128.999349,35.7463932],[128.9993495,35.7463822],[128.9993438,35.7463672],[128.9993312,35.7463524],[128.9993217,35.7463465],[128.999312,35.7463424],[128.9993003,35.7463392],[128.999287,35.7463361],[128.9992787,35.7463346],[128.9991794,35.7463109],[128.9991036,35.7462854],[128.9990197,35.7462446],[128.9989142,35.746194],[128.9987683,35.7461304],[128.9986047,35.746093],[128.9984761,35.7460658],[128.9984425,35.7460507],[128.9984085,35.7460218],[128.9983511,35.7459856],[128.998238,35.7459446],[128.9980258,35.745879],[128.9977998,35.7458044],[128.9977639,35.7457897],[128.9977374,35.7457745],[128.997733,35.7457708],[128.9977283,35.7457627],[128.9977242,35.7457496],[128.9977186,35.7457198],[128.997716,35.745623],[128.9976975,35.7455266],[128.9976374,35.7453998],[128.9975561,35.7452745],[128.9975057,35.7451799],[128.9974666,35.745141],[128.9974255,35.7451168],[128.9973856,35.7451],[128.997365,35.7450888],[128.9973435,35.7450724],[128.997311,35.7450415],[128.99729,35.7450095],[128.9972794,35.7449775],[128.9972804,35.7449574],[128.9972898,35.7449314],[128.9973061,35.7449167],[128.9973316,35.7448997],[128.9973737,35.7448841],[128.9974099,35.7448792],[128.9974655,35.7448818],[128.9975057,35.7448899],[128.9976108,35.7449216],[128.997838,35.7450096],[128.9980071,35.7450434],[128.9981341,35.7450662],[128.9982897,35.7451053],[128.9984092,35.7451121],[128.9985236,35.7451047],[128.9985474,35.7451004],[128.9986189,35.745085],[128.9987271,35.7450521],[128.9988278,35.7450076],[128.9988958,35.7449612],[128.9989532,35.7449066],[128.9990041,35.7448549],[128.9990568,35.7447966],[128.9990877,35.7447437],[128.9991028,35.7447035],[128.9991069,35.7446506],[128.9990842,35.7446049],[128.999009,35.744533],[128.9989222,35.7444598],[128.9987756,35.7443611],[128.9985997,35.7442469],[128.9984723,35.7441806],[128.9983607,35.7441166],[128.9983228,35.7440887],[128.9982683,35.744048],[128.998196,35.743996],[128.9981336,35.7439567],[128.9980639,35.7439168],[128.9980016,35.7438774],[128.9979441,35.7438425],[128.9978669,35.7438074],[128.9977825,35.7437764],[128.9976748,35.7437381],[128.99739,35.7436255],[128.9969568,35.7434092],[128.9967572,35.7433073],[128.9965793,35.7432282],[128.9965321,35.7431952],[128.9964964,35.7431638],[128.9964592,35.7431159],[128.9964276,35.743062],[128.9963827,35.743003],[128.9963265,35.7429394],[128.9962414,35.7428461],[128.9962148,35.7428622],[128.9962997,35.7429554],[128.9963552,35.743018],[128.9963985,35.743075],[128.9964301,35.743129],[128.99647,35.7431804],[128.9965091,35.7432147],[128.9965604,35.7432506],[128.9967405,35.7433307],[128.9969393,35.7434322],[128.997374,35.7436493],[128.9976609,35.7437626],[128.997769,35.7438012],[128.997852,35.7438316],[128.997926,35.7438652],[128.9979816,35.743899],[128.9980442,35.7439386],[128.9981139,35.7439785],[128.9981749,35.7440169],[128.9982461,35.7440681],[128.9983005,35.7441087],[128.9983399,35.7441378],[128.9984538,35.7442031],[128.9985804,35.744269],[128.9987547,35.7443822],[128.9988997,35.7444797],[128.9989845,35.7445512],[128.9990555,35.7446191],[128.9990734,35.744655],[128.99907,35.7446987],[128.9990567,35.7447339],[128.9990282,35.7447827],[128.9989778,35.7448384],[128.9989277,35.7448893],[128.9988724,35.7449419],[128.998809,35.7449851],[128.9987134,35.7450275],[128.9986088,35.7450592],[128.9985396,35.7450741],[128.9985187,35.7450779],[128.9984091,35.745085],[128.9982958,35.7450786],[128.9981426,35.7450401],[128.9980146,35.7450171],[128.9978491,35.744984],[128.9976237,35.7448967],[128.9975154,35.744864],[128.9974704,35.7448549],[128.9974081,35.7448521],[128.997364,35.7448581],[128.997314,35.7448766],[128.9972831,35.744897],[128.9972601,35.7449179],[128.9972475,35.7449529],[128.9972461,35.7449806],[128.997259,35.7450195],[128.9972835,35.7450568],[128.9973195,35.7450911],[128.9973443,35.74511],[128.9973687,35.7451233],[128.9974081,35.7451399],[128.9974436,35.7451609],[128.9974771,35.7451942],[128.9975262,35.7452862],[128.9976072,35.745411],[128.9976653,35.7455337],[128.9976829,35.7456254],[128.9976855,35.7457222],[128.9976917,35.745755],[128.9976969,35.7457718],[128.9977054,35.7457866],[128.997716,35.7457952],[128.9977468,35.7458129],[128.997786,35.7458291],[128.9980137,35.7459042],[128.9982254,35.7459696],[128.9983339,35.746009],[128.9983863,35.7460419],[128.998422,35.7460724],[128.9984637,35.7460911],[128.9985961,35.7461191],[128.9987558,35.7461556],[128.998898,35.7462175],[128.9990028,35.7462678],[128.9990886,35.7463096],[128.9991683,35.7463365],[128.9992703,35.7463607],[128.9992788,35.7463623],[128.9992905,35.746365],[128.9992989,35.7463673],[128.9993039,35.7463694],[128.9993069,35.7463713],[128.9993136,35.7463792],[128.9993161,35.7463858],[128.999316,35.7463891],[128.999307,35.7464163],[128.9993044,35.7464347]]]]}},{"type":"Feature","properties":{"UFID":"100035808010A00110100000003936741"},"geometry":{"type":"MultiPolygon","coordinates":[[[[128.998438,35.7309983],[128.9984124,35.7309833],[128.9983485,35.7309473],[128.9982881,35.7309135],[128.9982387,35.7308806],[128.9981558,35.7308191],[128.9980594,35.7307451],[128.9980031,35.7307011],[128.9979584,35.7306699],[128.9979015,35.730639],[128.9977542,35.7305757],[128.9976384,35.7305314],[128.9975012,35.7304843],[128.9973866,35.7304485],[128.9973697,35.7304428],[128.9973543,35.7304669],[128.9973744,35.7304736],[128.9974888,35.7305094],[128.9976249,35.7305561],[128.9977394,35.7305999],[128.9978846,35.7306623],[128.9979383,35.7306915],[128.9979808,35.7307212],[128.9980366,35.7307647],[128.9981333,35.7308389],[128.9982171,35.730901],[128.9982682,35.7309352],[128.9983297,35.7309696],[128.9983933,35.7310054],[128.9984265,35.7310248],[128.998438,35.7309983]]]]}},{"type":"Feature","properties":{"UFID":"100035808010A00110100000003936742"},"geometry":{"type":"MultiPolygon","coordinates":[[[[128.9981885,35.7311677],[128.9981885,35.7311401],[128.998098,35.7311562],[128.9980191,35.7311619],[128.9979564,35.7311611],[128.9979152,35.7311572],[128.9978718,35.7311484],[128.9978316,35.7311385],[128.9977956,35.7311296],[128.9977658,35.7311192],[128.9976698,35.7310767],[128.9975943,35.7310381],[128.9975408,35.7310067],[128.9975337,35.7310014],[128.9974766,35.7309433],[128.9974508,35.7309602],[128.9975095,35.7310199],[128.9975199,35.7310277],[128.9975758,35.7310606],[128.9976531,35.7311001],[128.9977514,35.7311435],[128.9977842,35.7311551],[128.9978219,35.7311644],[128.997863,35.7311745],[128.9979093,35.7311838],[128.9979542,35.7311882],[128.9980203,35.7311889],[128.9981031,35.731183],[128.9981885,35.7311677]]]]}},{"type":"Feature","properties":{"UFID":"100035808010A00110100000003936743"},"geometry":{"type":"MultiPolygon","coordinates":[[[[128.9982447,35.7311581],[128.9981885,35.7311677],[128.9981865,35.7311812],[128.9981679,35.7312066],[128.9981417,35.7312488],[128.9981169,35.7312891],[128.9980881,35.7313343],[128.9981175,35.7313468],[128.9981465,35.7313014],[128.9981713,35.731261],[128.998197,35.7312196],[128.9982149,35.731195],[128.9982447,35.7311581]]]]}},{"type":"Feature","properties":{"UFID":"100035808010A00110100000003936744"},"geometry":{"type":"MultiPolygon","coordinates":[[[[128.9982447,35.7311581],[128.9982416,35.731131],[128.9982276,35.7311331],[128.9981885,35.7311401],[128.9981885,35.7311677],[128.9982447,35.7311581]]]]}},{"type":"Feature","properties":{"UFID":"100035808010A00110100000003936745"},"geometry":{"type":"MultiPolygon","coordinates":[[[[128.9973697,35.7304428],[128.9972202,35.7303871],[128.9970879,35.7303323],[128.9969521,35.7302732],[128.9968419,35.7302236],[128.9967998,35.7302069],[128.9967653,35.730196],[128.9967342,35.7301898],[128.9967307,35.7301892],[128.9966623,35.7301805],[128.9966268,35.7301759],[128.9966054,35.7301722],[128.9965867,35.7301669],[128.9965655,35.7301579],[128.9965503,35.7301482],[128.9965377,35.7301384],[128.9965143,35.7301156],[128.9964815,35.7300782],[128.9964398,35.7300331],[128.99638,35.72998],[128.9963392,35.7299481],[128.9963138,35.7299219],[128.9963089,35.7299165],[128.9962746,35.7298782],[128.9962067,35.7298],[128.9961337,35.729723],[128.9960825,35.729672],[128.9960397,35.7296346],[128.9959796,35.7295936],[128.995929,35.7295592],[128.9958976,35.7295376],[128.9958766,35.7295194],[128.9958576,35.7295],[128.9958365,35.7294748],[128.9958179,35.7294501],[128.9958039,35.7294287],[128.9957897,35.7294061],[128.9957717,35.7293635],[128.9957583,35.72933],[128.9957447,35.729293],[128.9957333,35.7292562],[128.9957212,35.7292044],[128.9957136,35.729159],[128.9957098,35.7291342],[128.9957054,35.7291043],[128.9956945,35.7290711],[128.9956748,35.7290267],[128.995645,35.7289723],[128.9956261,35.7289396],[128.995604,35.7289026],[128.995566,35.7288268],[128.9955137,35.7287259],[128.9954683,35.7286425],[128.9954417,35.7285989],[128.9954024,35.7285573],[128.9953827,35.728539],[128.995369,35.7285269],[128.9953471,35.7285078],[128.9953265,35.7284932],[128.9953139,35.72849],[128.9953046,35.7285422],[128.9953181,35.7285432],[128.9953302,35.7285448],[128.9953408,35.7285476],[128.9953582,35.7285582],[128.9953768,35.7285745],[128.9954135,35.7286133],[128.9954383,35.728654],[128.9954833,35.7287367],[128.9955354,35.7288371],[128.9955737,35.7289136],[128.9955962,35.7289513],[128.9956148,35.7289836],[128.995644,35.7290369],[128.9956629,35.7290792],[128.9956727,35.7291095],[128.9956769,35.7291375],[128.9956807,35.7291625],[128.9956884,35.7292087],[128.9957009,35.729262],[128.9957127,35.7293002],[128.9957266,35.7293381],[128.9957403,35.7293721],[128.9957591,35.7294168],[128.9957746,35.7294412],[128.9957891,35.7294635],[128.9958086,35.7294896],[128.995831,35.7295161],[128.9958515,35.7295371],[128.9958747,35.7295573],[128.9959077,35.7295799],[128.9959583,35.7296144],[128.9960169,35.7296542],[128.9960576,35.7296898],[128.9961078,35.7297398],[128.99618,35.7298161],[128.9962477,35.729894],[128.9962821,35.7299324],[128.9962874,35.7299383],[128.9963146,35.7299663],[128.9963563,35.7299989],[128.9964143,35.7300504],[128.9964547,35.7300942],[128.996488,35.7301322],[128.9965135,35.7301569],[128.9965286,35.7301687],[128.9965475,35.7301807],[128.9965735,35.7301918],[128.9965965,35.7301983],[128.9966207,35.7302025],[128.9966572,35.7302072],[128.9967242,35.7302157],[128.9967553,35.7302218],[128.9967865,35.7302317],[128.9968266,35.7302476],[128.9969363,35.730297],[128.9970726,35.7303563],[128.9972054,35.7304113],[128.9973543,35.7304669],[128.9973697,35.7304428]]]]}},{"type":"Feature","properties":{"UFID":"100035808010A00110100000003936746"},"geometry":{"type":"MultiPolygon","coordinates":[[[[128.9848142,35.7408734],[128.9848425,35.7408456],[128.9848203,35.7408467],[128.9847947,35.7408447],[128.9847843,35.7408447],[128.9847733,35.7408451],[128.9847628,35.7408454],[128.98473,35.7408498],[128.984713,35.740855],[128.9846965,35.740862],[128.9846811,35.740871],[128.9846622,35.740885],[128.9846397,35.7409058],[128.9846247,35.7409245],[128.9846088,35.740949],[128.9845872,35.7409902],[128.9845756,35.7410116],[128.9845689,35.741026],[128.9845621,35.7410466],[128.9845934,35.7410558],[128.9846005,35.7410344],[128.9846063,35.7410219],[128.9846176,35.741001],[128.9846387,35.7409606],[128.9846533,35.7409382],[128.9846662,35.7409222],[128.9846859,35.7409039],[128.984702,35.740892],[128.9847139,35.7408851],[128.9847266,35.7408798],[128.9847387,35.740876],[128.9847661,35.7408723],[128.9847744,35.7408721],[128.984785,35.7408718],[128.9847933,35.7408717],[128.9848142,35.7408734]]]]}},{"type":"Feature","properties":{"UFID":"100035808010A00110100000003936747"},"geometry":{"type":"MultiPolygon","coordinates":[[[[128.9849451,35.7408847],[128.9848425,35.7408456],[128.9848142,35.7408734],[128.9848327,35.7408776],[128.9848511,35.7408865],[128.9848672,35.7408985],[128.9848726,35.7409025],[128.9849012,35.7409308],[128.9849451,35.7408847]]]]}},{"type":"Feature","properties":{"UFID":"100035808010A00110100000003936748"},"geometry":{"type":"MultiPolygon","coordinates":[[[[128.9848425,35.7408456],[128.9849451,35.7408847],[128.9849471,35.7408748],[128.984949,35.7408692],[128.9849569,35.7408453],[128.9849789,35.740824],[128.9849958,35.7408055],[128.9850086,35.740788],[128.9850239,35.7407621],[128.9850359,35.740738],[128.9850593,35.7406705],[128.9850995,35.7405813],[128.9850681,35.7405726],[128.9850277,35.7406621],[128.9850045,35.7407292],[128.9849936,35.7407511],[128.9849793,35.7407752],[128.9849682,35.7407905],[128.9849529,35.7408072],[128.9849326,35.7408268],[128.9849227,35.7408346],[128.9848923,35.7408399],[128.9848797,35.7408419],[128.9848647,35.7408421],[128.9848425,35.7408456]]]]}},{"type":"Feature","properties":{"UFID":"100035808010A00110100000003936749"},"geometry":{"type":"MultiPolygon","coordinates":[[[[128.992326,35.7286785],[128.9923096,35.7286745],[128.9922508,35.7286012],[128.9922156,35.7286117],[128.9922842,35.7286855],[128.9922856,35.7286872],[128.992287,35.7286935],[128.9922874,35.7287043],[128.9922855,35.7287157],[128.992326,35.7286785]]]]}},{"type":"Feature","properties":{"UFID":"100035808010A00110100000003936750"},"geometry":{"type":"MultiPolygon","coordinates":[[[[128.9923545,35.7287091],[128.992326,35.7286785],[128.9922855,35.7287157],[128.9923176,35.728741],[128.9923545,35.7287091]]]]}},{"type":"Feature","properties":{"UFID":"100035808010A00110100000003936751"},"geometry":{"type":"MultiPolygon","coordinates":[[[[128.9850898,35.7411725],[128.9850925,35.7412389],[128.9851337,35.7411628],[128.9851531,35.7411039],[128.9851713,35.7410383],[128.9851713,35.7409182],[128.9852054,35.7408638],[128.9852707,35.7407677],[128.985295,35.7407487],[128.985389,35.7406939],[128.9853745,35.7406719],[128.9852961,35.7407185],[128.9852505,35.7407514],[128.9852178,35.7407965],[128.9851833,35.7408558],[128.9851463,35.7409003],[128.98514,35.7409124],[128.9851385,35.7409178],[128.9851381,35.7409219],[128.9851378,35.7409261],[128.9851378,35.7409326],[128.9851395,35.7410201],[128.9851314,35.7410709],[128.9850981,35.7411738],[128.9850956,35.7411769],[128.985093,35.7411766],[128.9850914,35.7411753],[128.9850898,35.7411725]]]]}},{"type":"Feature","properties":{"UFID":"100035808010A00110100000003936752"},"geometry":{"type":"MultiPolygon","coordinates":[[[[128.9850925,35.7412389],[128.9850588,35.7412282],[128.9850445,35.7412846],[128.9850344,35.7413073],[128.9850219,35.7413299],[128.9850081,35.74135],[128.984983,35.7413769],[128.9849521,35.7414037],[128.9849073,35.7414418],[128.9848527,35.7415052],[128.984828,35.7415434],[128.9848118,35.7415745],[128.9847981,35.7416069],[128.9847907,35.741631],[128.9847874,35.7416452],[128.9847864,35.7416548],[128.9847854,35.7416642],[128.9847842,35.7416846],[128.9847828,35.7417478],[128.984774,35.7418493],[128.9847707,35.7418692],[128.9847665,35.7418934],[128.984765,35.7419046],[128.9847625,35.7419279],[128.9847641,35.7419665],[128.984769,35.741989],[128.9847864,35.7420625],[128.984791,35.7420937],[128.9847913,35.742116],[128.9847901,35.7421347],[128.9847858,35.7421514],[128.9847779,35.7421687],[128.984763,35.7421897],[128.9847387,35.7422181],[128.984727,35.7422317],[128.9847221,35.7422373],[128.984714,35.7422467],[128.9846985,35.7422672],[128.9846822,35.7422977],[128.9846516,35.7423524],[128.9846496,35.7423614],[128.9846458,35.7423811],[128.984645,35.7423897],[128.9846446,35.742405],[128.9846462,35.7424228],[128.9846481,35.742438],[128.9846482,35.7424452],[128.9846478,35.7424536],[128.9846472,35.7424641],[128.9846456,35.7424787],[128.984639,35.7425478],[128.9846246,35.7426257],[128.9846163,35.7426807],[128.9846142,35.7427123],[128.9846141,35.7427379],[128.9846151,35.7427601],[128.9846174,35.7427806],[128.9846223,35.742806],[128.9846331,35.7428355],[128.984644,35.7428549],[128.9846621,35.7428777],[128.9846784,35.7428938],[128.9847018,35.7429156],[128.9847305,35.7429391],[128.9847745,35.7429732],[128.9848171,35.7430133],[128.9848386,35.7430379],[128.9848589,35.7430684],[128.984872,35.7430985],[128.9848822,35.7431298],[128.984894,35.7431765],[128.9849114,35.7432635],[128.9849192,35.7433426],[128.9849208,35.7433944],[128.9849213,35.7434597],[128.9849183,35.7435069],[128.9849176,35.7435236],[128.9849166,35.743545],[128.9849088,35.7436151],[128.9849019,35.7436492],[128.9848935,35.7436952],[128.9848936,35.7437018],[128.9848934,35.7437169],[128.9848951,35.7437526],[128.984899,35.7437862],[128.9849037,35.7438131],[128.9849131,35.7438488],[128.9849261,35.7438905],[128.9849403,35.7439341],[128.9849463,35.7439599],[128.9849479,35.7439744],[128.9849483,35.7439835],[128.9849481,35.7439916],[128.9849456,35.7440088],[128.9849428,35.7440208],[128.9849397,35.7440322],[128.9849287,35.7440602],[128.984914,35.7440958],[128.984909,35.7441162],[128.9849074,35.7441277],[128.9849069,35.7441376],[128.9849069,35.7441439],[128.9849072,35.7441498],[128.9849077,35.7441579],[128.9849086,35.7441668],[128.9849092,35.7441732],[128.9849109,35.7441837],[128.9849131,35.7441935],[128.9849158,35.7442023],[128.9849331,35.7442519],[128.9849517,35.7443057],[128.9849597,35.7443464],[128.9849622,35.7443814],[128.9849632,35.7444144],[128.9849628,35.7444275],[128.9849621,35.7444388],[128.9849616,35.7444467],[128.9849615,35.7444608],[128.9849613,35.7444707],[128.9849617,35.744484],[128.9849626,35.7445032],[128.9849646,35.7445193],[128.984967,35.7445325],[128.9849764,35.7445619],[128.9849936,35.7446011],[128.9850234,35.7446667],[128.9850505,35.744742],[128.9850625,35.7447904],[128.9850673,35.7448314],[128.9850666,35.7448595],[128.9850653,35.7448797],[128.985063,35.7448947],[128.9850608,35.7449056],[128.9850591,35.7449109],[128.9850451,35.7449394],[128.9850291,35.7449616],[128.9850032,35.744993],[128.9849561,35.7450381],[128.9849143,35.7450796],[128.9849119,35.7450829],[128.9848735,35.745134],[128.9848393,35.7451867],[128.9848219,35.7452136],[128.9848092,35.7452464],[128.9848084,35.7452478],[128.9847934,35.7453137],[128.9847858,35.7453815],[128.9847752,35.745449],[128.9848034,35.7454837],[128.9848042,35.745477],[128.9848188,35.7453844],[128.9848263,35.7453174],[128.9848404,35.7452557],[128.9848526,35.745224],[128.9848686,35.7451993],[128.9849023,35.7451473],[128.9849402,35.745097],[128.9849414,35.7450953],[128.9849816,35.7450554],[128.9850296,35.7450093],[128.9850571,35.744976],[128.985075,35.7449514],[128.9850907,35.7449194],[128.9850933,35.7449112],[128.9850958,35.7448985],[128.9850983,35.7448821],[128.9850997,35.7448605],[128.9851005,35.7448303],[128.9850953,35.7447864],[128.9850828,35.7447356],[128.9850549,35.7446582],[128.9850247,35.7445919],[128.9850081,35.7445539],[128.9849995,35.744527],[128.9849975,35.744516],[128.9849957,35.7445013],[128.9849948,35.7444831],[128.9849945,35.7444706],[128.9849946,35.7444612],[128.9849948,35.7444475],[128.9849952,35.7444402],[128.984996,35.7444285],[128.9849964,35.7444143],[128.9849953,35.7443803],[128.9849928,35.7443435],[128.9849842,35.7442999],[128.984965,35.7442446],[128.9849479,35.7441953],[128.9849455,35.7441877],[128.9849437,35.7441796],[128.9849422,35.7441703],[128.9849416,35.7441647],[128.9849408,35.7441561],[128.9849403,35.7441485],[128.98494,35.7441435],[128.9849401,35.7441382],[128.9849405,35.7441297],[128.9849418,35.7441205],[128.9849461,35.7441028],[128.9849602,35.7440686],[128.9849718,35.7440392],[128.9849753,35.7440263],[128.9849784,35.7440129],[128.9849812,35.7439935],[128.9849815,35.7439833],[128.984981,35.7439727],[128.9849792,35.7439561],[128.9849726,35.7439281],[128.9849582,35.7438837],[128.9849454,35.7438426],[128.9849364,35.7438083],[128.9849319,35.7437831],[128.9849282,35.7437508],[128.9849266,35.7437165],[128.9849268,35.7437017],[128.9849267,35.7436969],[128.9849346,35.7436534],[128.9849417,35.7436185],[128.9849497,35.7435468],[128.9849507,35.7435247],[128.9849515,35.7435081],[128.9849545,35.7434603],[128.9849539,35.7433939],[128.9849523,35.7433411],[128.9849443,35.7432602],[128.9849266,35.7431716],[128.9849145,35.7431236],[128.9849037,35.7430905],[128.9848892,35.7430574],[128.9848667,35.7430236],[128.9848432,35.7429966],[128.9847985,35.7429545],[128.9847537,35.7429198],[128.9847261,35.7428971],[128.9847037,35.7428763],[128.9846889,35.7428616],[128.9846732,35.7428419],[128.9846643,35.7428259],[128.9846547,35.7428],[128.9846504,35.7427773],[128.9846482,35.7427584],[128.9846473,35.7427374],[128.9846474,35.742713],[128.9846493,35.7426831],[128.9846575,35.7426294],[128.9846719,35.7425509],[128.9846786,35.7424809],[128.9846803,35.742466],[128.9846809,35.7424547],[128.9846813,35.7424456],[128.9846812,35.7424366],[128.9846793,35.7424204],[128.9846778,35.7424043],[128.9846782,35.742391],[128.9846788,35.7423842],[128.9846823,35.7423659],[128.9846835,35.7423605],[128.9847125,35.7423087],[128.984728,35.7422797],[128.9847416,35.7422616],[128.9847492,35.7422529],[128.9847541,35.7422473],[128.9847659,35.7422336],[128.984791,35.7422042],[128.984808,35.7421803],[128.9848178,35.7421589],[128.9848231,35.7421383],[128.9848245,35.7421166],[128.9848241,35.7420919],[128.9848192,35.7420583],[128.9848016,35.7419841],[128.9847972,35.7419637],[128.9847958,35.7419286],[128.984798,35.7419072],[128.9847994,35.7418967],[128.9848036,35.7418729],[128.984807,35.741852],[128.9848159,35.741749],[128.9848174,35.7416854],[128.9848185,35.741666],[128.9848194,35.7416571],[128.9848203,35.7416489],[128.9848231,35.7416368],[128.98483,35.7416146],[128.9848428,35.7415842],[128.984858,35.741555],[128.9848811,35.7415193],[128.984933,35.741459],[128.9849761,35.7414223],[128.9850083,35.7413944],[128.9850359,35.7413648],[128.9850483,35.7413493],[128.9850705,35.7413086],[128.9850925,35.7412389]]]]}},{"type":"Feature","properties":{"UFID":"100035808010A00110100000003936753"},"geometry":{"type":"MultiPolygon","coordinates":[[[[128.9850898,35.7411725],[128.9850612,35.7411925],[128.9850588,35.7412282],[128.9850925,35.7412389],[128.9850898,35.7411725]]]]}},{"type":"Feature","properties":{"UFID":"100035808010A00110100000003936754"},"geometry":{"type":"MultiPolygon","coordinates":[[[[128.9850898,35.7411725],[128.9850915,35.741167],[128.9850964,35.7411395],[128.9850998,35.7411024],[128.9850963,35.7410667],[128.9850832,35.7410353],[128.9850496,35.7410023],[128.9849927,35.7409746],[128.9849644,35.7409619],[128.9849483,35.7409493],[128.9849454,35.7409348],[128.984944,35.7409113],[128.9849438,35.7409019],[128.9849441,35.7408911],[128.9849451,35.7408847],[128.9849012,35.7409308],[128.9849042,35.7409338],[128.9849209,35.7409534],[128.9849288,35.7409624],[128.9849335,35.7409669],[128.9850002,35.741005],[128.9850235,35.7410195],[128.9850391,35.7410322],[128.9850486,35.7410415],[128.9850555,35.7410519],[128.9850592,35.7410591],[128.9850601,35.7410623],[128.9850619,35.7410724],[128.9850641,35.7410853],[128.9850656,35.7411058],[128.9850643,35.7411458],[128.9850612,35.7411925],[128.9850898,35.7411725]]]]}},{"type":"Feature","properties":{"UFID":"100035808010A00110100000003936755"},"geometry":{"type":"MultiPolygon","coordinates":[[[[128.9931904,35.726368],[128.9931162,35.7263472],[128.9931058,35.7263729],[128.9931484,35.7263816],[128.9931742,35.7263916],[128.9931904,35.726368]]]]}},{"type":"Feature","properties":{"UFID":"100035808010A00110100000003936756"},"geometry":{"type":"MultiPolygon","coordinates":[[[[128.994503,35.728085],[128.9945001,35.7280809],[128.9945003,35.7280679],[128.9945004,35.7280064],[128.994497,35.727945],[128.9944765,35.7278631],[128.9944633,35.7277953],[128.9944433,35.7277338],[128.9943812,35.7275997],[128.9943574,35.7275594],[128.9943083,35.7274572],[128.9942782,35.7274148],[128.9942638,35.7274012],[128.9942193,35.727372],[128.9941483,35.7273292],[128.9940505,35.7272709],[128.9939408,35.7272233],[128.9938346,35.7271779],[128.9937608,35.7271359],[128.9936348,35.7270726],[128.9935154,35.7270002],[128.9934401,35.726954],[128.9934102,35.7269438],[128.9933924,35.7269397],[128.9933718,35.7269365],[128.9933532,35.7269349],[128.99334,35.7269342],[128.9933165,35.7269345],[128.9932954,35.7269359],[128.9932772,35.7269381],[128.993228,35.7269448],[128.9931627,35.7269514],[128.9931123,35.7269497],[128.9930636,35.7269436],[128.9930194,35.7269343],[128.9929863,35.7269167],[128.9929736,35.7269061],[128.9929667,35.7268957],[128.9929631,35.7268891],[128.9929598,35.7268782],[128.992958,35.7268611],[128.9929583,35.726847],[128.9929647,35.7267737],[128.9929823,35.7266795],[128.9929919,35.7266606],[128.993008,35.7266471],[128.9930335,35.7266398],[128.9931545,35.7266298],[128.9932031,35.7266212],[128.993233,35.7266129],[128.9932574,35.7265969],[128.9932677,35.7265843],[128.9932806,35.7265585],[128.9932844,35.7265208],[128.9932798,35.7264787],[128.9932722,35.7264389],[128.9932489,35.7264012],[128.9932314,35.7263838],[128.9931904,35.726368],[128.9931742,35.7263916],[128.9932105,35.7264057],[128.993221,35.726416],[128.9932402,35.7264472],[128.9932469,35.726482],[128.9932511,35.7265209],[128.9932479,35.7265522],[128.9932383,35.7265716],[128.9932327,35.7265784],[128.9932168,35.7265888],[128.9931942,35.7265951],[128.9931507,35.7266028],[128.993016,35.7266004],[128.9929667,35.7266138],[128.9929463,35.7266261],[128.9929253,35.7266668],[128.9929143,35.7267689],[128.9929092,35.7268292],[128.9929153,35.7268737],[128.9929271,35.7269102],[128.9929585,35.7269408],[128.9929788,35.7269522],[128.9930011,35.7269605],[128.9930237,35.7269698],[128.9930399,35.7269722],[128.9930492,35.7269746],[128.9931091,35.7269794],[128.993199,35.726973],[128.9932865,35.7269601],[128.9933385,35.726957],[128.9933669,35.7269578],[128.9933835,35.72696],[128.9934088,35.7269663],[128.9934222,35.7269709],[128.9934306,35.7269735],[128.9934614,35.726991],[128.9935027,35.7270165],[128.9935841,35.727076],[128.9937443,35.7271594],[128.9938173,35.727201],[128.9939253,35.7272472],[128.9940328,35.7272938],[128.9941287,35.727351],[128.9941991,35.7273934],[128.9942406,35.7274207],[128.9942511,35.7274306],[128.9942783,35.7274689],[128.994327,35.7275702],[128.9943507,35.7276104],[128.9944116,35.7277421],[128.9944308,35.7278009],[128.9944439,35.7278679],[128.994464,35.7279483],[128.9944673,35.7280069],[128.9944672,35.7280677],[128.9944669,35.7280902],[128.9944653,35.7281111],[128.9944624,35.7281407],[128.994503,35.728085]]]]}},{"type":"Feature","properties":{"UFID":"100035808010A00110100000003936757"},"geometry":{"type":"MultiPolygon","coordinates":[[[[128.9930295,35.7283756],[128.9930227,35.7283425],[128.9929792,35.7283538],[128.9929834,35.728382],[128.9930295,35.7283756]]]]}},{"type":"Feature","properties":{"UFID":"100035808010A00110100000003936758"},"geometry":{"type":"MultiPolygon","coordinates":[[[[128.9944019,35.7282178],[128.9944445,35.7281545],[128.9944255,35.7281551],[128.9944011,35.7281551],[128.9943474,35.7281471],[128.9943086,35.728142],[128.9942669,35.7281327],[128.9941648,35.7281108],[128.9941062,35.7281017],[128.9940603,35.7280996],[128.9939722,35.728117],[128.9938189,35.7281523],[128.993688,35.7281814],[128.9935928,35.7281991],[128.9933818,35.7282445],[128.9931631,35.7283036],[128.9930698,35.7283303],[128.9930227,35.7283425],[128.9930295,35.7283756],[128.9930361,35.7283714],[128.9930804,35.728356],[128.9931738,35.7283292],[128.9933912,35.7282705],[128.9936007,35.7282253],[128.993696,35.7282077],[128.9938278,35.7281783],[128.9939806,35.7281432],[128.9940633,35.7281269],[128.9941021,35.7281286],[128.9941566,35.728137],[128.9942553,35.7281675],[128.9943286,35.7281838],[128.9943884,35.7282097],[128.9944019,35.7282178]]]]}},{"type":"Feature","properties":{"UFID":"100035808010A00110100000003936759"},"geometry":{"type":"MultiPolygon","coordinates":[[[[128.9943653,35.7282272],[128.9943076,35.7282084],[128.994229,35.7281839],[128.9942132,35.7282176],[128.9942915,35.728242],[128.9942931,35.7282425],[128.994345,35.728262],[128.9943653,35.7282272]]]]}},{"type":"Feature","properties":{"UFID":"100035808010A00110100000003936760"},"geometry":{"type":"MultiPolygon","coordinates":[[[[128.9944935,35.7282535],[128.9943653,35.7282272],[128.994345,35.728262],[128.9943755,35.7282734],[128.9944623,35.7283076],[128.9944935,35.7282535]]]]}},{"type":"Feature","properties":{"UFID":"100035808010A00110100000003936761"},"geometry":{"type":"MultiPolygon","coordinates":[[[[128.9944735,35.7282284],[128.9944019,35.7282178],[128.9944015,35.7282248],[128.9943957,35.7282291],[128.9943825,35.7282287],[128.9943653,35.7282272],[128.9944935,35.7282535],[128.9944758,35.7282405],[128.9944735,35.7282284]]]]}},{"type":"Feature","properties":{"UFID":"100035808010A00110100000003936762"},"geometry":{"type":"MultiPolygon","coordinates":[[[[128.9944918,35.7281639],[128.9944445,35.7281545],[128.9944019,35.7282178],[128.9944735,35.7282284],[128.9944918,35.7281639]]]]}},{"type":"Feature","properties":{"UFID":"100035808010A00110100000003936763"},"geometry":{"type":"MultiPolygon","coordinates":[[[[128.9945019,35.7281521],[128.9944624,35.7281407],[128.9944574,35.7281498],[128.9944445,35.7281545],[128.9944918,35.7281639],[128.9944971,35.7281592],[128.9945019,35.7281521]]]]}},{"type":"Feature","properties":{"UFID":"100035808010A00110100000003936764"},"geometry":{"type":"MultiPolygon","coordinates":[[[[128.9946923,35.7284289],[128.9946851,35.7284013],[128.9945972,35.7283296],[128.9944935,35.7282535],[128.9944623,35.7283076],[128.9945031,35.7283237],[128.994575,35.7283694],[128.9945948,35.7283993],[128.9946073,35.7284332],[128.9946085,35.7284365],[128.9946923,35.7284289]]]]}},{"type":"Feature","properties":{"UFID":"100035808010A00110100000003936765"},"geometry":{"type":"MultiPolygon","coordinates":[[[[128.9945401,35.7280948],[128.994503,35.728085],[128.9944624,35.7281407],[128.9945019,35.7281521],[128.9945401,35.7280948]]]]}},{"type":"Feature","properties":{"UFID":"100035808010A00110100000003936766"},"geometry":{"type":"MultiPolygon","coordinates":[[[[128.994503,35.728085],[128.9945401,35.7280948],[128.9945731,35.72803],[128.9946258,35.7279121],[128.994698,35.7277641],[128.9946672,35.7277542],[128.9945948,35.7279024],[128.9945422,35.7280202],[128.9945229,35.728058],[128.994503,35.728085]]]]}},{"type":"Feature","properties":{"UFID":"100035808010A00110100000003936767"},"geometry":{"type":"MultiPolygon","coordinates":[[[[128.9946517,35.728484],[128.9946085,35.7284365],[128.9945927,35.7284547],[128.9945766,35.7284611],[128.9945753,35.7284615],[128.9945713,35.7284625],[128.994544,35.7284694],[128.9945539,35.7284953],[128.994581,35.7284884],[128.9945831,35.7284879],[128.9946517,35.728484]]]]}},{"type":"Feature","properties":{"UFID":"100035808010A00110100000003936768"},"geometry":{"type":"MultiPolygon","coordinates":[[[[128.994726,35.7284412],[128.9946923,35.7284289],[128.9946085,35.7284365],[128.9946517,35.728484],[128.994726,35.7284412]]]]}},{"type":"Feature","properties":{"UFID":"100035808010A00110100000003936769"},"geometry":{"type":"MultiPolygon","coordinates":[[[[128.995065,35.7285323],[128.9950106,35.7285276],[128.9949651,35.7285124],[128.9948854,35.7284846],[128.9948187,35.7284679],[128.9947904,35.7284645],[128.994726,35.7284412],[128.9946517,35.728484],[128.9947333,35.7284852],[128.9948114,35.7284943],[128.9948739,35.72851],[128.9949523,35.7285373],[128.9950125,35.7285575],[128.9950239,35.7285649],[128.995065,35.7285323]]]]}},{"type":"Feature","properties":{"UFID":"100035808010A00110100000003936770"},"geometry":{"type":"MultiPolygon","coordinates":[[[[128.993038,35.7284145],[128.9930302,35.7283964],[128.9930266,35.7283864],[128.9930265,35.7283799],[128.9930295,35.7283756],[128.9929834,35.728382],[128.9929896,35.7283867],[128.9929897,35.7283923],[128.9929709,35.728447],[128.993038,35.7284145]]]]}},{"type":"Feature","properties":{"UFID":"100035808010A00110100000003936771"},"geometry":{"type":"MultiPolygon","coordinates":[[[[128.9930624,35.7284709],[128.9930114,35.7284961],[128.9930251,35.7284999],[128.993036,35.7285071],[128.9930489,35.7285153],[128.9930565,35.7285223],[128.9930619,35.7285227],[128.9930789,35.7285218],[128.9931067,35.7285171],[128.9931577,35.7285098],[128.9931886,35.7285034],[128.9932491,35.7284826],[128.9932957,35.7284635],[128.9933211,35.7284573],[128.9933286,35.728454],[128.9933358,35.7284482],[128.9933603,35.7284169],[128.9934094,35.7283961],[128.9933979,35.7283815],[128.9933485,35.7284039],[128.9932079,35.7284581],[128.9931497,35.7284751],[128.9931175,35.7284797],[128.9931021,35.7284813],[128.9930897,35.7284816],[128.9930756,35.7284801],[128.9930624,35.7284709]]]]}},{"type":"Feature","properties":{"UFID":"100035808010A00110100000003936772"},"geometry":{"type":"MultiPolygon","coordinates":[[[[128.9930624,35.7284709],[128.993038,35.7284145],[128.9929709,35.728447],[128.9930114,35.7284961],[128.9930624,35.7284709]]]]}},{"type":"Feature","properties":{"UFID":"100035808010A00110100000003936773"},"geometry":{"type":"MultiPolygon","coordinates":[[[[128.9930114,35.7284961],[128.9929709,35.728447],[128.9929679,35.728453],[128.9929609,35.7284616],[128.9928644,35.7285238],[128.992868,35.7285462],[128.9929674,35.7285009],[128.9929732,35.7284969],[128.9929813,35.728495],[128.9929963,35.7284942],[128.9930114,35.7284961]]]]}},{"type":"Feature","properties":{"UFID":"100035808010A00110100000003936774"},"geometry":{"type":"MultiPolygon","coordinates":[[[[128.9929834,35.728382],[128.9929792,35.7283538],[128.9928671,35.7283846],[128.992761,35.7284195],[128.9926245,35.7284721],[128.9925275,35.7285221],[128.9924493,35.7285862],[128.9923566,35.7286713],[128.9923479,35.7286754],[128.9923321,35.7286783],[128.992326,35.7286785],[128.9923545,35.7287091],[128.9924028,35.7286675],[128.9924831,35.7285831],[128.9925636,35.7285267],[128.9926448,35.7284911],[128.99278,35.7284464],[128.9929628,35.7283858],[128.9929812,35.728382],[128.9929834,35.728382]]]]}},{"type":"Feature","properties":{"UFID":"100035808010A00110100000003936794"},"geometry":{"type":"MultiPolygon","coordinates":[[[[128.9931162,35.7263472],[128.9930742,35.7263386],[128.992948,35.7263271],[128.9929245,35.7263273],[128.9928612,35.7263452],[128.9928536,35.7263459],[128.9928418,35.7263452],[128.9927431,35.7263193],[128.9926915,35.7263066],[128.9925221,35.7262489],[128.9923903,35.7261768],[128.9922321,35.7260959],[128.9920922,35.7260053],[128.9919746,35.7259167],[128.9918448,35.725796],[128.9917881,35.7257487],[128.991601,35.7256173],[128.9915364,35.7255691],[128.9913871,35.725473],[128.9912863,35.7254269],[128.9912701,35.7254505],[128.9913686,35.7254956],[128.9915149,35.7255897],[128.991579,35.7256375],[128.9917653,35.7257685],[128.9918205,35.7258144],[128.9919508,35.7259355],[128.9920706,35.7260258],[128.9922129,35.726118],[128.9923722,35.7261995],[128.9925064,35.7262728],[128.9926802,35.7263321],[128.9927333,35.7263451],[128.9928354,35.726372],[128.9928544,35.7263731],[128.9928687,35.7263717],[128.9929303,35.7263543],[128.9929463,35.7263541],[128.9930683,35.7263652],[128.9931058,35.7263729],[128.9931162,35.7263472]]]]}},{"type":"Feature","properties":{"UFID":"100035808010A00110100000003936795"},"geometry":{"type":"MultiPolygon","coordinates":[[[[128.9931162,35.7263472],[128.9931904,35.726368],[128.9931701,35.7263241],[128.9931492,35.7262821],[128.9931202,35.726201],[128.9931071,35.7261316],[128.993041,35.7261357],[128.9930408,35.7261469],[128.9930427,35.7261648],[128.9930495,35.7261956],[128.9930734,35.7262525],[128.9931139,35.7263262],[128.9931162,35.7263472]]]]}}]}