{"type":"FeatureCollection","features":[{"type":"Feature","properties":{"UFID":"100036913096A00110100000004404199"},"geometry":{"type":"MultiPolygon","coordinates":[[[[129.1347174,35.9998834],[129.1346917,35.9999073],[129.1347213,35.999933],[129.1347479,35.9999737],[129.1347525,36.0],[129.1347527,36.0000006],[129.1347546,36.0000184],[129.1347531,36.0000266],[129.1347431,36.0000535],[129.1347115,36.0000958],[129.1346462,36.0001475],[129.1345503,36.0002116],[129.1344772,36.0003016],[129.1345049,36.0003165],[129.1345753,36.0002299],[129.1346684,36.0001676],[129.1347377,36.0001128],[129.1347737,36.0000646],[129.1347857,36.0000325],[129.1347881,36.0000191],[129.134786,36.0000006],[129.1347859,36.0],[129.1347782,35.9999664],[129.134753,35.999918],[129.1347174,35.9998834]]]]}},{"type":"Feature","properties":{"UFID":"100036913096A00110100000004404266"},"geometry":{"type":"MultiPolygon","coordinates":[[[[129.1341819,35.9995143],[129.1341257,35.999505],[129.1341305,35.9995108],[129.1341325,35.9995182],[129.1341335,35.9995486],[129.1341023,35.9996631],[129.1340563,35.9997804],[129.133999,35.9999364],[129.1339669,36.0],[129.1339667,36.0000006],[129.1339336,36.0000744],[129.1338418,36.000257],[129.1338326,36.0002808],[129.1337888,36.0004275],[129.133766,36.0006118],[129.1337501,36.0006531],[129.1337945,36.0006717],[129.1338098,36.0006182],[129.1338327,36.0004335],[129.1338753,36.0002905],[129.1338836,36.0002692],[129.133975,36.0000873],[129.1340139,36.0000006],[129.1340142,36.0],[129.1340359,35.9999465],[129.1340934,35.9997897],[129.1341399,35.9996714],[129.1341755,35.99954],[129.1341819,35.9995143]]]]}},{"type":"Feature","properties":{"UFID":"100035901006A00110100000004404508"},"geometry":{"type":"MultiPolygon","coordinates":[[[[129.1291724,35.9959873],[129.1291676,35.9960141],[129.1291805,35.9960156],[129.1292186,35.9960292],[129.1292635,35.9960538],[129.1293064,35.9960802],[129.1293359,35.9961055],[129.1293653,35.9961374],[129.1293831,35.9961587],[129.1294022,35.9961844],[129.1294463,35.9962357],[129.129484,35.996276],[129.1295355,35.9963206],[129.1295579,35.9963368],[129.1296296,35.9963866],[129.1296852,35.9964301],[129.1297287,35.996474],[129.1297645,35.9965133],[129.1297957,35.9965575],[129.1298188,35.9966047],[129.1298346,35.9966543],[129.1298375,35.9966948],[129.1298378,35.9967115],[129.1298319,35.9967607],[129.1298125,35.9968264],[129.1297826,35.9969124],[129.1297739,35.9969408],[129.1297379,35.9970758],[129.1297369,35.9970878],[129.1297374,35.997103],[129.1297383,35.9971519],[129.1297479,35.997196],[129.1297637,35.997232],[129.1297892,35.9972718],[129.1298127,35.9972959],[129.1298552,35.9973219],[129.1298713,35.9973295],[129.1299494,35.9973637],[129.1300444,35.9973995],[129.1300647,35.9974092],[129.1301039,35.9974335],[129.1301261,35.9974559],[129.1301411,35.9974876],[129.1301497,35.9975167],[129.1301521,35.9975243],[129.1301521,35.9975263],[129.1301467,35.9975409],[129.130146,35.9975418],[129.1301326,35.9975483],[129.1300883,35.9975809],[129.1300186,35.9976339],[129.1299859,35.9976685],[129.1299707,35.9977002],[129.1299715,35.9977449],[129.1299798,35.99777],[129.1300048,35.9978023],[129.1300294,35.9978294],[129.130099,35.9979057],[129.1301516,35.9979651],[129.1301785,35.9980065],[129.1301962,35.9980458],[129.1302097,35.9980832],[129.1302164,35.9981073],[129.1302437,35.9981964],[129.1302797,35.9983308],[129.1303006,35.998419],[129.1303063,35.9984487],[129.1303097,35.9985012],[129.1303085,35.9985489],[129.1303029,35.9986006],[129.1302814,35.9987147],[129.1302801,35.9987278],[129.1302791,35.9987614],[129.1302819,35.9987737],[129.1302897,35.9987873],[129.1303118,35.9988089],[129.1303374,35.9988347],[129.1303916,35.9988868],[129.1304122,35.9989041],[129.130442,35.9989393],[129.1304596,35.9989734],[129.1304695,35.9990159],[129.1304767,35.9990879],[129.1304836,35.9991472],[129.1304966,35.9992067],[129.1305211,35.9992728],[129.1305426,35.9993223],[129.13055,35.9993365],[129.1305911,35.9993857],[129.1306244,35.9994112],[129.1306908,35.9994471],[129.1307248,35.9994695],[129.1307596,35.9994993],[129.1308593,35.9995962],[129.130929,35.9996756],[129.1309445,35.9997001],[129.1309519,35.9997166],[129.130953,35.9997204],[129.1309529,35.9997274],[129.1309496,35.9997372],[129.1309426,35.9997482],[129.1308915,35.9997968],[129.1307801,35.9998837],[129.1307451,35.9999141],[129.1306446,36.0],[129.1306441,36.0000005],[129.1305991,36.000049],[129.1306298,36.0000678],[129.13069,36.0000005],[129.1306905,36.0],[129.1307693,35.9999327],[129.1308038,35.9999027],[129.1309158,35.9998154],[129.1309704,35.9997634],[129.1309808,35.9997471],[129.1309861,35.9997312],[129.1309863,35.9997175],[129.1309838,35.9997088],[129.130975,35.9996892],[129.1309575,35.9996615],[129.1308856,35.9995797],[129.1307844,35.9994813],[129.1307475,35.9994496],[129.1307105,35.9994253],[129.1306452,35.99939],[129.1306166,35.999368],[129.1305794,35.9993235],[129.1305737,35.9993125],[129.1305528,35.9992644],[129.1305291,35.9992004],[129.1305166,35.9991436],[129.1305099,35.9990856],[129.1305025,35.9990123],[129.1304916,35.9989655],[129.1304714,35.9989262],[129.130438,35.9988869],[129.1304162,35.9988687],[129.1303631,35.9988174],[129.1303375,35.9987918],[129.130318,35.9987727],[129.1303138,35.9987655],[129.1303124,35.9987593],[129.1303133,35.9987292],[129.1303144,35.9987179],[129.130336,35.9986039],[129.1303417,35.9985504],[129.130343,35.9985008],[129.1303394,35.9984458],[129.1303333,35.9984143],[129.1303123,35.9983253],[129.1302761,35.9981902],[129.1302488,35.9981011],[129.1302419,35.9980764],[129.1302278,35.9980373],[129.1302089,35.9979955],[129.1301799,35.9979508],[129.1301259,35.9978897],[129.1300561,35.9978133],[129.1300323,35.997787],[129.1300106,35.9977591],[129.1300047,35.9977411],[129.130004,35.9977051],[129.1300151,35.997682],[129.1300433,35.9976521],[129.1301108,35.9976008],[129.1301525,35.9975702],[129.13017,35.9975616],[129.1301772,35.9975522],[129.1301854,35.9975303],[129.1301854,35.9975209],[129.1301819,35.9975101],[129.130173,35.9974795],[129.1301553,35.9974423],[129.1301274,35.997414],[129.1300833,35.9973867],[129.1300598,35.9973755],[129.1299643,35.9973395],[129.1298875,35.9973059],[129.1298736,35.9972993],[129.1298361,35.9972764],[129.1298172,35.997257],[129.1297943,35.9972212],[129.1297802,35.997189],[129.1297715,35.9971493],[129.1297707,35.9971024],[129.1297702,35.9970884],[129.129771,35.9970796],[129.1298063,35.9969469],[129.1298148,35.9969193],[129.1298447,35.9968333],[129.1298648,35.9967652],[129.1298712,35.9967126],[129.1298708,35.9966938],[129.1298676,35.9966501],[129.1298505,35.9965962],[129.1298257,35.9965458],[129.1297924,35.9964985],[129.129755,35.9964575],[129.1297098,35.9964118],[129.1296519,35.9963666],[129.1295798,35.9963164],[129.1295587,35.9963012],[129.1295094,35.9962585],[129.1294732,35.9962198],[129.1294301,35.9961697],[129.1294111,35.9961441],[129.1293924,35.9961218],[129.1293614,35.996088],[129.1293286,35.99606],[129.1292828,35.9960318],[129.1292347,35.9960054],[129.1291898,35.9959894],[129.1291724,35.9959873]]]]}},{"type":"Feature","properties":{"UFID":"100036913086A00110100000007083454"},"geometry":{"type":"MultiPolygon","coordinates":[[[[129.1518108,36.0292001],[129.1517219,36.0292386],[129.1516792,36.0292492],[129.1516338,36.0292562],[129.151591,36.0292549],[129.1515472,36.0292539],[129.1514476,36.0292391],[129.1513706,36.0292279],[129.1512816,36.0292077],[129.1512612,36.0291972],[129.1512508,36.0291743],[129.1512576,36.0291454],[129.15128,36.029128],[129.1513572,36.0291031],[129.151381,36.0290978],[129.1514022,36.0290903],[129.1514183,36.0290839],[129.1514532,36.0290631],[129.1514602,36.0290368],[129.1514427,36.0290129],[129.1514163,36.0289876],[129.1513402,36.0289494],[129.151264,36.0289306],[129.1511853,36.0289092],[129.1511112,36.0288881],[129.151051,36.0288754],[129.151001,36.0288553],[129.1509628,36.0288369],[129.1508897,36.0287852],[129.1508577,36.0287589],[129.150851,36.028752],[129.1508365,36.0287406],[129.1507909,36.0287054],[129.1507561,36.0286801],[129.1507137,36.0286508],[129.1506108,36.0285821],[129.1505707,36.0285573],[129.1504479,36.0284865],[129.1503606,36.0284554],[129.150208,36.0284099],[129.1500992,36.0283595],[129.15,36.0283143],[129.1499137,36.0282752],[129.1498082,36.028228],[129.1497915,36.0282202],[129.149749,36.0281895],[129.1497185,36.0281566],[129.1496478,36.0280652],[129.149584,36.0279839],[129.1495247,36.0279198],[129.1495014,36.0278968],[129.1494058,36.0278037],[129.1493987,36.0277945],[129.1493991,36.0277785],[129.1494129,36.0277528],[129.1494285,36.0277431],[129.149505,36.0277074],[129.1495353,36.0276926],[129.1495625,36.0276753],[129.1495746,36.0276536],[129.1495676,36.0276294],[129.1495458,36.0276083],[129.1494415,36.0275348],[129.1493417,36.0274668],[129.1492178,36.0273687],[129.1491087,36.0272665],[129.1490564,36.0272158],[129.1489367,36.027106],[129.1489022,36.0270828],[129.1488727,36.0270687],[129.1487205,36.0270192],[129.1486468,36.0269985],[129.1484537,36.0269385],[129.148417,36.0269346],[129.1483781,36.0269349],[129.1482016,36.0269521],[129.1481495,36.026962],[129.1481083,36.0269627],[129.1480827,36.0269575],[129.1480481,36.0269341],[129.1480371,36.0269181],[129.1480307,36.0269043],[129.1480264,36.0268743],[129.1480277,36.0268572],[129.1480321,36.0268415],[129.148044,36.0268217],[129.1480542,36.0268101],[129.1481105,36.0267549],[129.1481564,36.0267163],[129.1481724,36.0267073],[129.1482208,36.0266786],[129.1482936,36.0266481],[129.1483283,36.0266329],[129.1483602,36.0266233],[129.1483847,36.0266038],[129.1483835,36.0265809],[129.1483734,36.0265614],[129.1483493,36.026548],[129.1481656,36.0265192],[129.1480196,36.0265014],[129.147879,36.0264817],[129.1477412,36.026464],[129.1475935,36.0264537],[129.1475408,36.026452],[129.1475117,36.0264468],[129.147501,36.0264313],[129.1475013,36.0264158],[129.1475119,36.0264089],[129.1476217,36.0263752],[129.1477215,36.0263422],[129.1478389,36.026297],[129.1478604,36.0262849],[129.1478716,36.0262762],[129.1478893,36.0262508],[129.1478819,36.026225],[129.1478572,36.0262034],[129.1478291,36.0261841],[129.147775,36.0261617],[129.1477201,36.026138],[129.1476525,36.0260943],[129.1475834,36.0260575],[129.147527,36.0260297],[129.1474817,36.026013],[129.1474162,36.026],[129.1472932,36.025979],[129.1471495,36.0259747],[129.1469994,36.0259793],[129.1468509,36.0259815],[129.1467024,36.0259874],[129.1466846,36.0259835],[129.146681,36.0259705],[129.1466935,36.0259543],[129.1467517,36.0259235],[129.1467746,36.0259092],[129.1468321,36.0258702],[129.1469313,36.0258017],[129.1469675,36.0257778],[129.1469681,36.0257554],[129.1469527,36.0257342],[129.1469189,36.0257274],[129.1468654,36.0257304],[129.1467838,36.0257527],[129.1467465,36.0257558],[129.1466703,36.0257524],[129.1465703,36.0257413],[129.1465395,36.0257389],[129.1464057,36.0257337],[129.1463613,36.025733],[129.1463141,36.0257326],[129.1462658,36.0257324],[129.1462202,36.0257334],[129.146176,36.0257339],[129.1461372,36.025734],[129.1460941,36.0257338],[129.1460567,36.0257389],[129.1460242,36.0257505],[129.1459947,36.0257741],[129.1459716,36.0258018],[129.1459493,36.0258311],[129.1459247,36.0258571],[129.1458923,36.0258801],[129.1458643,36.0258962],[129.1458331,36.0259138],[129.1458086,36.0259266],[129.1457962,36.0259391],[129.1458002,36.0259685],[129.1458042,36.0259867],[129.145812,36.0260322],[129.1458174,36.0260721],[129.1458205,36.0261132],[129.1458204,36.0261275],[129.1458222,36.0261595],[129.1458231,36.0261966],[129.1458254,36.0262362],[129.1458283,36.0263612],[129.1458616,36.0263607],[129.1458587,36.0262353],[129.1458563,36.0261957],[129.1458555,36.0261586],[129.1458537,36.026127],[129.1458537,36.0261125],[129.1458506,36.0260698],[129.145845,36.0260289],[129.1458371,36.0259825],[129.1458335,36.0259659],[129.1458529,36.0259507],[129.1459071,36.0259079],[129.1459373,36.0258906],[129.145969,36.0258697],[129.1460258,36.0258031],[129.1460532,36.0257895],[129.1460877,36.0257808],[129.1461323,36.0257782],[129.1462323,36.025778],[129.1463417,36.0257811],[129.1464286,36.0257772],[129.1464749,36.0257718],[129.146523,36.0257733],[129.1465803,36.0257763],[129.1466687,36.0257961],[129.1467056,36.0258026],[129.1467463,36.0258015],[129.1468623,36.0257783],[129.1468861,36.0257757],[129.1469002,36.0257765],[129.1468977,36.0257894],[129.1468107,36.0258495],[129.1467538,36.0258881],[129.1467324,36.0259014],[129.1466738,36.0259325],[129.146642,36.0259461],[129.1466203,36.0259652],[129.1466204,36.0259863],[129.146632,36.0260078],[129.1466525,36.0260242],[129.1466947,36.0260289],[129.1469179,36.0260269],[129.1470474,36.0260232],[129.1472184,36.0260253],[129.1473099,36.0260304],[129.1474234,36.0260448],[129.1474647,36.0260505],[129.1474984,36.0260592],[129.1475808,36.0261018],[129.1476311,36.0261349],[129.1476909,36.0261637],[129.1477547,36.0261926],[129.1478105,36.0262167],[129.1478335,36.0262333],[129.1478376,36.0262514],[129.1478366,36.0262654],[129.1478222,36.0262735],[129.1477081,36.0263174],[129.1476095,36.0263501],[129.1474951,36.0263851],[129.1474742,36.0263988],[129.1474645,36.0264165],[129.1474625,36.0264334],[129.1474646,36.0264515],[129.1474672,36.0264602],[129.1474836,36.0264789],[129.1475079,36.0264911],[129.1475404,36.0264968],[129.1477672,36.0265054],[129.1479039,36.0265295],[129.1481178,36.0265483],[129.1483057,36.0265735],[129.1483243,36.0265808],[129.1483259,36.0265935],[129.1483111,36.0266098],[129.148278,36.0266242],[129.1482033,36.0266555],[129.1481531,36.0266853],[129.1481347,36.0266956],[129.1480856,36.0267369],[129.1480278,36.0267936],[129.1480152,36.0268078],[129.1480005,36.0268325],[129.1479946,36.0268534],[129.1479931,36.0268751],[129.1479981,36.0269107],[129.1480068,36.0269295],[129.1480213,36.0269504],[129.1480358,36.0269696],[129.1480613,36.0269887],[129.1480885,36.0269996],[129.1481222,36.0270031],[129.1481686,36.0270003],[129.1482082,36.0269948],[129.1483523,36.0269784],[129.1483834,36.0269762],[129.1484147,36.0269757],[129.1484506,36.0269803],[129.148636,36.0270241],[129.1487089,36.0270446],[129.148858,36.0270931],[129.1488831,36.0271051],[129.1489135,36.0271255],[129.1490312,36.0272334],[129.1490833,36.0272841],[129.1491936,36.0273873],[129.1493193,36.0274869],[129.1494199,36.0275553],[129.1495202,36.0276261],[129.149525,36.027655],[129.1495141,36.0276714],[129.1494881,36.0276841],[129.14941,36.0277205],[129.1493891,36.0277336],[129.1493685,36.0277513],[129.1493547,36.0277711],[129.1493577,36.0277932],[129.1493672,36.0278046],[129.1493787,36.0278196],[129.1494758,36.027914],[129.1494985,36.0279365],[129.1495566,36.0279993],[129.1496197,36.0280796],[129.1496911,36.028172],[129.1497244,36.0282079],[129.1497719,36.0282423],[129.1497919,36.0282516],[129.1498976,36.0282988],[129.15,36.0283453],[129.1500828,36.028383],[129.150194,36.0284345],[129.1503482,36.0284805],[129.1504314,36.0285102],[129.150551,36.028579],[129.1505901,36.0286033],[129.1506924,36.0286715],[129.1507342,36.0287005],[129.1507683,36.0287252],[129.1508134,36.0287602],[129.1508262,36.0287702],[129.1508327,36.0287768],[129.1508669,36.0288049],[129.1509433,36.0288588],[129.1509851,36.0288791],[129.1510377,36.0289003],[129.1511157,36.0289294],[129.1512152,36.02896],[129.1513113,36.0289851],[129.1513759,36.0290106],[129.1514041,36.0290283],[129.1514069,36.0290455],[129.1513996,36.0290612],[129.1513882,36.0290657],[129.1513699,36.0290723],[129.1513467,36.0290774],[129.1512657,36.0291035],[129.1512393,36.0291155],[129.1511951,36.0291473],[129.1511927,36.0291744],[129.1512008,36.0291976],[129.1512128,36.0292201],[129.1512393,36.0292396],[129.1512741,36.0292514],[129.1514192,36.0292726],[129.1515294,36.0292937],[129.1515681,36.0292975],[129.1516724,36.0293049],[129.1518108,36.0292001]]]]}},{"type":"Feature","properties":{"UFID":"100036913087A00110100000007083455"},"geometry":{"type":"MultiPolygon","coordinates":[[[[129.1517421,36.0293444],[129.1516724,36.0293049],[129.1516738,36.0293184],[129.1516721,36.0293341],[129.1516466,36.0293809],[129.1516173,36.0294152],[129.1515809,36.0294505],[129.1515414,36.0294816],[129.1514948,36.0295125],[129.1514051,36.0295609],[129.1513103,36.0295998],[129.1512425,36.0296283],[129.1511844,36.0296574],[129.1511137,36.0296986],[129.1510837,36.0297148],[129.151045,36.029738],[129.1510033,36.0297624],[129.1509612,36.0297875],[129.1509168,36.0298143],[129.1508772,36.0298396],[129.1508376,36.0298632],[129.1507985,36.0298835],[129.1507611,36.0299007],[129.1507151,36.0299148],[129.1506649,36.0299323],[129.150622,36.0299447],[129.1505855,36.0299556],[129.1505479,36.0299695],[129.1505162,36.0299906],[129.1504221,36.0300627],[129.1503363,36.0301412],[129.1502742,36.0302052],[129.150257,36.0302245],[129.1502374,36.0302545],[129.1502243,36.0302833],[129.1502102,36.0303227],[129.1502034,36.0303616],[129.1502001,36.0303996],[129.1501991,36.0304388],[129.150199,36.0304792],[129.1502033,36.0305335],[129.1502106,36.0307347],[129.1502085,36.0307727],[129.1501987,36.0308],[129.1501806,36.0308253],[129.1501748,36.0308312],[129.1501608,36.0308432],[129.1501234,36.0308742],[129.15,36.030966],[129.1498637,36.0310706],[129.1496775,36.0312255],[129.1495881,36.0313031],[129.1494832,36.031386],[129.1494337,36.0314194],[129.149396,36.0314372],[129.1493569,36.0314522],[129.149311,36.0314666],[129.1492309,36.0314843],[129.1491764,36.0314927],[129.1491121,36.0314925],[129.1491529,36.0315268],[129.1491827,36.0315193],[129.1492384,36.0315106],[129.1493214,36.0314924],[129.14937,36.0314771],[129.1494116,36.0314612],[129.1494528,36.0314416],[129.1495055,36.0314062],[129.1496119,36.0313221],[129.1497016,36.0312441],[129.1498871,36.0310899],[129.15,36.0310027],[129.1501466,36.0308937],[129.1501848,36.030862],[129.1502,36.0308489],[129.1502082,36.0308406],[129.1502295,36.0308107],[129.1502415,36.0307772],[129.1502439,36.0307349],[129.1502365,36.0305323],[129.1502323,36.0304784],[129.1502324,36.0304391],[129.1502334,36.0304009],[129.1502366,36.0303645],[129.1502427,36.0303289],[129.1502543,36.0303062],[129.1502684,36.0302767],[129.150329,36.0301997],[129.1504402,36.0301027],[129.1505156,36.0300435],[129.1505494,36.0300212],[129.1505837,36.0300053],[129.1507271,36.0299482],[129.1508134,36.0299167],[129.1508487,36.029905],[129.1508789,36.0298932],[129.1509075,36.0298763],[129.1510776,36.0297676],[129.1511916,36.0297011],[129.1513491,36.029633],[129.1513897,36.0296144],[129.1514477,36.0295831],[129.1515158,36.0295488],[129.1515591,36.0295238],[129.1515965,36.0294966],[129.15164,36.0294616],[129.1516803,36.0294207],[129.1517148,36.0293772],[129.1517421,36.0293444]]]]}},{"type":"Feature","properties":{"UFID":"100036913086A00110100000007083456"},"geometry":{"type":"MultiPolygon","coordinates":[[[[129.1491206,36.0315507],[129.1490907,36.0315388],[129.1490568,36.0316027],[129.1490358,36.0316612],[129.1490213,36.0317122],[129.1490171,36.0317547],[129.1490203,36.0318703],[129.1490211,36.0318783],[129.1490338,36.0319617],[129.1490361,36.0319944],[129.1490368,36.032045],[129.1490283,36.0321189],[129.1490212,36.0321539],[129.1490071,36.0322077],[129.1489668,36.0323301],[129.1489618,36.0323401],[129.1489536,36.032354],[129.1489193,36.0324339],[129.1489001,36.0324765],[129.1488719,36.0325612],[129.1488657,36.0325879],[129.1488533,36.0326525],[129.1488443,36.0327132],[129.1488414,36.0327406],[129.1488202,36.0328494],[129.1488117,36.0329186],[129.1488076,36.0329746],[129.1488063,36.0330302],[129.148806,36.0330553],[129.148807,36.0331076],[129.1488102,36.0331588],[129.1488101,36.033209],[129.1488072,36.0332565],[129.1488062,36.0332799],[129.1487945,36.033469],[129.1487889,36.0335752],[129.1487874,36.0335987],[129.1487863,36.0336246],[129.1487869,36.0336508],[129.148783,36.0337517],[129.1487799,36.0337711],[129.1487656,36.0338228],[129.1487527,36.0338596],[129.1487454,36.0338793],[129.1487003,36.0339734],[129.1486083,36.0341432],[129.1484961,36.0343565],[129.1483943,36.0345747],[129.1483895,36.0345879],[129.1483784,36.0346346],[129.1483743,36.0346753],[129.1483744,36.0346833],[129.1483745,36.0346957],[129.1483723,36.0347815],[129.1483706,36.0348003],[129.1483545,36.0348651],[129.1483372,36.0349024],[129.1483266,36.0349231],[129.1482813,36.0349975],[129.1482634,36.0350289],[129.1481194,36.0352184],[129.1480775,36.0352758],[129.1480244,36.0353414],[129.148012,36.0353587],[129.1479999,36.0353774],[129.1479284,36.0354939],[129.1479182,36.0355121],[129.1479057,36.03553],[129.1478793,36.0355654],[129.147841,36.0356055],[129.1478015,36.0356354],[129.1477538,36.0356636],[129.1476964,36.035688],[129.1476458,36.0357066],[129.1475923,36.0357191],[129.1475605,36.0357274],[129.1474575,36.0357499],[129.1474233,36.0357583],[129.1473125,36.0357829],[129.1472853,36.0357897],[129.1472586,36.0357981],[129.1471487,36.0358358],[129.1471222,36.035848],[129.1470415,36.0358857],[129.1469952,36.035912],[129.1469141,36.0359721],[129.1468055,36.0360814],[129.1466285,36.036291],[129.1465064,36.0364525],[129.1464077,36.036597],[129.1462638,36.0368353],[129.1462035,36.0369586],[129.1461249,36.0370969],[129.1460416,36.0372196],[129.1459865,36.0372973],[129.1459796,36.0373079],[129.1459706,36.0373206],[129.1459567,36.0373376],[129.1459003,36.0374084],[129.1458871,36.0374251],[129.1458747,36.0374411],[129.1458334,36.0374902],[129.1458066,36.0375124],[129.1457899,36.0375246],[129.1457312,36.0375659],[129.1457111,36.0375804],[129.1456496,36.0376238],[129.1456318,36.0376378],[129.1455536,36.0377094],[129.1454877,36.0377608],[129.1454677,36.0377774],[129.1454472,36.037794],[129.1453902,36.0378415],[129.145356,36.0378691],[129.1451626,36.0379617],[129.145108,36.0380119],[129.1450852,36.0380417],[129.1450302,36.0381485],[129.1450053,36.0381847],[129.1449929,36.0381932],[129.1449527,36.0382034],[129.1449416,36.0382041],[129.144927,36.0382037],[129.1449098,36.0382003],[129.1448622,36.0381705],[129.144788,36.0380907],[129.144688,36.0379449],[129.1446006,36.0378245],[129.1445727,36.0377963],[129.1445348,36.0377691],[129.1445004,36.0377474],[129.1444254,36.0377137],[129.144344,36.0376873],[129.1442016,36.037644],[129.144045,36.0375805],[129.1437703,36.0374718],[129.1436419,36.0374309],[129.1435434,36.0374103],[129.1434744,36.0374041],[129.1434093,36.0374061],[129.1433669,36.0374143],[129.1433174,36.0374397],[129.1431266,36.0375461],[129.1430029,36.0376219],[129.142872,36.037711],[129.1427323,36.037797],[129.1425813,36.0378728],[129.1424114,36.0379665],[129.1423879,36.0379809],[129.1422891,36.0380543],[129.1422298,36.0381132],[129.1421153,36.0382481],[129.1420348,36.0383339],[129.1419456,36.0384117],[129.1418396,36.0384954],[129.1417933,36.0385465],[129.1417736,36.0385788],[129.1417099,36.0387469],[129.1416833,36.0387938],[129.1416571,36.0388325],[129.14155,36.0389384],[129.1413935,36.0390824],[129.141263,36.0392155],[129.1412207,36.0392525],[129.1411986,36.0392671],[129.1411673,36.0392822],[129.1411364,36.0392829],[129.1411062,36.0392799],[129.1410736,36.0392636],[129.1409757,36.0391401],[129.1409323,36.039096],[129.1408838,36.0390673],[129.140865,36.0390594],[129.1408165,36.0390502],[129.1406108,36.0390504],[129.140577,36.0390474],[129.1405694,36.0390461],[129.1405605,36.0390427],[129.1405548,36.0390398],[129.1405515,36.0390375],[129.1405495,36.0390338],[129.1405446,36.0390205],[129.1405424,36.0390037],[129.1405459,36.0389866],[129.1405579,36.0389674],[129.1405715,36.0389532],[129.1406052,36.0389271],[129.1406535,36.038891],[129.1407546,36.0388303],[129.1408303,36.0387764],[129.1408786,36.0387212],[129.1408909,36.0386976],[129.1408992,36.0386735],[129.1409035,36.0386475],[129.1409124,36.0385288],[129.1409186,36.0384997],[129.1409791,36.0383575],[129.1410119,36.038299],[129.141039,36.0382416],[129.1410596,36.0381817],[129.1410676,36.0381278],[129.1410675,36.0381034],[129.1410639,36.0380594],[129.1410429,36.0379364],[129.1410396,36.0378924],[129.1410484,36.0378437],[129.141059,36.0378201],[129.141086,36.0377889],[129.1411173,36.0377608],[129.1412746,36.0376669],[129.1413436,36.0376174],[129.1414806,36.0374732],[129.1415382,36.0374174],[129.1415875,36.0373824],[129.1417361,36.0372918],[129.1418799,36.0371942],[129.1419731,36.0371216],[129.1420183,36.0370719],[129.1420294,36.0370556],[129.1420474,36.0370157],[129.1420561,36.0369778],[129.1420606,36.0369228],[129.142055,36.0368598],[129.142044,36.0368031],[129.1420242,36.0367428],[129.1419951,36.036671],[129.1419692,36.0366298],[129.1419345,36.0365828],[129.1418722,36.0365239],[129.1418018,36.0364804],[129.1416987,36.0364356],[129.1415147,36.0363647],[129.1412604,36.0362527],[129.1411521,36.0362142],[129.1410898,36.0362011],[129.141044,36.0361934],[129.1409655,36.0361901],[129.1408683,36.0362083],[129.1408487,36.0362179],[129.140809,36.0362331],[129.1407384,36.0362704],[129.1406668,36.0363124],[129.1405793,36.0363776],[129.140468,36.0364768],[129.1403705,36.0365709],[129.1400966,36.0368565],[129.140036,36.0369073],[129.1399663,36.0369543],[129.139922,36.0369771],[129.1398627,36.0369942],[129.1397961,36.036998],[129.1396235,36.0369873],[129.1395111,36.0369867],[129.1394277,36.0369899],[129.1392728,36.0370008],[129.1391205,36.0370162],[129.139028,36.0370308],[129.1389519,36.0370633],[129.1389193,36.037101],[129.1389132,36.0371219],[129.1389132,36.0371487],[129.1389195,36.0371722],[129.1389384,36.0371936],[129.1389604,36.0372043],[129.1389888,36.0372093],[129.1390425,36.0372069],[129.1391246,36.0371877],[129.1392291,36.0371615],[129.1393168,36.03715],[129.1393889,36.0371459],[129.1394284,36.0371486],[129.1394776,36.0371553],[129.1395331,36.0371731],[129.1395992,36.0372072],[129.1396944,36.0372746],[129.1397268,36.0372911],[129.1397753,36.03731],[129.139836,36.0373271],[129.1398986,36.0373303],[129.1401051,36.0373142],[129.1401463,36.0373151],[129.1401674,36.0373185],[129.1402196,36.0373294],[129.1402282,36.0373339],[129.1402401,36.0373447],[129.1402551,36.0373599],[129.1402593,36.0373655],[129.1402619,36.03737],[129.1402724,36.0373963],[129.1402743,36.0374034],[129.1402745,36.0374176],[129.140272,36.0374293],[129.1402623,36.0374596],[129.1402554,36.0374769],[129.1402351,36.037514],[129.1402129,36.0375406],[129.1401854,36.0375672],[129.1401713,36.0375767],[129.1401215,36.0375987],[129.1400557,36.0376149],[129.1400304,36.037618],[129.1399192,36.0376229],[129.139721,36.0376211],[129.1395981,36.0376323],[129.1395491,36.0376423],[129.1395056,36.0376544],[129.1394713,36.0376678],[129.1393977,36.0377098],[129.1393304,36.0377877],[129.1392481,36.0379119],[129.1392139,36.0379482],[129.1391685,36.0379699],[129.1391126,36.0379818],[129.1390233,36.0379866],[129.1388112,36.037971],[129.1387545,36.0379711],[129.1386768,36.0379781],[129.1386252,36.0379858],[129.1385449,36.0380144],[129.1384819,36.038051],[129.1384088,36.0381303],[129.1383754,36.0381762],[129.1383145,36.0382818],[129.1382439,36.0384288],[129.1382296,36.0384491],[129.1382156,36.0384674],[129.1382017,36.0384824],[129.1381937,36.0384876],[129.1379239,36.0386073],[129.1379029,36.0386179],[129.1379163,36.038643],[129.1379407,36.0386306],[129.1382122,36.0385102],[129.1382257,36.0385014],[129.138243,36.0384828],[129.1382582,36.038463],[129.138274,36.0384405],[129.1383452,36.0382925],[129.1384049,36.0381888],[129.1384366,36.0381453],[129.1385055,36.0380706],[129.1385615,36.038038],[129.1386351,36.0380118],[129.1386816,36.0380048],[129.1387563,36.0379981],[129.1388097,36.0379981],[129.1390217,36.0380136],[129.1391128,36.0380191],[129.1391388,36.0380168],[129.1391621,36.0380122],[129.1391893,36.0380027],[129.1392089,36.037988],[129.1392384,36.0379667],[129.1392762,36.0379266],[129.1393588,36.0378019],[129.1394216,36.0377292],[129.1394883,36.0376912],[129.1395183,36.0376794],[129.1395586,36.0376683],[129.1396041,36.0376589],[129.1397227,36.0376482],[129.1399199,36.0376499],[129.1400338,36.037645],[129.140063,36.0376413],[129.1401344,36.0376238],[129.1401901,36.0375992],[129.140209,36.0375864],[129.1402395,36.037557],[129.1402643,36.0375271],[129.1402865,36.0374866],[129.1402943,36.0374672],[129.1403045,36.037435],[129.1403078,36.0374199],[129.1403076,36.0374004],[129.1403046,36.0373892],[129.1402929,36.0373601],[129.1402888,36.0373529],[129.1402825,36.0373444],[129.1402655,36.0373273],[129.1402501,36.0373131],[129.1402331,36.0373043],[129.1401748,36.0372921],[129.1401499,36.0372881],[129.1401039,36.0372871],[129.1398981,36.0373032],[129.1398426,36.0373003],[129.1397881,36.037285],[129.1397429,36.0372673],[129.1397142,36.0372528],[129.1396192,36.0371855],[129.1395483,36.0371489],[129.1394865,36.0371291],[129.1394325,36.0371218],[129.1393892,36.0371188],[129.139313,36.0371231],[129.1392222,36.037135],[129.1391038,36.0371584],[129.1390273,36.0371749],[129.1390031,36.0371765],[129.1389844,36.037171],[129.1389652,36.0371582],[129.1389588,36.03714],[129.1389666,36.0371183],[129.1389875,36.0370825],[129.1390364,36.0370625],[129.1391264,36.0370429],[129.1392763,36.0370277],[129.1394299,36.0370169],[129.1395118,36.0370138],[129.1396222,36.0370144],[129.139796,36.0370251],[129.1398695,36.0370209],[129.1399366,36.0370016],[129.1399859,36.0369763],[129.1400587,36.0369272],[129.1401217,36.0368743],[129.1403963,36.0365879],[129.1404931,36.0364946],[129.1406029,36.0363967],[129.1406878,36.0363334],[129.1407572,36.0362927],[129.1408252,36.0362568],[129.1408606,36.0362432],[129.1409182,36.0362323],[129.1409693,36.0362269],[129.1410221,36.0362259],[129.1410551,36.0362266],[129.1410835,36.0362277],[129.1411412,36.0362398],[129.1412458,36.036277],[129.1414996,36.0363888],[129.1416837,36.0364598],[129.1417838,36.0365032],[129.1418493,36.0365437],[129.1419074,36.0365986],[129.14194,36.0366429],[129.1419643,36.0366815],[129.1419923,36.0367506],[129.1420114,36.0368087],[129.1420219,36.0368629],[129.1420272,36.0369229],[129.142023,36.0369744],[129.1420152,36.0370086],[129.1419991,36.0370443],[129.1419903,36.0370572],[129.141948,36.0371037],[129.1418577,36.0371741],[129.1417154,36.0372706],[129.1415665,36.0373614],[129.1415144,36.0373985],[129.1414547,36.0374562],[129.1413192,36.0375989],[129.1412537,36.0376458],[129.1410949,36.0377406],[129.1410599,36.037772],[129.1410293,36.0378075],[129.141016,36.0378371],[129.1410062,36.0378912],[129.1410097,36.0379391],[129.1410308,36.0380622],[129.1410342,36.0381043],[129.1410343,36.0381262],[129.1410269,36.0381764],[129.1410073,36.0382331],[129.1409811,36.0382885],[129.1409482,36.0383474],[129.1408863,36.0384929],[129.1408793,36.0385257],[129.1408704,36.0386449],[129.1408665,36.038668],[129.1408594,36.0386886],[129.1408494,36.038708],[129.1408054,36.0387581],[129.1407337,36.0388092],[129.1406323,36.0388701],[129.1405825,36.0389074],[129.1405468,36.038935],[129.1405296,36.0389528],[129.1405139,36.0389781],[129.1405088,36.0390029],[129.1405118,36.0390259],[129.1405181,36.0390431],[129.1405241,36.0390542],[129.1405352,36.0390617],[129.1405444,36.0390665],[129.1405589,36.0390719],[129.1405719,36.0390741],[129.1406089,36.0390774],[129.1408127,36.0390772],[129.1408534,36.039085],[129.1408663,36.0390904],[129.1409091,36.0391157],[129.1409487,36.0391559],[129.141035,36.0392722],[129.1410493,36.0392971],[129.1410862,36.0393152],[129.1411082,36.0393222],[129.141139,36.0393265],[129.1411675,36.0393277],[129.1411915,36.039325],[129.1412882,36.0392331],[129.141419,36.0390998],[129.1415754,36.0389559],[129.1416848,36.0388477],[129.141713,36.038806],[129.1417411,36.0387566],[129.1418046,36.0385888],[129.1418218,36.0385607],[129.1418648,36.0385132],[129.1419694,36.0384306],[129.1420603,36.0383513],[129.1421423,36.0382639],[129.1422564,36.0381295],[129.1423134,36.038073],[129.1424092,36.0380017],[129.1424307,36.0379885],[129.1425994,36.0378955],[129.1427512,36.0378193],[129.1428928,36.0377322],[129.1430237,36.0376431],[129.143146,36.0375681],[129.1433344,36.037463],[129.1433725,36.0374523],[129.1434126,36.0374414],[129.1434557,36.0374376],[129.1435583,36.0374417],[129.1436406,36.0374647],[129.1438198,36.0375265],[129.1439385,36.0375761],[129.1441861,36.0376717],[129.1442846,36.0377066],[129.1443982,36.037761],[129.144519,36.037829],[129.1445875,36.0378871],[129.1447002,36.0380401],[129.1447886,36.038164],[129.1448417,36.0382185],[129.1448567,36.0382239],[129.1448698,36.0382289],[129.1448835,36.0382336],[129.1449,36.0382373],[129.144915,36.0382396],[129.1449354,36.0382412],[129.1449831,36.0382384],[129.145001,36.0382345],[129.1450158,36.0382294],[129.1450298,36.0382232],[129.1450469,36.0382129],[129.1450614,36.0382023],[129.1451092,36.0381301],[129.1451506,36.038048],[129.1451631,36.0380295],[129.14519,36.0380018],[129.1452702,36.0379611],[129.145378,36.0379076],[129.1454492,36.0378681],[129.1454975,36.0378278],[129.1456431,36.0376917],[129.1456518,36.0376844],[129.1458334,36.0375592],[129.1458497,36.0375448],[129.145922,36.0374439],[129.1460041,36.0373369],[129.1460157,36.0373104],[129.1460706,36.0372329],[129.1461546,36.0371091],[129.1462341,36.0369693],[129.1462942,36.0368463],[129.1464372,36.0366095],[129.1465351,36.0364661],[129.1466564,36.0363057],[129.1468322,36.0360976],[129.1469384,36.0359907],[129.1470161,36.0359331],[129.1470593,36.0359086],[129.1471387,36.0358715],[129.1471634,36.0358602],[129.1472711,36.0358232],[129.1472963,36.0358153],[129.1473218,36.0358089],[129.1474325,36.0357843],[129.1474666,36.0357759],[129.1475699,36.0357533],[129.147602,36.0357449],[129.1476573,36.0357321],[129.147711,36.0357123],[129.1477714,36.0356866],[129.1478227,36.0356563],[129.1478657,36.0356238],[129.1479067,36.0355808],[129.1479345,36.0355437],[129.1479479,36.0355244],[129.1479585,36.0355055],[129.1480295,36.0353897],[129.1480411,36.0353719],[129.1480527,36.0353557],[129.1481057,36.0352901],[129.1481479,36.0352324],[129.1482928,36.0350417],[129.1483114,36.0350092],[129.1483569,36.0349343],[129.1483681,36.0349123],[129.1483866,36.0348726],[129.1484036,36.034804],[129.1484056,36.0347828],[129.1484078,36.0346959],[129.1484077,36.0346828],[129.1484076,36.0346763],[129.1484114,36.0346382],[129.1484219,36.0345943],[129.1484259,36.0345833],[129.148527,36.0343666],[129.1486388,36.0341539],[129.148731,36.0339837],[129.1487769,36.0338881],[129.1487847,36.0338672],[129.1487978,36.0338295],[129.1488126,36.0337759],[129.1488163,36.0337539],[129.1488202,36.0336509],[129.1488196,36.0336248],[129.1488207,36.0335999],[129.1488222,36.0335765],[129.1488277,36.0334702],[129.1488395,36.0332811],[129.1488404,36.0332576],[129.1488433,36.0332097],[129.1488435,36.0331581],[129.1488403,36.0331067],[129.1488393,36.0330552],[129.1488396,36.0330306],[129.1488409,36.0329757],[129.1488449,36.0329207],[129.1488532,36.0328529],[129.1488744,36.0327439],[129.1488774,36.032716],[129.1488863,36.0326562],[129.1488985,36.0325925],[129.1489044,36.0325672],[129.1489319,36.0324847],[129.1489507,36.032443],[129.1489844,36.0323644],[129.1489923,36.032351],[129.1489984,36.0323387],[129.1490395,36.032214],[129.1490539,36.0321589],[129.1490613,36.0321223],[129.1490701,36.0320461],[129.1490694,36.0319934],[129.1490669,36.0319592],[129.1490542,36.0318754],[129.1490535,36.0318688],[129.1490504,36.0317555],[129.1490543,36.0317163],[129.149068,36.031668],[129.1490881,36.0316118],[129.1491206,36.0315507]]]]}},{"type":"Feature","properties":{"UFID":"100036913086A00110100000007083465"},"geometry":{"type":"MultiPolygon","coordinates":[[[[129.1491121,36.0314925],[129.1490727,36.0314871],[129.1490375,36.0314676],[129.1490105,36.0314464],[129.1489943,36.0314292],[129.1489688,36.0313919],[129.1488639,36.0312215],[129.1486415,36.0308903],[129.1486123,36.0309032],[129.1488344,36.031234],[129.1489394,36.0314045],[129.1489664,36.031444],[129.1489856,36.0314644],[129.1490164,36.0314887],[129.1490547,36.0315099],[129.1490885,36.031533],[129.1490907,36.0315388],[129.1491121,36.0314925]]]]}},{"type":"Feature","properties":{"UFID":"100036913086A00110100000007083466"},"geometry":{"type":"MultiPolygon","coordinates":[[[[129.1491529,36.0315268],[129.1491121,36.0314925],[129.1490907,36.0315388],[129.1491206,36.0315507],[129.1491316,36.0315413],[129.1491529,36.0315268]]]]}},{"type":"Feature","properties":{"UFID":"100036913096A00110100000007084285"},"geometry":{"type":"MultiPolygon","coordinates":[[[[129.134078,36.002323],[129.1340093,36.0022378],[129.1339478,36.0021766],[129.1339096,36.0021224],[129.1338451,36.0019259],[129.133828,36.0018934],[129.1336961,36.0017134],[129.1336566,36.0016435],[129.1336277,36.0015824],[129.133609,36.0015342],[129.1335924,36.0014712],[129.1335797,36.0014036],[129.1335753,36.0013638],[129.1335759,36.0013268],[129.1335791,36.0012726],[129.1335967,36.0012212],[129.1336491,36.0011003],[129.1336816,36.0009773],[129.1337304,36.0008117],[129.1337518,36.0007424],[129.1337945,36.0006717],[129.1337501,36.0006531],[129.1337148,36.0007018],[129.1336967,36.0007372],[129.1336858,36.0007961],[129.1336499,36.0009253],[129.1336058,36.0010743],[129.1335341,36.0012342],[129.1335204,36.0013132],[129.1335254,36.0013662],[129.1335302,36.0014085],[129.1335433,36.0014785],[129.1335606,36.0015446],[129.1335806,36.0015958],[129.1336106,36.0016592],[129.1336518,36.0017323],[129.1337834,36.0019119],[129.1337978,36.0019392],[129.1338631,36.002138],[129.1339065,36.0021997],[129.133969,36.0022618],[129.134036,36.002345],[129.134078,36.002323]]]]}},{"type":"Feature","properties":{"UFID":"100036913096A00110100000007084286"},"geometry":{"type":"MultiPolygon","coordinates":[[[[129.1341521,36.0024545],[129.1341029,36.0024628],[129.1341122,36.0024859],[129.1341233,36.002554],[129.1341342,36.0026972],[129.1341402,36.0027362],[129.1341647,36.002861],[129.1341813,36.0029267],[129.1341928,36.0029796],[129.1342425,36.0031845],[129.1342693,36.0033332],[129.1342684,36.0034002],[129.1342357,36.0037347],[129.1342267,36.0038626],[129.1342281,36.0039106],[129.1342326,36.0039594],[129.1342524,36.0040555],[129.1342924,36.0042031],[129.1343399,36.0043489],[129.1343657,36.0044114],[129.1344112,36.0045049],[129.1345538,36.0047402],[129.1346621,36.0049324],[129.1347369,36.0050673],[129.1347645,36.0051427],[129.1347765,36.0052042],[129.1347798,36.0052933],[129.1348552,36.0053226],[129.1348308,36.0052381],[129.134826,36.005199],[129.1348133,36.0051337],[129.1347838,36.0050531],[129.1347075,36.0049156],[129.1345989,36.0047228],[129.1344569,36.0044885],[129.1344126,36.0043975],[129.1343877,36.0043372],[129.1343409,36.0041936],[129.1343014,36.0040478],[129.1342822,36.0039546],[129.134278,36.0039086],[129.1342767,36.0038633],[129.1342855,36.0037374],[129.1343183,36.003402],[129.1343192,36.0033305],[129.1342917,36.0031777],[129.1342419,36.0029721],[129.1342259,36.0028905],[129.1341939,36.0027439],[129.1341896,36.0027305],[129.1341839,36.0026935],[129.134173,36.0025501],[129.1341611,36.0024768],[129.1341521,36.0024545]]]]}},{"type":"Feature","properties":{"UFID":"100036913096A00110100000007084287"},"geometry":{"type":"MultiPolygon","coordinates":[[[[129.1341521,36.0024545],[129.1341337,36.0024088],[129.1341233,36.002391],[129.1341051,36.0023597],[129.134078,36.002323],[129.134036,36.002345],[129.1341029,36.0024628],[129.1341521,36.0024545]]]]}},{"type":"Feature","properties":{"UFID":"100036913096A00110100000007084289"},"geometry":{"type":"MultiPolygon","coordinates":[[[[129.1348377,36.0059973],[129.1348808,36.0060339],[129.1348924,36.0060178],[129.1349423,36.0059118],[129.1349112,36.0059021],[129.1348673,36.0059954],[129.1348578,36.0059978],[129.1348377,36.0059973]]]]}},{"type":"Feature","properties":{"UFID":"100036913096A00110100000007084290"},"geometry":{"type":"MultiPolygon","coordinates":[[[[129.1347805,36.0061272],[129.1347268,36.0060621],[129.1347018,36.0061148],[129.1346846,36.0061426],[129.1346657,36.0061523],[129.1346835,36.0061752],[129.1347349,36.0061487],[129.1347805,36.0061272]]]]}},{"type":"Feature","properties":{"UFID":"100036913096A00110100000007084291"},"geometry":{"type":"MultiPolygon","coordinates":[[[[129.1348808,36.0060339],[129.1348377,36.0059973],[129.1347268,36.0060621],[129.1347805,36.0061272],[129.1348047,36.0061157],[129.134848,36.0060794],[129.1348808,36.0060339]]]]}},{"type":"Feature","properties":{"UFID":"100036913096A00110100000007084292"},"geometry":{"type":"MultiPolygon","coordinates":[[[[129.1348377,36.0059973],[129.1348274,36.0059906],[129.1348225,36.0059807],[129.1348209,36.0058836],[129.134831,36.0058073],[129.1348359,36.0057677],[129.1348533,36.0056207],[129.1348601,36.0055698],[129.1348616,36.0054531],[129.1348597,36.0054352],[129.1348584,36.0054182],[129.1348552,36.0053226],[129.1347994,36.0054422],[129.1348103,36.0054406],[129.1348167,36.0054404],[129.1348213,36.0054418],[129.1348269,36.0054484],[129.1348283,36.0054541],[129.1348268,36.0055682],[129.1348201,36.0056179],[129.1348028,36.005765],[129.1347979,36.0058045],[129.1347878,36.005881],[129.1347795,36.0059625],[129.1347268,36.0060621],[129.1348377,36.0059973]]]]}},{"type":"Feature","properties":{"UFID":"100036913096A00110100000007084293"},"geometry":{"type":"MultiPolygon","coordinates":[[[[129.1348552,36.0053226],[129.1347798,36.0052933],[129.1347529,36.0053819],[129.1347407,36.0054136],[129.1347994,36.0054422],[129.1348552,36.0053226]]]]}},{"type":"Feature","properties":{"UFID":"100036913096A00110100000007084294"},"geometry":{"type":"MultiPolygon","coordinates":[[[[129.1347994,36.0054422],[129.1347407,36.0054136],[129.1347257,36.0054527],[129.1346822,36.0055863],[129.13463,36.0057047],[129.1345488,36.0058264],[129.1344768,36.0059229],[129.1343724,36.0060341],[129.1342598,36.0061202],[129.1341368,36.0061923],[129.1340153,36.0062794],[129.1339722,36.0063192],[129.134036,36.006348],[129.1341043,36.006294],[129.1341868,36.0062441],[129.1342873,36.0061842],[129.1343687,36.0061247],[129.134406,36.0060906],[129.1344986,36.0059803],[129.1345926,36.0058553],[129.1346603,36.0057664],[129.1347059,36.0056742],[129.1347499,36.0055583],[129.1347994,36.0054422]]]]}},{"type":"Feature","properties":{"UFID":"100036913096A00110100000007084301"},"geometry":{"type":"MultiPolygon","coordinates":[[[[129.134036,36.002345],[129.1340189,36.0023465],[129.1339689,36.002339],[129.1338283,36.0022804],[129.1337353,36.0022076],[129.1336293,36.0020965],[129.1334844,36.001922],[129.1333418,36.0017167],[129.1332253,36.0015341],[129.1331721,36.0014649],[129.1331476,36.0014529],[129.1331378,36.0014482],[129.1331166,36.0014451],[129.1331047,36.0014439],[129.1330929,36.0014443],[129.1330724,36.0014484],[129.1330611,36.0014534],[129.1330504,36.0014605],[129.1330458,36.0014669],[129.1330353,36.0014766],[129.1330311,36.001488],[129.1330297,36.0014963],[129.1330291,36.0015044],[129.1330524,36.0017495],[129.1330632,36.0018704],[129.1330956,36.0022591],[129.1330854,36.0023361],[129.13307,36.0023556],[129.1330609,36.0023628],[129.13306,36.0023634],[129.1330519,36.0023668],[129.1330417,36.0023688],[129.1330402,36.0023687],[129.1330251,36.0023688],[129.1330121,36.002367],[129.1329945,36.0023636],[129.1329906,36.0023616],[129.1329693,36.0023541],[129.1329546,36.0023456],[129.132935,36.0023309],[129.132925,36.0023175],[129.1329011,36.002275],[129.132841,36.0020995],[129.132774,36.0019567],[129.1327245,36.0018842],[129.1326518,36.0018284],[129.1325575,36.001776],[129.1324078,36.0017131],[129.1322784,36.00167],[129.1321346,36.0016462],[129.1321128,36.001646],[129.1320984,36.0016464],[129.1319766,36.0016466],[129.1319567,36.0016443],[129.1319312,36.0016429],[129.1319207,36.0016402],[129.1318918,36.0016359],[129.1318608,36.0016277],[129.1318417,36.0016187],[129.1318368,36.0016155],[129.1318185,36.0016026],[129.1318031,36.0015887],[129.1317677,36.0015314],[129.1317575,36.0015019],[129.1317438,36.0014317],[129.1317343,36.0013682],[129.1317337,36.0013165],[129.1317368,36.0012967],[129.1317376,36.0012914],[129.1317391,36.0012863],[129.131808,36.0010826],[129.1318088,36.0010444],[129.1318082,36.0010318],[129.1318038,36.0010101],[129.1317975,36.000989],[129.1317936,36.0009791],[129.1317834,36.0009593],[129.1317704,36.0009368],[129.1317573,36.0009232],[129.1317483,36.0009155],[129.1316362,36.0008191],[129.1314949,36.0007169],[129.1313352,36.0006258],[129.1310576,36.0005016],[129.1310375,36.0004944],[129.1310218,36.0004908],[129.1309274,36.0004687],[129.1309147,36.0004671],[129.1307548,36.000423],[129.1306405,36.0003826],[129.1305468,36.0003509],[129.1305461,36.0003507],[129.1305418,36.0003481],[129.1305245,36.0003241],[129.1305163,36.0002935],[129.1305152,36.0002602],[129.1305266,36.0002192],[129.1305592,36.0001596],[129.1305938,36.0001098],[129.1306298,36.0000678],[129.1305991,36.000049],[129.130555,36.0000967],[129.1305151,36.0001605],[129.130491,36.0002094],[129.1304667,36.0002553],[129.1304625,36.0002731],[129.1304627,36.0002921],[129.1304689,36.0003141],[129.1305034,36.0003658],[129.1305212,36.0003767],[129.1305324,36.0003802],[129.1306253,36.0004116],[129.1307408,36.0004524],[129.1309055,36.0004979],[129.130919,36.0004995],[129.1310112,36.0005211],[129.1310243,36.0005242],[129.1310403,36.0005299],[129.1313146,36.0006526],[129.1314708,36.0007416],[129.1316091,36.0008417],[129.1317202,36.0009372],[129.1317279,36.0009439],[129.1317371,36.0009534],[129.1317479,36.0009721],[129.1317571,36.00099],[129.1317601,36.0009975],[129.1317658,36.0010164],[129.1317695,36.0010349],[129.1317699,36.0010448],[129.1317693,36.0010781],[129.1317016,36.0012783],[129.1316993,36.0012858],[129.1316983,36.001293],[129.1316949,36.0013147],[129.1316955,36.0013702],[129.1317054,36.0014361],[129.1317195,36.0015087],[129.1317313,36.0015428],[129.1317708,36.0016067],[129.1317913,36.0016252],[129.131812,36.0016397],[129.1318197,36.0016447],[129.1318449,36.0016566],[129.1318822,36.0016666],[129.1319114,36.0016709],[129.1319241,36.0016741],[129.1319526,36.0016757],[129.1319739,36.0016782],[129.132099,36.0016779],[129.1321131,36.0016776],[129.1321305,36.0016778],[129.1322671,36.0017003],[129.1323915,36.0017417],[129.1325375,36.0018031],[129.1326274,36.001853],[129.1326935,36.0019037],[129.1327387,36.00197],[129.1328041,36.0021094],[129.1328645,36.0022859],[129.1328907,36.0023323],[129.1329047,36.002351],[129.13293,36.0023701],[129.1329502,36.0023817],[129.1329724,36.0023896],[129.1329792,36.0023931],[129.1330044,36.002398],[129.1330221,36.0024004],[129.1330387,36.0024002],[129.1330448,36.0024007],[129.1330655,36.0023965],[129.133082,36.0023898],[129.1330873,36.002386],[129.1331003,36.0023757],[129.133123,36.0023468],[129.1331345,36.0022598],[129.1331019,36.0018681],[129.1330911,36.0017471],[129.133068,36.0015041],[129.1330684,36.0014993],[129.1330692,36.0014947],[129.1330701,36.0014923],[129.1330774,36.0014855],[129.1330804,36.0014813],[129.1330829,36.0014796],[129.1330865,36.001478],[129.1330984,36.0014757],[129.1331032,36.0014755],[129.1331107,36.0014763],[129.133124,36.0014782],[129.1331276,36.00148],[129.1331441,36.001488],[129.1331915,36.0015497],[129.1333077,36.0017317],[129.1334514,36.0019386],[129.1335979,36.002115],[129.1337063,36.0022287],[129.1338294,36.0023251],[129.1339754,36.00241],[129.1340696,36.002453],[129.1341029,36.0024628],[129.134036,36.002345]]]]}}]}