{"type":"FeatureCollection","features":[{"type":"Feature","properties":{"UFID":"100035902090A00110100000000525054"},"geometry":{"type":"MultiPolygon","coordinates":[[[[129.4994797,35.7958214],[129.4994458,35.7957508],[129.4994254,35.7956883],[129.4994082,35.7955917],[129.499403,35.7955073],[129.4994033,35.7954273],[129.4994061,35.7953998],[129.4994203,35.795358],[129.4994519,35.7952591],[129.4995003,35.795155],[129.4995663,35.7950313],[129.4996204,35.7949399],[129.4996566,35.7948061],[129.499698,35.7947087],[129.4997808,35.7945696],[129.4998275,35.7944552],[129.4998333,35.7943924],[129.4998325,35.7943625],[129.4998126,35.7942956],[129.4997933,35.7942158],[129.4997939,35.794212],[129.4997945,35.7942115],[129.4998002,35.7942094],[129.4998746,35.7941936],[129.4998978,35.7941858],[129.4999677,35.7941619],[129.5000662,35.7941214],[129.5001915,35.7940632],[129.5002993,35.7939999],[129.500368,35.7939441],[129.5004431,35.7938755],[129.5004879,35.7938204],[129.5005069,35.7937489],[129.5005173,35.793736],[129.5004765,35.7937166],[129.5004772,35.7937276],[129.5004769,35.7937369],[129.5004596,35.7938107],[129.5004192,35.7938605],[129.5003461,35.7939272],[129.5002797,35.7939811],[129.5001752,35.7940426],[129.5000519,35.7940998],[129.5,35.7941211],[129.4999551,35.7941396],[129.4998862,35.7941632],[129.4998641,35.7941679],[129.499789,35.7941838],[129.4997758,35.7941888],[129.4997664,35.7941959],[129.4997636,35.7941998],[129.4997615,35.7942041],[129.4997598,35.7942148],[129.4997605,35.7942198],[129.49978,35.7943008],[129.499795,35.7943632],[129.4997958,35.7943916],[129.4997905,35.7944491],[129.499746,35.794558],[129.4996633,35.794697],[129.4996205,35.7947978],[129.4995848,35.7949299],[129.4995323,35.7950186],[129.4994656,35.7951435],[129.4994161,35.7952498],[129.4993841,35.7953503],[129.4993732,35.7953962],[129.4993701,35.7954261],[129.4993698,35.7955079],[129.4993751,35.7955943],[129.4993929,35.7956938],[129.4994142,35.7957592],[129.4994474,35.7958284],[129.4994797,35.7958214]]]]}},{"type":"Feature","properties":{"UFID":"100035903081A00110100000000525095"},"geometry":{"type":"MultiPolygon","coordinates":[[[[129.5005386,35.7937143],[129.5005343,35.7936788],[129.5004765,35.7937166],[129.5005173,35.793736],[129.5005386,35.7937143]]]]}},{"type":"Feature","properties":{"UFID":"100035903081A00110100000000525096"},"geometry":{"type":"MultiPolygon","coordinates":[[[[129.5005343,35.7936788],[129.5005187,35.7936747],[129.5005005,35.7936658],[129.5004561,35.7936346],[129.5004283,35.7936543],[129.5004711,35.793706],[129.5004765,35.7937166],[129.5005343,35.7936788]]]]}},{"type":"Feature","properties":{"UFID":"100035903081A00110100000000525097"},"geometry":{"type":"MultiPolygon","coordinates":[[[[129.5005343,35.7936788],[129.5005386,35.7937143],[129.5005871,35.7936963],[129.5006639,35.7936823],[129.5006559,35.7936545],[129.5005455,35.7936795],[129.5005343,35.7936788]]]]}}]}