{"type":"FeatureCollection","features":[{"type":"Feature","properties":{"UFID":"100035804080A00110100000003759116"},"geometry":{"type":"MultiPolygon","coordinates":[[[[128.9957198,35.8007128],[128.9957176,35.8007088],[128.9957114,35.8006984],[128.9957102,35.8006956],[128.9956846,35.8007257],[128.9957073,35.8007344],[128.9957198,35.8007128]]]]}},{"type":"Feature","properties":{"UFID":"100035804080A00110100000003759117"},"geometry":{"type":"MultiPolygon","coordinates":[[[[128.9957198,35.8007128],[128.9957073,35.8007344],[128.9957105,35.8007352],[128.9957122,35.800737],[128.9957382,35.8007891],[128.9957608,35.8008399],[128.9957685,35.8008635],[128.9957791,35.800912],[128.995788,35.800954],[128.9957897,35.8009738],[128.99579,35.8009857],[128.9957904,35.8010055],[128.9957862,35.8011013],[128.9958076,35.8011008],[128.9958085,35.8010122],[128.9958062,35.800955],[128.9957977,35.8009056],[128.9957784,35.8008356],[128.9957415,35.8007519],[128.9957198,35.8007128]]]]}},{"type":"Feature","properties":{"UFID":"100035804080A00110100000003759118"},"geometry":{"type":"MultiPolygon","coordinates":[[[[128.9957073,35.8007344],[128.9956846,35.8007257],[128.995679,35.8007616],[128.9956698,35.8008225],[128.9956665,35.8008659],[128.995664,35.8008986],[128.9956583,35.80093],[128.9956518,35.800957],[128.9956269,35.8010225],[128.9956136,35.8010624],[128.9956065,35.8010937],[128.9955921,35.8011706],[128.9955812,35.8012099],[128.9955535,35.8012684],[128.9955721,35.801276],[128.995601,35.8012107],[128.9956155,35.8011601],[128.995636,35.8010628],[128.9956505,35.8010178],[128.9956756,35.8009465],[128.9956846,35.8009015],[128.9956882,35.8008401],[128.9956941,35.8008008],[128.995706,35.800737],[128.9957073,35.8007344]]]]}},{"type":"Feature","properties":{"UFID":"100035804080A00110100000003759119"},"geometry":{"type":"MultiPolygon","coordinates":[[[[128.9957102,35.8006956],[128.9957088,35.8006925],[128.995696,35.8006549],[128.9956873,35.8006133],[128.9956888,35.8006093],[128.9956461,35.8005955],[128.9956538,35.800635],[128.9956738,35.8006902],[128.9956846,35.8007257],[128.9957102,35.8006956]]]]}},{"type":"Feature","properties":{"UFID":"100035804080A00110100000003759120"},"geometry":{"type":"MultiPolygon","coordinates":[[[[128.9956913,35.8005516],[128.9956888,35.8006093],[128.995693,35.800606],[128.9957037,35.8006076],[128.9957081,35.8006101],[128.9957708,35.800651],[128.9958137,35.8006859],[128.9958289,35.8006703],[128.9957309,35.8005989],[128.9957087,35.8005758],[128.9956913,35.8005516]]]]}},{"type":"Feature","properties":{"UFID":"100035804080A00110100000003759125"},"geometry":{"type":"MultiPolygon","coordinates":[[[[128.9962326,35.7999684],[128.9962009,35.799947],[128.9962017,35.799954],[128.9962035,35.8],[128.9962039,35.800011],[128.9962117,35.8001001],[128.9962088,35.8001063],[128.9961051,35.8001865],[128.9960974,35.8001853],[128.9960959,35.8001809],[128.9961008,35.8001305],[128.9960762,35.8001289],[128.9960697,35.8001838],[128.9960685,35.8001964],[128.9960692,35.8002073],[128.9960725,35.8002133],[128.9960759,35.8002168],[128.9960955,35.8002202],[128.9961019,35.8002189],[128.9961374,35.8001932],[128.9962332,35.8001184],[128.9962359,35.8001144],[128.9962387,35.8001084],[128.9962404,35.8001019],[128.9962415,35.8000885],[128.9962343,35.8],[128.9962342,35.7999981],[128.9962326,35.7999684]]]]}},{"type":"Feature","properties":{"UFID":"100035804090A00110100000003759126"},"geometry":{"type":"MultiPolygon","coordinates":[[[[128.996645,35.7995283],[128.9964841,35.7995499],[128.9964866,35.7995519],[128.9964871,35.7995542],[128.9964804,35.7995648],[128.9964354,35.7996125],[128.996414,35.7996455],[128.996398,35.7996838],[128.9963859,35.7997484],[128.9963857,35.7998152],[128.9963933,35.7999071],[128.9963957,35.7999587],[128.9963955,35.8],[128.9963952,35.8000782],[128.9963915,35.8001429],[128.9963792,35.8002144],[128.9963777,35.800215],[128.9963744,35.8002158],[128.9963715,35.8002142],[128.9963689,35.8002109],[128.9963625,35.8001343],[128.9963228,35.800061],[128.9962993,35.8000149],[128.996294,35.8],[128.9962908,35.7999912],[128.9962837,35.7999587],[128.9962789,35.7998681],[128.9962787,35.7997777],[128.9962459,35.7997923],[128.9962469,35.7997946],[128.9962465,35.7999015],[128.9962535,35.7999722],[128.9962563,35.7999844],[128.996264,35.8],[128.9962735,35.8000194],[128.9963059,35.8000798],[128.9963264,35.8001337],[128.9963271,35.800142],[128.9963284,35.8001668],[128.9963333,35.8002181],[128.9963392,35.8002464],[128.996342,35.8002578],[128.9963504,35.8002674],[128.9963559,35.8002707],[128.9963638,35.8002738],[128.9963706,35.8002752],[128.9963766,35.8002755],[128.9963844,35.8002745],[128.9963903,35.8002701],[128.996406,35.8002222],[128.9964155,35.8001599],[128.9964189,35.8000838],[128.9964193,35.8000492],[128.9964209,35.8000143],[128.9964213,35.8],[128.9964218,35.7999841],[128.996421,35.7999191],[128.9964158,35.7998687],[128.9964139,35.7998299],[128.9964144,35.7997826],[128.9964176,35.7997512],[128.996422,35.799726],[128.9964365,35.7996904],[128.9964633,35.7996485],[128.9964976,35.799611],[128.9965295,35.7995862],[128.9965966,35.7995467],[128.9966217,35.799537],[128.996645,35.7995283]]]]}},{"type":"Feature","properties":{"UFID":"100035804080A00110100000003759144"},"geometry":{"type":"MultiPolygon","coordinates":[[[[128.9954701,35.8003256],[128.9954346,35.8003079],[128.9953876,35.8002735],[128.9953285,35.8002196],[128.9952572,35.8001535],[128.9952202,35.8001105],[128.9951609,35.8000317],[128.9951373,35.8],[128.9951125,35.7999666],[128.9950183,35.7998646],[128.9950066,35.7998353],[128.9949579,35.7998456],[128.9949907,35.7998913],[128.9950565,35.7999671],[128.9950864,35.8],[128.9951107,35.8000267],[128.9951948,35.8001284],[128.995249,35.8001857],[128.9953263,35.8002578],[128.9953993,35.8003202],[128.995441,35.8003453],[128.9954615,35.8003535],[128.9954714,35.8003573],[128.9954701,35.8003256]]]]}},{"type":"Feature","properties":{"UFID":"100035804080A00110100000003759145"},"geometry":{"type":"MultiPolygon","coordinates":[[[[128.9954701,35.8003256],[128.9955486,35.8003585],[128.9955122,35.8003004],[128.9954846,35.8002498],[128.9954382,35.8001732],[128.995333,35.8],[128.9953098,35.7999618],[128.9952989,35.799931],[128.9952984,35.7999206],[128.9952992,35.7999011],[128.9953032,35.7998842],[128.9953163,35.7998632],[128.9953215,35.7998588],[128.9953589,35.7998488],[128.9953645,35.7998492],[128.995369,35.7998515],[128.995375,35.799856],[128.9954182,35.7998996],[128.995475,35.7999796],[128.9955001,35.7999602],[128.9954477,35.7998877],[128.9954055,35.7998501],[128.9953582,35.7998195],[128.9953381,35.7998143],[128.9953285,35.799815],[128.9953222,35.7998166],[128.9953181,35.7998183],[128.9953017,35.7998278],[128.9952834,35.7998441],[128.9952677,35.7998695],[128.9952558,35.7999067],[128.9952561,35.7999262],[128.9952609,35.7999448],[128.9952969,35.8],[128.9953592,35.8000954],[128.9954426,35.800236],[128.995475,35.8003095],[128.9954782,35.8003234],[128.9954701,35.8003256]]]]}},{"type":"Feature","properties":{"UFID":"100035804080A00110100000003759148"},"geometry":{"type":"MultiPolygon","coordinates":[[[[128.9956913,35.8005516],[128.9956423,35.8005466],[128.9956461,35.8005955],[128.9956888,35.8006093],[128.9956913,35.8005516]]]]}},{"type":"Feature","properties":{"UFID":"100035804080A00110100000003759149"},"geometry":{"type":"MultiPolygon","coordinates":[[[[128.9955486,35.8003585],[128.9955412,35.800384],[128.9955516,35.800388],[128.9955916,35.8004076],[128.9956119,35.8004273],[128.9956274,35.8004477],[128.9956362,35.8004655],[128.9956384,35.8004778],[128.995642,35.8005431],[128.9956423,35.8005466],[128.9956913,35.8005516],[128.9956764,35.8005128],[128.9956649,35.800466],[128.9956577,35.8004384],[128.9956487,35.8004238],[128.9956216,35.8003959],[128.9955486,35.8003585]]]]}},{"type":"Feature","properties":{"UFID":"100035804080A00110100000003759150"},"geometry":{"type":"MultiPolygon","coordinates":[[[[128.9955486,35.8003585],[128.9954701,35.8003256],[128.9954714,35.8003573],[128.9955412,35.800384],[128.9955486,35.8003585]]]]}}]}