{"type":"FeatureCollection","features":[{"type":"Feature","properties":{"UFID":"100035902055A00110100000004487008"},"geometry":{"type":"MultiPolygon","coordinates":[[[[129.3618866,35.8755779],[129.3618377,35.87538],[129.3618355,35.8753704],[129.3618187,35.8753677],[129.3617851,35.8753623],[129.3618116,35.8754771],[129.3618331,35.8755827],[129.3618342,35.8755909],[129.3618341,35.8755941],[129.3618866,35.8755779]]]]}},{"type":"Feature","properties":{"UFID":"100035902055A00110100000004487009"},"geometry":{"type":"MultiPolygon","coordinates":[[[[129.3555017,35.8701033],[129.3554582,35.870087],[129.3554297,35.8700787],[129.3553944,35.8700723],[129.3553612,35.8700697],[129.3553297,35.8700707],[129.3552803,35.8700741],[129.3552537,35.8700793],[129.3552297,35.8700872],[129.3551925,35.8701031],[129.3551646,35.8701175],[129.3551248,35.8701443],[129.3551054,35.8701549],[129.3550698,35.8701698],[129.3550508,35.8701755],[129.3550344,35.8701777],[129.355007,35.8701778],[129.3549881,35.870176],[129.3549667,35.8701713],[129.354945,35.8701636],[129.3549273,35.8701552],[129.3549046,35.8701417],[129.3548841,35.870126],[129.3548597,35.8701025],[129.3548424,35.8700833],[129.3548299,35.8700637],[129.3548206,35.8700433],[129.3548075,35.8700034],[129.3547978,35.8699659],[129.3547894,35.8699122],[129.3547876,35.8698851],[129.3547997,35.8697193],[129.3548011,35.8696855],[129.354797,35.8696354],[129.3547927,35.8696002],[129.3547864,35.8695793],[129.3547771,35.8695611],[129.3547617,35.8695405],[129.3547442,35.8695231],[129.3547206,35.8695048],[129.3546956,35.8694891],[129.3546658,35.869474],[129.3545457,35.8694299],[129.3544509,35.8693976],[129.3543653,35.8693737],[129.3541958,35.8693203],[129.3541785,35.8693126],[129.3541185,35.8692803],[129.3540728,35.8692495],[129.3540404,35.8692312],[129.3540176,35.8692216],[129.3539739,35.8692077],[129.3539271,35.8691962],[129.3538999,35.8691922],[129.3538217,35.8691877],[129.3537422,35.8691875],[129.3536404,35.8691913],[129.3535818,35.8691896],[129.3535425,35.8691858],[129.3534548,35.8691725],[129.3532815,35.8691356],[129.3531878,35.8691177],[129.3530457,35.8690983],[129.3529961,35.8690952],[129.3529566,35.8690958],[129.3529231,35.8690999],[129.3528924,35.8691061],[129.3528383,35.8691212],[129.3528152,35.8691307],[129.3527821,35.8691487],[129.352718,35.8691901],[129.3526907,35.8692124],[129.3526441,35.8692586],[129.3526136,35.8692962],[129.352579,35.869343],[129.3525494,35.8693796],[129.3525395,35.8693874],[129.3525074,35.8694053],[129.3524768,35.8694184],[129.3524503,35.8694267],[129.3523949,35.8694396],[129.3523591,35.8694454],[129.3522944,35.869452],[129.352239,35.8694549],[129.3521343,35.8694636],[129.3520566,35.8694682],[129.3520308,35.8694724],[129.3519988,35.8694819],[129.351969,35.8694896],[129.3519508,35.8694921],[129.3518714,35.8694945],[129.3518091,35.8694946],[129.3516653,35.8694892],[129.351569,35.8694921],[129.3514908,35.8694898],[129.351442,35.8694863],[129.3513836,35.8694797],[129.3511672,35.8694426],[129.3511242,35.8694345],[129.3510551,35.8694166],[129.351018,35.8694057],[129.3509824,35.8693914],[129.3509534,35.8693766],[129.3509239,35.8693589],[129.3509073,35.8693457],[129.3508631,35.869299],[129.3508359,35.8692669],[129.3508072,35.8692297],[129.3507873,35.8691968],[129.3507434,35.8691136],[129.3507301,35.8690951],[129.3507173,35.8690823],[129.3506977,35.8690671],[129.3506753,35.869054],[129.3506491,35.8690419],[129.3506255,35.8690343],[129.3506004,35.8690291],[129.3505658,35.8690253],[129.3505385,35.8690251],[129.350517,35.8690277],[129.3504716,35.8690384],[129.3504211,35.8690485],[129.3503678,35.8690596],[129.3502882,35.8690683],[129.3502545,35.8690737],[129.3501592,35.8690993],[129.3501326,35.8691087],[129.3501,35.8691247],[129.3500078,35.8691795],[129.35,35.8691853],[129.3499725,35.8692058],[129.3499044,35.8692486],[129.3499247,35.86927],[129.3499939,35.8692265],[129.35,35.869222],[129.3500289,35.8692004],[129.3501184,35.8691472],[129.3501479,35.8691328],[129.350171,35.8691246],[129.3502629,35.8690999],[129.3502936,35.869095],[129.3503742,35.8690862],[129.3504292,35.8690747],[129.3504802,35.8690645],[129.3505241,35.8690542],[129.3505408,35.8690521],[129.3505634,35.8690523],[129.350594,35.8690557],[129.3506153,35.8690601],[129.3506347,35.8690663],[129.3506573,35.8690768],[129.3506764,35.869088],[129.3506928,35.8691007],[129.3507027,35.8691105],[129.3507137,35.8691258],[129.3507571,35.8692081],[129.3507782,35.8692429],[129.3508081,35.8692818],[129.3508363,35.869315],[129.3508824,35.8693637],[129.3509023,35.8693795],[129.3509347,35.8693989],[129.3509661,35.869415],[129.3510049,35.8694307],[129.3510445,35.8694422],[129.3511155,35.8694606],[129.35116,35.869469],[129.3513778,35.8695063],[129.3514382,35.8695132],[129.3514888,35.8695168],[129.351569,35.8695191],[129.3516651,35.8695162],[129.3518084,35.8695217],[129.3518721,35.8695216],[129.3519541,35.8695191],[129.3519768,35.869516],[129.3520096,35.8695075],[129.3520398,35.8694985],[129.3520611,35.8694951],[129.3521372,35.8694906],[129.3522418,35.8694819],[129.3522975,35.8694789],[129.3523643,35.8694721],[129.3524027,35.869466],[129.3524609,35.8694524],[129.3524906,35.8694431],[129.3525246,35.8694285],[129.3525607,35.8694084],[129.3525739,35.8693979],[129.3525761,35.8693957],[129.3526071,35.8693574],[129.3526417,35.8693106],[129.3526709,35.8692747],[129.3527153,35.8692305],[129.3527401,35.8692103],[129.3528017,35.8691706],[129.352832,35.8691541],[129.3528513,35.8691462],[129.3529018,35.869132],[129.3529295,35.8691265],[129.3529594,35.8691228],[129.3529951,35.8691223],[129.3530417,35.8691252],[129.3531812,35.8691443],[129.3532735,35.8691619],[129.3534475,35.8691989],[129.3535375,35.8692125],[129.3535793,35.8692166],[129.3536405,35.8692184],[129.3537429,35.8692145],[129.3538205,35.8692148],[129.3538957,35.869219],[129.3539193,35.8692226],[129.3539631,35.8692332],[129.3540039,35.8692463],[129.3540232,35.8692544],[129.3540527,35.8692711],[129.3540986,35.869302],[129.3541614,35.8693358],[129.3541818,35.8693448],[129.354354,35.8693991],[129.3544391,35.8694228],[129.3545324,35.8694547],[129.3546501,35.8694979],[129.3546767,35.8695114],[129.354699,35.8695254],[129.3547198,35.8695415],[129.3547346,35.8695562],[129.3547474,35.8695734],[129.3547547,35.8695878],[129.3547599,35.8696047],[129.3547639,35.8696376],[129.3547679,35.8696859],[129.3547665,35.869718],[129.3547544,35.869885],[129.3547562,35.8699146],[129.3547651,35.8699704],[129.3547752,35.8700097],[129.3547889,35.8700515],[129.3547995,35.8700747],[129.3548141,35.8700976],[129.3548336,35.8701193],[129.3548599,35.8701447],[129.3548834,35.8701626],[129.3549091,35.8701778],[129.3549298,35.8701878],[129.3549557,35.8701969],[129.3549818,35.8702027],[129.3550052,35.8702048],[129.3550372,35.8702047],[129.3550593,35.8702017],[129.3550832,35.8701946],[129.3551223,35.8701782],[129.3551447,35.8701661],[129.3551842,35.8701394],[129.3552091,35.8701265],[129.3552437,35.8701118],[129.3552639,35.8701051],[129.3552856,35.8701009],[129.3553318,35.8700977],[129.3553603,35.8700968],[129.3553892,35.870099],[129.3554205,35.8701047],[129.3554457,35.8701121],[129.3554864,35.8701273],[129.35554,35.8701527],[129.355624,35.8701985],[129.3556635,35.8702246],[129.3556922,35.8702449],[129.3557542,35.8702816],[129.3558246,35.87033],[129.3558821,35.8703635],[129.3559478,35.870407],[129.3559943,35.8704352],[129.3560299,35.8704572],[129.3560974,35.8704946],[129.3561154,35.8705077],[129.3561326,35.8705216],[129.3561525,35.8705337],[129.3562749,35.8705994],[129.3563413,35.8706396],[129.3563561,35.8706512],[129.3563713,35.8706675],[129.3563868,35.8706888],[129.3563948,35.870705],[129.3564016,35.8707281],[129.3564076,35.8707612],[129.3564102,35.8707979],[129.3564085,35.8708321],[129.3564019,35.8708834],[129.356357,35.8711029],[129.3563432,35.871148],[129.356315,35.8712257],[129.356293,35.8712815],[129.3562733,35.8713331],[129.3562443,35.8714003],[129.3562019,35.8714754],[129.3561552,35.8715686],[129.3561144,35.8716657],[129.35609,35.8717324],[129.3560498,35.8718318],[129.356036,35.8718715],[129.3560145,35.8719462],[129.3559995,35.8719957],[129.35597,35.8721043],[129.3560143,35.8720666],[129.3560318,35.8720019],[129.3560468,35.8719525],[129.3560681,35.8718782],[129.3560816,35.8718398],[129.3561217,35.8717405],[129.356146,35.8716739],[129.3561863,35.8715781],[129.3562324,35.8714862],[129.3562751,35.8714104],[129.3563048,35.8713416],[129.3563247,35.8712897],[129.3563467,35.8712336],[129.3563752,35.8711551],[129.3563896,35.8711084],[129.3564348,35.870887],[129.3564417,35.8708341],[129.3564434,35.8707976],[129.3564406,35.8707584],[129.3564343,35.8707229],[129.3564265,35.8706967],[129.3564167,35.8706768],[129.3563989,35.8706524],[129.356381,35.8706332],[129.3563629,35.8706189],[129.356294,35.8705772],[129.3561716,35.8705116],[129.3561544,35.8705011],[129.3561382,35.8704881],[129.356118,35.8704733],[129.3560493,35.8704353],[129.3560143,35.8704136],[129.3559682,35.8703856],[129.3559023,35.870342],[129.355845,35.8703086],[129.3557747,35.8702603],[129.3557129,35.8702238],[129.3556849,35.8702039],[129.3556438,35.8701767],[129.3555576,35.8701297],[129.3555017,35.8701033]]],[[[129.3581346,35.8745766],[129.3581587,35.8745665],[129.3582105,35.874539],[129.3582692,35.8744825],[129.3583189,35.8743625],[129.3583336,35.8743355],[129.3584285,35.8741795],[129.358494,35.8740943],[129.3584563,35.8740948],[129.3584544,35.8740949],[129.3583995,35.8741663],[129.3583035,35.8743241],[129.3582879,35.8743527],[129.3582398,35.874469],[129.3581883,35.8745185],[129.358142,35.8745431],[129.3581216,35.8745517],[129.3580829,35.8745623],[129.3580466,35.8745701],[129.3580175,35.8745728],[129.3579645,35.8745724],[129.3579242,35.8745706],[129.3579062,35.8745675],[129.357847,35.8745505],[129.3578221,35.8745409],[129.3577144,35.8744896],[129.3576428,35.874446],[129.3575941,35.8744196],[129.3575188,35.8743743],[129.3574665,35.8743467],[129.3573894,35.8743005],[129.3573503,35.8742806],[129.357277,35.8742387],[129.357186,35.8741933],[129.3571499,35.8741723],[129.3571486,35.8741716],[129.3570955,35.8741756],[129.3571311,35.8741946],[129.3571676,35.8742159],[129.3572588,35.8742613],[129.3573319,35.8743031],[129.3573707,35.8743229],[129.3574476,35.874369],[129.3574999,35.8743965],[129.357575,35.8744417],[129.3576237,35.8744681],[129.357696,35.8745122],[129.3578065,35.8745648],[129.3578344,35.8745755],[129.3578972,35.8745935],[129.3579198,35.8745975],[129.3579634,35.8745994],[129.3580193,35.8745999],[129.3580528,35.8745967],[129.3580925,35.8745882],[129.3581346,35.8745766]]],[[[129.3595033,35.8741346],[129.3594852,35.8741337],[129.3595494,35.8741918],[129.3595551,35.8741959],[129.3596184,35.8742608],[129.3596721,35.8743364],[129.3597368,35.8744328],[129.3597714,35.8744834],[129.3598496,35.8745952],[129.3599101,35.8746875],[129.3599672,35.8747698],[129.3600229,35.8748332],[129.360084,35.874883],[129.3602862,35.8749815],[129.3603316,35.875],[129.3603331,35.8750006],[129.3604279,35.8750393],[129.3605851,35.8751029],[129.3606761,35.8751614],[129.3607682,35.8752353],[129.3608688,35.8753025],[129.3609365,35.8753411],[129.361018,35.8753836],[129.3611299,35.8754195],[129.3612644,35.8754519],[129.3614177,35.8754785],[129.3615487,35.8755006],[129.3616231,35.8755144],[129.3616576,35.8755228],[129.3617256,35.875566],[129.3618407,35.8756433],[129.3618657,35.8756652],[129.3618341,35.8755941],[129.3618296,35.8755925],[129.3617359,35.875527],[129.3616707,35.875487],[129.3616626,35.8754826],[129.3616449,35.8754773],[129.3615308,35.8754523],[129.3613788,35.8754314],[129.3612578,35.875409],[129.36114,35.8753819],[129.361036,35.8753475],[129.3609565,35.8753143],[129.3608985,35.8752768],[129.3608138,35.8752246],[129.3607264,35.875153],[129.3606379,35.8750925],[129.3605117,35.8750344],[129.3604499,35.8750157],[129.3604073,35.8750006],[129.3604057,35.875],[129.3603022,35.8749578],[129.3601045,35.8748615],[129.3600483,35.8748157],[129.3599953,35.8747553],[129.3599392,35.8746745],[129.3598787,35.8745822],[129.3598003,35.8744701],[129.3597659,35.8744198],[129.3597011,35.8743232],[129.3596459,35.8742455],[129.3595793,35.8741772],[129.3595728,35.8741725],[129.3595328,35.8741364],[129.3595033,35.8741346]]]]}},{"type":"Feature","properties":{"UFID":"100035902044A00110100000004487020"},"geometry":{"type":"MultiPolygon","coordinates":[[[[129.3397333,35.8830323],[129.339698,35.8830263],[129.3396797,35.8830976],[129.3396306,35.8832983],[129.3396065,35.8834183],[129.339601,35.8834529],[129.3395991,35.8834787],[129.3395979,35.8835103],[129.3395989,35.8836108],[129.3396078,35.8836839],[129.3396256,35.8837192],[129.3397914,35.8838724],[129.3398463,35.8838964],[129.3398752,35.883902],[129.3399105,35.883905],[129.3399489,35.8839077],[129.3400518,35.8839079],[129.3403909,35.883874],[129.3404064,35.8838684],[129.3405778,35.8838304],[129.3406262,35.88382],[129.3407644,35.8837934],[129.3407923,35.8837925],[129.3408142,35.8837921],[129.3408356,35.8837937],[129.340858,35.8837969],[129.3409031,35.8838154],[129.3409524,35.8838514],[129.3409897,35.8838993],[129.3410185,35.883949],[129.3410368,35.8840435],[129.3410377,35.884093],[129.3410352,35.8841181],[129.3410113,35.8842309],[129.3410067,35.8842952],[129.3410068,35.884324],[129.341008,35.8843502],[129.3410106,35.8843776],[129.3410149,35.8844038],[129.3410198,35.884424],[129.3410434,35.8844874],[129.3410941,35.884612],[129.3411502,35.8847589],[129.3411651,35.8847829],[129.3411806,35.8847949],[129.3412137,35.884809],[129.341428,35.88488],[129.3414993,35.8849102],[129.3415466,35.8849325],[129.3415954,35.8849727],[129.3416784,35.8850546],[129.3418098,35.8851793],[129.3420018,35.8852816],[129.3420598,35.8853009],[129.3420965,35.8853019],[129.342114,35.8853006],[129.342131,35.8852988],[129.3421573,35.8852909],[129.3421869,35.8852733],[129.3422492,35.8852194],[129.3422983,35.8851531],[129.3423567,35.8850586],[129.3424463,35.8848978],[129.3425241,35.8847268],[129.3427458,35.8842672],[129.3428231,35.884112],[129.3428316,35.8841005],[129.342868,35.8840782],[129.3430157,35.8840184],[129.3430226,35.8839981],[129.3431106,35.8838372],[129.3431377,35.8838281],[129.3432171,35.8838213],[129.3434115,35.8838156],[129.3434931,35.883808],[129.3435334,35.8837983],[129.3436252,35.8837681],[129.3437234,35.8837226],[129.3437913,35.8836729],[129.3438386,35.8836262],[129.3438614,35.8835832],[129.3438781,35.8835409],[129.3438783,35.8835406],[129.3438857,35.8835376],[129.3441086,35.8835103],[129.3441119,35.8834433],[129.3441414,35.8833361],[129.3441864,35.8832278],[129.3442434,35.8831294],[129.3442936,35.8830649],[129.3443541,35.8830136],[129.3444107,35.8829918],[129.3445085,35.8829667],[129.3446639,35.8829343],[129.3447908,35.8829169],[129.3449626,35.8828843],[129.3450208,35.8828637],[129.345066,35.8828383],[129.3451015,35.8828043],[129.3451247,35.8827612],[129.3451833,35.8826453],[129.3452451,35.8825781],[129.3453055,35.8825293],[129.345366,35.882478],[129.3453862,35.8824709],[129.3453997,35.8824701],[129.3454124,35.8824708],[129.3455101,35.8824929],[129.345606,35.8825307],[129.3457846,35.8826158],[129.3459176,35.8826751],[129.3459519,35.8826811],[129.3459858,35.8826797],[129.3460824,35.8826346],[129.3464404,35.8825089],[129.3465204,35.8824729],[129.3466186,35.8823817],[129.3467526,35.8822468],[129.3468621,35.8821626],[129.3468748,35.8821336],[129.3468691,35.8821075],[129.3468347,35.8819612],[129.3468346,35.8819439],[129.3468399,35.8819239],[129.3470132,35.8816458],[129.3471069,35.8815642],[129.3471238,35.8815565],[129.3471605,35.8815484],[129.3474082,35.8815226],[129.3474426,35.8815131],[129.3477347,35.8813106],[129.3478148,35.8812683],[129.3478491,35.8812638],[129.3478915,35.8812611],[129.348013,35.8812683],[129.3481768,35.8812829],[129.3482381,35.8812997],[129.3486774,35.8814974],[129.3490471,35.8816557],[129.34914,35.8816757],[129.3491981,35.8816739],[129.3493907,35.8816362],[129.3494871,35.8816021],[129.349575,35.8815748],[129.349592,35.8815726],[129.3498401,35.8815995],[129.3499525,35.8816231],[129.3502035,35.8817074],[129.350351,35.8817828],[129.3503595,35.8817906],[129.3503783,35.8818282],[129.3504731,35.882032],[129.3504901,35.8820505],[129.3505143,35.8820565],[129.3505449,35.8820563],[129.3505444,35.882031],[129.3505191,35.8820313],[129.3505088,35.8820288],[129.3505005,35.8820197],[129.3504071,35.8818189],[129.3503862,35.8817771],[129.3503713,35.8817634],[129.3502178,35.8816849],[129.3499623,35.8815991],[129.3498461,35.8815747],[129.3495917,35.8815471],[129.349567,35.8815502],[129.3494754,35.8815787],[129.3493808,35.8816122],[129.349194,35.8816488],[129.3491434,35.8816504],[129.3490584,35.881632],[129.3486921,35.8814751],[129.3482507,35.8812765],[129.3481835,35.8812581],[129.3480159,35.8812432],[129.3478914,35.8812358],[129.3478455,35.8812388],[129.3478034,35.8812442],[129.3477162,35.8812903],[129.347427,35.8814908],[129.3474012,35.8814979],[129.3471544,35.8815236],[129.347112,35.881533],[129.3470875,35.8815441],[129.3469876,35.8816312],[129.3468105,35.8819154],[129.3468036,35.8819412],[129.3468037,35.8819636],[129.3468386,35.882112],[129.3468428,35.8821315],[129.3468354,35.8821484],[129.3467298,35.8822296],[129.3465948,35.8823655],[129.3465006,35.8824529],[129.3464267,35.8824862],[129.3460685,35.882612],[129.3459768,35.8826548],[129.3459543,35.8826557],[129.3459286,35.8826512],[129.3457999,35.8825938],[129.3456206,35.8825084],[129.3455211,35.8824692],[129.3454177,35.8824458],[129.3453996,35.8824448],[129.3453787,35.882446],[129.345348,35.8824568],[129.3452834,35.8825116],[129.3452216,35.8825616],[129.3451561,35.8826327],[129.3450962,35.8827513],[129.3450749,35.8827908],[129.345045,35.8828194],[129.3450057,35.8828415],[129.3449528,35.8828603],[129.3447847,35.8828921],[129.3446575,35.8829096],[129.3444999,35.8829425],[129.3443994,35.8829683],[129.3443368,35.8829923],[129.3442632,35.8830492],[129.3442117,35.8831152],[129.3441529,35.8832168],[129.3441066,35.8833281],[129.344076,35.8834395],[129.3440737,35.8834852],[129.3438597,35.8835134],[129.343846,35.8835262],[129.3438276,35.8835729],[129.3438075,35.8836107],[129.3437651,35.8836525],[129.3437021,35.8836987],[129.3436094,35.8837416],[129.3435215,35.8837706],[129.3434859,35.8837791],[129.3434089,35.8837864],[129.3432146,35.883792],[129.3431288,35.8837993],[129.3430832,35.8838146],[129.3429877,35.8839969],[129.342849,35.8840532],[129.3428044,35.8840805],[129.3427908,35.8840987],[129.3427123,35.8842564],[129.3424904,35.8847164],[129.3424129,35.8848866],[129.3423241,35.885046],[129.3422667,35.8851389],[129.3422203,35.8852015],[129.3421629,35.8852512],[129.3421401,35.8852648],[129.3421222,35.8852702],[129.3421102,35.8852715],[129.3420955,35.8852725],[129.3420674,35.8852717],[129.342018,35.8852553],[129.3419949,35.8852457],[129.3418526,35.8851748],[129.341706,35.8850357],[129.3416222,35.884953],[129.3415688,35.884909],[129.3415167,35.8848845],[129.3414432,35.8848533],[129.3412289,35.8847823],[129.3412018,35.8847708],[129.3411945,35.8847651],[129.3411837,35.8847478],[129.3411285,35.8846031],[129.3410777,35.8844785],[129.3410548,35.8844168],[129.3410505,35.884399],[129.3410465,35.8843746],[129.341044,35.8843485],[129.3410429,35.8843234],[129.3410428,35.884296],[129.3410472,35.8842342],[129.341071,35.8841218],[129.3410737,35.884094],[129.3410728,35.884041],[129.3410534,35.8839402],[129.3410214,35.8838852],[129.3409802,35.8838323],[129.3409237,35.8837909],[129.3408694,35.8837687],[129.3408404,35.8837646],[129.3408158,35.8837627],[129.3407903,35.8837632],[129.3407629,35.8837641],[129.3406173,35.8837916],[129.3403837,35.8838451],[129.3400496,35.8838785],[129.3399505,35.8838784],[129.3399141,35.8838758],[129.3398813,35.883873],[129.3398592,35.8838688],[129.3398142,35.883849],[129.3396567,35.8837035],[129.3396432,35.8836768],[129.339635,35.8836093],[129.3396339,35.8835106],[129.3396351,35.88348],[129.3396369,35.8834556],[129.3396422,35.8834225],[129.3396661,35.8833035],[129.339715,35.8831035],[129.3397333,35.8830323]]]]}},{"type":"Feature","properties":{"UFID":"100035902045A00110100000004487153"},"geometry":{"type":"MultiPolygon","coordinates":[[[[129.3619014,35.8756501],[129.3618891,35.8756287],[129.3618866,35.8755779],[129.3618341,35.8755941],[129.3618657,35.8756652],[129.3619014,35.8756501]]]]}},{"type":"Feature","properties":{"UFID":"100035902045A00110100000004487154"},"geometry":{"type":"MultiPolygon","coordinates":[[[[129.3619014,35.8756501],[129.3618657,35.8756652],[129.361881,35.8756785],[129.3618832,35.8756822],[129.3619611,35.8758178],[129.3620614,35.876014],[129.3621143,35.8760966],[129.362216,35.8762352],[129.3622349,35.8762585],[129.3623984,35.8763936],[129.3624077,35.8764008],[129.3625076,35.8764946],[129.3625317,35.8765249],[129.362569,35.8766164],[129.3625713,35.8766242],[129.3626046,35.8768254],[129.3626234,35.876965],[129.3626271,35.8769892],[129.3626326,35.877018],[129.362639,35.8770416],[129.3626489,35.8770715],[129.3626586,35.8770947],[129.3627458,35.8772217],[129.362915,35.8773696],[129.3629237,35.8773761],[129.3629626,35.8774213],[129.3629817,35.8774635],[129.3629844,35.8774797],[129.362986,35.8775048],[129.3629762,35.8776076],[129.3629707,35.877627],[129.3629398,35.8777078],[129.3629318,35.877728],[129.3629284,35.877735],[129.3628326,35.8778898],[129.362765,35.8779834],[129.3627065,35.8780961],[129.3627036,35.8781023],[129.3626997,35.8781166],[129.362697,35.8781438],[129.3626975,35.8781688],[129.3626999,35.8781868],[129.3627021,35.8781973],[129.3627096,35.8782162],[129.362714,35.8782244],[129.3627759,35.8783505],[129.3627819,35.8783666],[129.3627962,35.8784708],[129.3627965,35.8784956],[129.3627929,35.8785414],[129.3627802,35.8785765],[129.3627469,35.8786249],[129.3626836,35.8786932],[129.3626738,35.8787019],[129.3625782,35.8787958],[129.3625597,35.8788181],[129.3625556,35.8788246],[129.3625478,35.8788435],[129.3625399,35.8788753],[129.3625383,35.8789179],[129.3625393,35.8789391],[129.3625418,35.8789583],[129.3625506,35.8789945],[129.362553,35.8790014],[129.3625841,35.8790422],[129.3626121,35.8790675],[129.3626673,35.8791046],[129.3628293,35.8792078],[129.3628362,35.8792136],[129.3629008,35.8792726],[129.3629141,35.8792974],[129.3629244,35.8793268],[129.3629279,35.8793608],[129.3629286,35.8793871],[129.3629272,35.8793986],[129.3629258,35.8794087],[129.3629057,35.8794746],[129.3629007,35.8794886],[129.362898,35.8794947],[129.3628694,35.8795492],[129.3628045,35.8796753],[129.3627644,35.87978],[129.3627474,35.8798576],[129.3627389,35.8799411],[129.3627452,35.8800607],[129.3627613,35.8801303],[129.3627707,35.8801509],[129.3628018,35.8801415],[129.3627935,35.8801231],[129.3627783,35.8800576],[129.3627721,35.8799415],[129.3627804,35.8798612],[129.3627968,35.8797864],[129.3628358,35.8796845],[129.3629,35.8795597],[129.362929,35.8795046],[129.3629323,35.879497],[129.3629378,35.8794817],[129.3629586,35.8794134],[129.3629618,35.8793882],[129.3629612,35.8793594],[129.3629572,35.879322],[129.3629454,35.8792883],[129.3629291,35.8792579],[129.3628605,35.8791952],[129.3628515,35.8791876],[129.3626881,35.8790836],[129.3626351,35.8790479],[129.3626107,35.8790259],[129.3625837,35.8789904],[129.3625829,35.8789882],[129.3625746,35.8789543],[129.3625725,35.8789372],[129.3625716,35.8789178],[129.362573,35.8788784],[129.36258,35.8788505],[129.3625863,35.8788351],[129.3625884,35.8788319],[129.3626048,35.8788121],[129.3626988,35.8787197],[129.3627091,35.8787106],[129.3627748,35.8786397],[129.362811,35.878587],[129.3628258,35.8785461],[129.3628298,35.8784963],[129.3628294,35.8784691],[129.3628146,35.8783611],[129.3628072,35.8783415],[129.3627446,35.8782139],[129.3627407,35.8782066],[129.3627344,35.8781909],[129.3627328,35.878183],[129.3627307,35.8781671],[129.3627303,35.8781447],[129.3627326,35.8781206],[129.3627355,35.87811],[129.3627373,35.8781061],[129.3627948,35.8779955],[129.3628617,35.8779028],[129.3629588,35.8777461],[129.3629631,35.8777372],[129.3629715,35.877716],[129.3630029,35.877634],[129.3630091,35.8776117],[129.3630193,35.8775052],[129.3630175,35.8774772],[129.3630142,35.8774574],[129.3630115,35.8774508],[129.3629923,35.8774086],[129.3629489,35.8773583],[129.3629386,35.8773505],[129.3627728,35.8772057],[129.3626891,35.8770837],[129.3626807,35.8770636],[129.3626713,35.8770352],[129.3626652,35.877013],[129.36266,35.8769855],[129.3626564,35.8769619],[129.3626376,35.8768222],[129.362604,35.8766191],[129.3626009,35.8766089],[129.3625619,35.8765131],[129.3625342,35.8764783],[129.3624318,35.8763821],[129.3624217,35.8763743],[129.3622608,35.8762414],[129.3622441,35.8762208],[129.3621433,35.8760834],[129.3620915,35.8760025],[129.3619915,35.8758069],[129.3619014,35.8756501]]]]}}]}