{"type":"FeatureCollection","features":[{"type":"Feature","properties":{"UFID":"100035905043A00110100000004501565"},"geometry":{"type":"MultiPolygon","coordinates":[[[[129.0653086,35.6496729],[129.0652229,35.6495827],[129.0649847,35.6493642],[129.0650216,35.6494282],[129.0650577,35.6495118],[129.0650951,35.6496075],[129.0651139,35.64966],[129.0651373,35.6497021],[129.0651528,35.6497292],[129.0651749,35.6497918],[129.0651839,35.6498543],[129.0651807,35.6499368],[129.0651637,35.65],[129.0651636,35.6500006],[129.0651584,35.6500199],[129.0651176,35.6501073],[129.0650871,35.6501478],[129.0650763,35.650153],[129.0650657,35.6501541],[129.065051,35.6501517],[129.0651855,35.6503147],[129.065185,35.6502944],[129.0651905,35.6502656],[129.0652067,35.6502294],[129.0652534,35.6501668],[129.0653015,35.6500966],[129.0653212,35.6500481],[129.0653341,35.6500006],[129.0653342,35.65],[129.0653414,35.6499735],[129.0653516,35.6499068],[129.0653513,35.6498479],[129.0653447,35.6498044],[129.0653366,35.6497646],[129.0653256,35.6497246],[129.0653086,35.6496741],[129.0653086,35.6496729]]]]}},{"type":"Feature","properties":{"UFID":"100035905043A00110100000004523215"},"geometry":{"type":"MultiPolygon","coordinates":[[[[129.0658395,35.6490107],[129.0657425,35.6489865],[129.0658037,35.6490418],[129.0658494,35.6490905],[129.0658972,35.6491301],[129.0659884,35.6492195],[129.0660206,35.6492605],[129.0660541,35.6493105],[129.0660828,35.6493463],[129.0660961,35.6493798],[129.0661129,35.6494119],[129.0661318,35.6494726],[129.0661406,35.6495121],[129.0661455,35.649533],[129.0661496,35.6495502],[129.0661523,35.6495564],[129.0661613,35.6495765],[129.0661702,35.6495962],[129.0661773,35.6496119],[129.0662174,35.6496931],[129.0662528,35.6497472],[129.0662533,35.6497482],[129.066266,35.6497752],[129.0662662,35.6497763],[129.0662701,35.6498042],[129.0662709,35.6498099],[129.0662724,35.6498337],[129.0662697,35.6498649],[129.0662628,35.6498985],[129.0662591,35.6499243],[129.0662882,35.6499242],[129.0662972,35.6498608],[129.0663037,35.6498273],[129.0663033,35.6498091],[129.066303,35.6497961],[129.0663015,35.6497812],[129.0663003,35.6497698],[129.0662911,35.6497301],[129.0662662,35.6496836],[129.0662297,35.6496119],[129.0662181,35.6495893],[129.0662112,35.6495757],[129.0661939,35.6495383],[129.0661856,35.6495196],[129.0661815,35.6495102],[129.0661759,35.6494824],[129.0661724,35.6494513],[129.0661646,35.6494206],[129.066163,35.6494071],[129.0661537,35.6493835],[129.0661443,35.6493606],[129.0661085,35.6493156],[129.0660506,35.6492208],[129.0659927,35.6491548],[129.0659408,35.6490902],[129.0658276,35.6490219],[129.0658279,35.6490187],[129.0658291,35.6490152],[129.0658311,35.6490129],[129.0658395,35.6490107]]]]}},{"type":"Feature","properties":{"UFID":"100035905033A00110100000004524253"},"geometry":{"type":"MultiPolygon","coordinates":[[[[129.0646889,35.6500231],[129.0646795,35.6500006],[129.0646793,35.65],[129.0646399,35.6499058],[129.0645237,35.65],[129.0645229,35.6500006],[129.0644823,35.6500335],[129.0646061,35.6500713],[129.0646377,35.6500433],[129.0646781,35.6500245],[129.0646889,35.6500231]]]]}},{"type":"Feature","properties":{"UFID":"100035905043A00110100000004524254"},"geometry":{"type":"MultiPolygon","coordinates":[[[[129.0614119,35.6502391],[129.0613935,35.6502246],[129.0612656,35.6501392],[129.0611454,35.6500739],[129.0611021,35.6500537],[129.0610414,35.6500323],[129.0609593,35.6500104],[129.0609109,35.6500006],[129.0609079,35.65],[129.060867,35.6499854],[129.0608532,35.6499796],[129.0608174,35.6499611],[129.0608069,35.6499535],[129.0607881,35.6499399],[129.060751,35.6499226],[129.0606997,35.6499106],[129.0606497,35.6499019],[129.060599,35.6498973],[129.0605758,35.649895],[129.060544,35.6498962],[129.0605234,35.6498948],[129.0605125,35.6498935],[129.0604717,35.6498858],[129.0603652,35.6498641],[129.0603123,35.6498514],[129.0602718,35.6498377],[129.0602193,35.6498132],[129.0601263,35.6497651],[129.0600482,35.649733],[129.0599359,35.6497044],[129.0598894,35.6496986],[129.0598743,35.6496984],[129.0597279,35.6496984],[129.0596678,35.6496972],[129.0595326,35.6496807],[129.0595277,35.6497074],[129.0596649,35.6497242],[129.0597275,35.6497255],[129.0598741,35.6497254],[129.0598866,35.6497256],[129.0599284,35.6497308],[129.0600358,35.6497581],[129.0601099,35.6497886],[129.0602022,35.6498363],[129.0602571,35.649862],[129.0603013,35.649877],[129.0603565,35.6498902],[129.0604639,35.649912],[129.0605064,35.6499201],[129.0605196,35.6499217],[129.0605433,35.6499233],[129.0605746,35.6499221],[129.0605951,35.6499242],[129.0606444,35.6499287],[129.0606917,35.6499368],[129.060738,35.6499477],[129.0607687,35.649962],[129.0607974,35.6499828],[129.0608371,35.65],[129.0608626,35.6500098],[129.060901,35.6500199],[129.0611141,35.6501074],[129.0613314,35.6502558],[129.0613352,35.6502603],[129.0613399,35.6502666],[129.0613426,35.6502713],[129.0613437,35.6502749],[129.0614119,35.6502391]]]]}},{"type":"Feature","properties":{"UFID":"100035905033A00110100000004524255"},"geometry":{"type":"MultiPolygon","coordinates":[[[[129.065051,35.6501517],[129.0650235,35.6501325],[129.0649877,35.6500824],[129.0649376,35.6500017],[129.0649367,35.6500006],[129.0649362,35.65],[129.0648959,35.6499525],[129.0648564,35.6499201],[129.0648133,35.6498955],[129.0647735,35.6498853],[129.0647334,35.6498838],[129.0646932,35.6498889],[129.0646399,35.6499058],[129.0646793,35.65],[129.0646795,35.6500006],[129.0646889,35.6500231],[129.0647266,35.6500184],[129.0647669,35.6500233],[129.0648029,35.6500358],[129.0648436,35.6500739],[129.0649032,35.6501694],[129.0649061,35.6501756],[129.064907,35.6501818],[129.0649,35.6502434],[129.065051,35.6501517]]]]}},{"type":"Feature","properties":{"UFID":"100035905043A00110100000004524256"},"geometry":{"type":"MultiPolygon","coordinates":[[[[129.065333,35.6495528],[129.0653086,35.6496729],[129.065312,35.6496726],[129.0653139,35.6496732],[129.065381,35.6497331],[129.0654624,35.6498186],[129.0654754,35.6498132],[129.0654865,35.6498263],[129.065522,35.6498827],[129.0655473,35.6499395],[129.0655662,35.649989],[129.0655688,35.65],[129.0655689,35.6500006],[129.0655817,35.6500553],[129.0655916,35.6501495],[129.0655924,35.6502012],[129.0655816,35.6502524],[129.0655581,35.6503069],[129.0656737,35.650352],[129.0656901,35.6502979],[129.0656926,35.6502706],[129.0656957,35.6502363],[129.0656968,35.650183],[129.0656916,35.6501253],[129.0656822,35.6500478],[129.0656708,35.6500006],[129.0656706,35.65],[129.0656504,35.6499409],[129.065624,35.6498825],[129.0655911,35.6498321],[129.0655353,35.6497687],[129.065475,35.6497051],[129.0654098,35.649634],[129.0653657,35.6495908],[129.065333,35.6495528]]]]}},{"type":"Feature","properties":{"UFID":"100035905033A00110100000004524257"},"geometry":{"type":"MultiPolygon","coordinates":[[[[129.0644823,35.6500335],[129.0645229,35.6500006],[129.0645237,35.65],[129.0646399,35.6499058],[129.064636,35.6499054],[129.0645542,35.6498657],[129.0644683,35.6498057],[129.0643943,35.6497779],[129.0643219,35.6497664],[129.064274,35.6497693],[129.0642022,35.6497902],[129.0641372,35.6498191],[129.0640831,35.6498533],[129.0640535,35.6498902],[129.0640266,35.6499427],[129.0640176,35.649995],[129.0640175,35.65],[129.0640175,35.6500006],[129.0640166,35.6500445],[129.0640408,35.650175],[129.0640449,35.6502094],[129.0640403,35.6502442],[129.0640295,35.6502811],[129.0640098,35.6503142],[129.0639709,35.6503476],[129.0639323,35.6503671],[129.0637407,35.6504155],[129.0634262,35.6504687],[129.063101,35.6505388],[129.06288,35.6505722],[129.0627602,35.6505676],[129.0625335,35.6505336],[129.0623571,35.6505229],[129.0622731,35.6505345],[129.0621799,35.6505683],[129.0622402,35.6506332],[129.0622975,35.650602],[129.0623675,35.650584],[129.0624408,35.6505712],[129.0625487,35.6505818],[129.0627701,35.6506162],[129.062843,35.6506222],[129.0629046,35.6506226],[129.0629858,35.6506156],[129.063078,35.6506005],[129.0632738,35.6505596],[129.0635619,35.6504996],[129.0638103,35.6504565],[129.0639811,35.6504209],[129.0640348,35.6503984],[129.064074,35.6503664],[129.0640931,35.6503281],[129.0641088,35.6502793],[129.0641152,35.6502334],[129.0641153,35.6501893],[129.0641092,35.6501362],[129.0640895,35.6500436],[129.064087,35.6500072],[129.0640881,35.6500006],[129.0640882,35.65],[129.0640925,35.6499761],[129.0641098,35.6499425],[129.0641487,35.6498994],[129.0641879,35.6498763],[129.064228,35.6498652],[129.0642688,35.649866],[129.0643085,35.6498707],[129.0643638,35.6498917],[129.0644692,35.65],[129.0644698,35.6500006],[129.0644808,35.6500119],[129.0644837,35.6500189],[129.064484,35.6500235],[129.0644838,35.650027],[129.0644831,35.6500304],[129.0644823,35.6500335]]]]}},{"type":"Feature","properties":{"UFID":"100035905033A00110100000004524259"},"geometry":{"type":"MultiPolygon","coordinates":[[[[129.0598768,35.6501523],[129.0599302,35.6501519],[129.0599244,35.6501486],[129.059881,35.6501066],[129.0598205,35.6500532],[129.05976,35.6500144],[129.0597293,35.6500006],[129.059728,35.65],[129.0596688,35.6499725],[129.0595572,35.6499308],[129.059456,35.6498888],[129.0593767,35.6498499],[129.0593234,35.649817],[129.0592649,35.6497707],[129.0592105,35.6497294],[129.0591915,35.649719],[129.0591461,35.6496925],[129.0591256,35.6496791],[129.0591169,35.6496733],[129.0591104,35.6496631],[129.0591098,35.6496596],[129.0591073,35.6496477],[129.0591089,35.6496378],[129.0591112,35.6496345],[129.0591211,35.6496236],[129.0591427,35.6496132],[129.0591493,35.6496112],[129.059168,35.6496085],[129.05919,35.6496093],[129.0592023,35.6496107],[129.0592566,35.6496281],[129.0593125,35.6496383],[129.059324,35.6496407],[129.0593608,35.6496364],[129.0594934,35.649613],[129.0595452,35.6496063],[129.0597016,35.6495885],[129.0598767,35.6495654],[129.0600313,35.6495481],[129.0601662,35.6495363],[129.0602198,35.6495346],[129.0602746,35.6495376],[129.0603259,35.6495468],[129.0604454,35.6495816],[129.0604575,35.6495845],[129.0605475,35.6496065],[129.0607324,35.6496531],[129.0608267,35.6496887],[129.0608427,35.6496957],[129.0609228,35.6497434],[129.060982,35.649782],[129.0610514,35.6498225],[129.0610837,35.6498414],[129.0612221,35.6499172],[129.0613781,35.65],[129.0613793,35.6500006],[129.0614729,35.6500491],[129.0615828,35.6501054],[129.0616327,35.6501328],[129.0616576,35.650155],[129.0616792,35.6501811],[129.0616983,35.6502064],[129.0617376,35.6502946],[129.0617923,35.6504118],[129.0618403,35.6505107],[129.0618988,35.6506351],[129.0619022,35.6506439],[129.0619035,35.6506552],[129.0619044,35.6506637],[129.0619034,35.6506708],[129.0618996,35.6506833],[129.0618917,35.6506976],[129.0618752,35.6507135],[129.0617096,35.6508617],[129.0615536,35.6510371],[129.0615486,35.6510405],[129.0615423,35.6510428],[129.0615344,35.6510434],[129.0616018,35.6510574],[129.0615995,35.6510551],[129.0615984,35.651052],[129.0615984,35.6510484],[129.0616001,35.6510436],[129.061726,35.6508932],[129.0618402,35.6507937],[129.0619468,35.6507107],[129.061957,35.6506956],[129.0619611,35.6506859],[129.061962,35.6506786],[129.0619615,35.6506717],[129.0619589,35.6506567],[129.0619462,35.6506291],[129.0618961,35.6505361],[129.0618618,35.6504597],[129.061812,35.6503484],[129.0617426,35.6502057],[129.0617172,35.6501535],[129.0616942,35.6501287],[129.0616912,35.6501265],[129.0616646,35.6501111],[129.0616204,35.6500899],[129.0615336,35.6500452],[129.0614353,35.6500006],[129.0614341,35.65],[129.0613912,35.6499779],[129.0612406,35.6498947],[129.0611026,35.6498192],[129.0610708,35.6498005],[129.061002,35.6497604],[129.0609429,35.6497219],[129.0608603,35.6496727],[129.0608414,35.6496645],[129.0607443,35.6496278],[129.0605572,35.6495806],[129.0604557,35.6495559],[129.0603351,35.6495207],[129.0602793,35.6495107],[129.0602203,35.6495075],[129.0601638,35.6495093],[129.0600272,35.6495213],[129.0598718,35.6495387],[129.0596967,35.6495618],[129.0595403,35.6495795],[129.0594873,35.6495864],[129.059355,35.6496098],[129.0593257,35.6496132],[129.0593201,35.649612],[129.0592664,35.6496022],[129.0592108,35.6495844],[129.0591931,35.6495823],[129.0591658,35.6495814],[129.0591406,35.649585],[129.0591284,35.6495887],[129.0590985,35.6496031],[129.0590833,35.6496198],[129.0590769,35.6496292],[129.0590739,35.6496482],[129.059077,35.6496639],[129.0590785,35.6496716],[129.0590907,35.6496908],[129.0591048,35.6497001],[129.0591261,35.6497141],[129.0591726,35.6497413],[129.0591899,35.6497507],[129.0592421,35.6497903],[129.0593018,35.6498376],[129.0593582,35.6498724],[129.0594399,35.6499125],[129.0595428,35.6499552],[129.0596661,35.65],[129.0596678,35.6500006],[129.0597135,35.6500193],[129.0597885,35.6500592],[129.0598313,35.6500862],[129.0598591,35.6501165],[129.0598828,35.650149],[129.0598825,35.6501511],[129.0598768,35.6501523]]]]}},{"type":"Feature","properties":{"UFID":"100035905043A00110100000004524438"},"geometry":{"type":"MultiPolygon","coordinates":[[[[129.065333,35.6495528],[129.0653169,35.6495341],[129.0652519,35.6494741],[129.0651853,35.6494282],[129.0651156,35.649373],[129.0650515,35.6492883],[129.0650496,35.6492833],[129.0649847,35.6493642],[129.0652229,35.6495827],[129.0653086,35.6496729],[129.065333,35.6495528]]]]}},{"type":"Feature","properties":{"UFID":"100035905043A00110100000004524439"},"geometry":{"type":"MultiPolygon","coordinates":[[[[129.0649953,35.6491882],[129.064956,35.6491544],[129.0647451,35.6488514],[129.0645742,35.6485782],[129.0645544,35.6485403],[129.0643559,35.6482092],[129.0643066,35.6480968],[129.0642345,35.6478973],[129.0642297,35.647859],[129.0642215,35.6477074],[129.0641219,35.6477041],[129.0641305,35.6478649],[129.0641366,35.6479131],[129.0642121,35.648122],[129.0642643,35.648241],[129.0643893,35.6484486],[129.0644977,35.6486302],[129.0646125,35.6488284],[129.0647143,35.6489854],[129.0648866,35.6492213],[129.0649137,35.6492607],[129.0649953,35.6491882]]]]}},{"type":"Feature","properties":{"UFID":"100035905043A00110100000004524440"},"geometry":{"type":"MultiPolygon","coordinates":[[[[129.0650496,35.6492833],[129.0650505,35.6492809],[129.0650516,35.6492795],[129.0650541,35.6492789],[129.065094,35.6492577],[129.0650563,35.6492291],[129.0649953,35.6491882],[129.0649137,35.6492607],[129.0649847,35.6493642],[129.0650496,35.6492833]]]]}},{"type":"Feature","properties":{"UFID":"100035905043A00110100000004524441"},"geometry":{"type":"MultiPolygon","coordinates":[[[[129.0642302,35.6465438],[129.0641712,35.6464676],[129.0640806,35.6465405],[129.0641211,35.6465702],[129.0641386,35.6465882],[129.0642302,35.6465438]]]]}},{"type":"Feature","properties":{"UFID":"100035905043A00110100000004524442"},"geometry":{"type":"MultiPolygon","coordinates":[[[[129.0642302,35.6465438],[129.0641386,35.6465882],[129.064161,35.6466238],[129.0642293,35.6467656],[129.0642578,35.6468813],[129.0642671,35.6469704],[129.0642715,35.647045],[129.064264,35.6471203],[129.0642399,35.6472326],[129.0641792,35.6474336],[129.0641756,35.6474477],[129.0642738,35.6474707],[129.0642771,35.6474589],[129.0643247,35.6473313],[129.064353,35.647247],[129.0643816,35.6471223],[129.0643885,35.6470289],[129.0643878,35.6469803],[129.0643749,35.6468539],[129.0643444,35.646723],[129.0642923,35.6466284],[129.0642679,35.646599],[129.0642302,35.6465438]]]]}},{"type":"Feature","properties":{"UFID":"100035905043A00110100000004524443"},"geometry":{"type":"MultiPolygon","coordinates":[[[[129.0642738,35.6474707],[129.0641756,35.6474477],[129.0641417,35.647579],[129.0641314,35.6476414],[129.0641219,35.6477041],[129.0642215,35.6477074],[129.0642738,35.6474707]]]]}},{"type":"Feature","properties":{"UFID":"100035905043A00110100000004525863"},"geometry":{"type":"MultiPolygon","coordinates":[[[[129.0665681,35.6484549],[129.0665697,35.6484047],[129.0664628,35.6484067],[129.0664656,35.6484568],[129.0665681,35.6484549]]]]}},{"type":"Feature","properties":{"UFID":"100035905043A00110100000004525864"},"geometry":{"type":"MultiPolygon","coordinates":[[[[129.0664656,35.6484568],[129.0664628,35.6484067],[129.0660798,35.6484164],[129.0660808,35.648465],[129.0664607,35.6484569],[129.0664656,35.6484568]]]]}},{"type":"Feature","properties":{"UFID":"100035905043A00110100000004525865"},"geometry":{"type":"MultiPolygon","coordinates":[[[[129.0665697,35.6484047],[129.0665681,35.6484549],[129.0669355,35.6484482],[129.0669282,35.6483954],[129.0665697,35.6484047]]]]}},{"type":"Feature","properties":{"UFID":"100035905043A00110100000004525866"},"geometry":{"type":"MultiPolygon","coordinates":[[[[129.0665681,35.6484549],[129.0664656,35.6484568],[129.0664678,35.648464],[129.0664693,35.6487031],[129.0665612,35.6486991],[129.0665543,35.648468],[129.0665681,35.6484549]]]]}},{"type":"Feature","properties":{"UFID":"100035905043A00110100000004525867"},"geometry":{"type":"MultiPolygon","coordinates":[[[[129.0660808,35.648465],[129.0660798,35.6484164],[129.0659628,35.6484159],[129.0659561,35.6484678],[129.0660808,35.648465]]]]}},{"type":"Feature","properties":{"UFID":"100035905043A00110100000004525868"},"geometry":{"type":"MultiPolygon","coordinates":[[[[129.0659561,35.6484678],[129.0659628,35.6484159],[129.0659371,35.6484185],[129.0656368,35.6484253],[129.0655757,35.6484244],[129.0655579,35.6484175],[129.0655553,35.6484053],[129.0655463,35.6484006],[129.0655424,35.6483963],[129.0655738,35.6484829],[129.0655881,35.6484774],[129.0655897,35.6484766],[129.0659561,35.6484678]]]]}},{"type":"Feature","properties":{"UFID":"100035905043A00110100000004525869"},"geometry":{"type":"MultiPolygon","coordinates":[[[[129.0660808,35.648465],[129.0659561,35.6484678],[129.0659677,35.6484745],[129.0659682,35.6484789],[129.065971,35.6487702],[129.0660738,35.6487697],[129.0660675,35.6484781],[129.0660685,35.6484742],[129.0660808,35.648465]]]]}},{"type":"Feature","properties":{"UFID":"100035905043A00110100000004525870"},"geometry":{"type":"MultiPolygon","coordinates":[[[[129.0657717,35.6489281],[129.0656835,35.648837],[129.0656336,35.6487833],[129.0655945,35.6487531],[129.0655867,35.6487453],[129.0655832,35.6487386],[129.0655813,35.648733],[129.065579,35.6486847],[129.0655738,35.6484829],[129.0654382,35.6484917],[129.0654842,35.648547],[129.0655039,35.648579],[129.0655118,35.6486225],[129.0654982,35.6486251],[129.0655334,35.648744],[129.065568,35.6487985],[129.0655932,35.6488337],[129.0656838,35.6489273],[129.0657425,35.6489865],[129.0657717,35.6489281]]]]}},{"type":"Feature","properties":{"UFID":"100035905043A00110100000004525871"},"geometry":{"type":"MultiPolygon","coordinates":[[[[129.0658551,35.6489771],[129.065823,35.6489666],[129.0657717,35.6489281],[129.0657425,35.6489865],[129.0658395,35.6490107],[129.0658551,35.6489771]]]]}},{"type":"Feature","properties":{"UFID":"100035905043A00110100000004525872"},"geometry":{"type":"MultiPolygon","coordinates":[[[[129.0659347,35.6490022],[129.0658762,35.6489841],[129.0658551,35.6489771],[129.0658395,35.6490107],[129.0658586,35.6490191],[129.0659166,35.6490384],[129.0659347,35.6490022]]]]}},{"type":"Feature","properties":{"UFID":"100035905043A00110100000004525873"},"geometry":{"type":"MultiPolygon","coordinates":[[[[129.066807,35.6488077],[129.0668271,35.6487975],[129.0667953,35.6487706],[129.0667789,35.6487787],[129.0667476,35.6488107],[129.066807,35.6488077]]]]}},{"type":"Feature","properties":{"UFID":"100035905043A00110100000004525874"},"geometry":{"type":"MultiPolygon","coordinates":[[[[129.0668082,35.6488581],[129.0668066,35.6488269],[129.0668064,35.6488138],[129.066807,35.6488077],[129.0667476,35.6488107],[129.0667608,35.6488589],[129.0668082,35.6488581]]]]}},{"type":"Feature","properties":{"UFID":"100035905043A00110100000004525875"},"geometry":{"type":"MultiPolygon","coordinates":[[[[129.0668082,35.6488581],[129.0667608,35.6488589],[129.0667721,35.6490068],[129.0667656,35.6490135],[129.0667332,35.6490167],[129.0664212,35.6490316],[129.0662301,35.6490471],[129.0661069,35.6490521],[129.0660867,35.6490516],[129.0660197,35.649029],[129.0660015,35.6490666],[129.066016,35.6490713],[129.0660834,35.649092],[129.066147,35.6490883],[129.0661932,35.6490852],[129.0662721,35.64908],[129.0663946,35.6490706],[129.0665808,35.6490592],[129.0667775,35.6490483],[129.0668098,35.6490441],[129.0668157,35.6490012],[129.0668082,35.6488581]]]]}},{"type":"Feature","properties":{"UFID":"100035905043A00110100000004525876"},"geometry":{"type":"MultiPolygon","coordinates":[[[[129.0660197,35.649029],[129.0659347,35.6490022],[129.0659166,35.6490384],[129.0660015,35.6490666],[129.0660197,35.649029]]]]}},{"type":"Feature","properties":{"UFID":"100035905043A00110100000004525877"},"geometry":{"type":"MultiPolygon","coordinates":[[[[129.0667608,35.6488589],[129.0667476,35.6488107],[129.0667348,35.6488132],[129.0666212,35.6488187],[129.066474,35.6488253],[129.066351,35.6488332],[129.0662459,35.6488404],[129.0661209,35.6488463],[129.0660589,35.6488578],[129.066046,35.6488644],[129.0660048,35.64892],[129.0659545,35.6489986],[129.0659483,35.6490018],[129.0659347,35.6490022],[129.0660197,35.649029],[129.0660124,35.6490174],[129.0660114,35.6490118],[129.0660112,35.6490068],[129.0660119,35.6490003],[129.066014,35.6489958],[129.0660839,35.6489013],[129.0660933,35.6488951],[129.0661001,35.6488913],[129.0661188,35.6488875],[129.0663259,35.6488737],[129.0666458,35.6488515],[129.0667518,35.6488483],[129.0667608,35.6488589]]]]}},{"type":"Feature","properties":{"UFID":"100035905043A00110100000004525878"},"geometry":{"type":"MultiPolygon","coordinates":[[[[129.065094,35.6492577],[129.0650541,35.6492789],[129.0650563,35.6492788],[129.0650587,35.6492791],[129.0650769,35.6492889],[129.0651069,35.6493067],[129.065181,35.6493502],[129.065246,35.6493959],[129.0653419,35.6494633],[129.0654494,35.6495445],[129.0655953,35.6496589],[129.0656119,35.6496317],[129.065329,35.6494251],[129.0652148,35.6493418],[129.0651232,35.6492798],[129.065094,35.6492577]]]]}},{"type":"Feature","properties":{"UFID":"100035905043A00110100000004525889"},"geometry":{"type":"MultiPolygon","coordinates":[[[[129.0641712,35.6464676],[129.0642302,35.6465438],[129.064229,35.6465111],[129.0642311,35.6465056],[129.0642886,35.6464783],[129.0643293,35.6464584],[129.0643589,35.6464387],[129.0643263,35.6464081],[129.0645439,35.6462461],[129.0645134,35.6462245],[129.0643279,35.6463633],[129.0641965,35.6464582],[129.0641818,35.6464638],[129.0641712,35.6464676]]]]}},{"type":"Feature","properties":{"UFID":"100035905043A00110100000004525890"},"geometry":{"type":"MultiPolygon","coordinates":[[[[129.0641712,35.6464676],[129.0641626,35.6464681],[129.0641537,35.6464676],[129.0641447,35.6464649],[129.0640084,35.6464123],[129.0640066,35.6464115],[129.0640028,35.6464148],[129.0638889,35.6464539],[129.063961,35.6464836],[129.0640806,35.6465405],[129.0641712,35.6464676]]]]}},{"type":"Feature","properties":{"UFID":"100035905043A00110100000004525891"},"geometry":{"type":"MultiPolygon","coordinates":[[[[129.0659628,35.6484159],[129.0660798,35.6484164],[129.0660646,35.6484012],[129.0660539,35.6481922],[129.0660485,35.6481555],[129.0660201,35.648154],[129.0659881,35.6481688],[129.0659548,35.6481691],[129.0659628,35.6484159]]]]}},{"type":"Feature","properties":{"UFID":"100035905043A00110100000004525892"},"geometry":{"type":"MultiPolygon","coordinates":[[[[129.0655738,35.6484829],[129.0655424,35.6483963],[129.0654321,35.6483393],[129.0653416,35.6483587],[129.0653709,35.6484107],[129.0654382,35.6484917],[129.0655738,35.6484829]]]]}},{"type":"Feature","properties":{"UFID":"100035905043A00110100000004525893"},"geometry":{"type":"MultiPolygon","coordinates":[[[[129.0642738,35.6474707],[129.0642215,35.6477074],[129.0642477,35.6476501],[129.0642554,35.6476444],[129.0642849,35.6476268],[129.0642988,35.6476268],[129.0643181,35.6476299],[129.0643672,35.6476559],[129.0645594,35.6477678],[129.0645964,35.6477833],[129.064811,35.6478512],[129.0650633,35.6479313],[129.0652,35.6479695],[129.0652929,35.6480001],[129.0653683,35.648032],[129.0654173,35.6480583],[129.0654349,35.648089],[129.0654557,35.6481284],[129.0654635,35.6481539],[129.0654692,35.6482129],[129.065472,35.6482781],[129.0654321,35.6483393],[129.0655424,35.6483963],[129.0655418,35.6483011],[129.0655417,35.6482129],[129.065531,35.6481465],[129.0655116,35.6480931],[129.0654856,35.6480437],[129.0654575,35.6480138],[129.0654135,35.6479805],[129.0653718,35.6479646],[129.065187,35.64791],[129.0650206,35.6478596],[129.0648928,35.6478157],[129.0646552,35.6477397],[129.0645838,35.647716],[129.0644942,35.6476602],[129.0643409,35.6475647],[129.0643318,35.6475585],[129.0642797,35.6474823],[129.0642738,35.6474707]]]]}},{"type":"Feature","properties":{"UFID":"100035905043A00110100000004525894"},"geometry":{"type":"MultiPolygon","coordinates":[[[[129.0665697,35.6484047],[129.0665532,35.6483957],[129.0665456,35.6481203],[129.0664533,35.648112],[129.0664691,35.6484045],[129.0664628,35.6484067],[129.0665697,35.6484047]]]]}}]}