{"type":"FeatureCollection","features":[{"type":"Feature","properties":{"UFID":"100035906042A00110100000000527603"},"geometry":{"type":"MultiPolygon","coordinates":[[[[129.2886374,35.6498703],[129.2886702,35.6498224],[129.2886623,35.6498188],[129.2886377,35.6498167],[129.288529,35.6498124],[129.2884899,35.6498108],[129.2883791,35.6498321],[129.288325,35.6498425],[129.2882893,35.6498623],[129.2883595,35.6499261],[129.2883802,35.6499214],[129.2884505,35.6498715],[129.2885165,35.6498674],[129.2886051,35.6498695],[129.2886374,35.6498703]]]]}},{"type":"Feature","properties":{"UFID":"100035906042A00110100000000527718"},"geometry":{"type":"MultiPolygon","coordinates":[[[[129.2887135,35.6498418],[129.2886703,35.6498865],[129.2887775,35.6499391],[129.2888744,35.6499869],[129.2888977,35.65],[129.2889468,35.6500276],[129.2889546,35.65],[129.2889565,35.6499933],[129.288974,35.6499316],[129.2888798,35.6499149],[129.2888702,35.6499133],[129.2887459,35.6498563],[129.2887135,35.6498418]]]]}},{"type":"Feature","properties":{"UFID":"100035906042A00110100000000527735"},"geometry":{"type":"MultiPolygon","coordinates":[[[[129.2979356,35.6509396],[129.2979961,35.6509809],[129.2979949,35.650943],[129.2980045,35.6509001],[129.298029,35.6508034],[129.2980587,35.6506862],[129.2980635,35.6506279],[129.2980564,35.6504988],[129.2980468,35.6503846],[129.2980227,35.6502505],[129.2979957,35.6500713],[129.2979861,35.6500193],[129.2979873,35.6500164],[129.2979886,35.6500137],[129.2980281,35.6500002],[129.2980286,35.65],[129.2980332,35.6499985],[129.2980389,35.6499944],[129.2980483,35.649982],[129.2981029,35.6498908],[129.2981071,35.6498868],[129.298111,35.6498839],[129.2981155,35.6498815],[129.298122,35.6498821],[129.2982174,35.6499029],[129.2982213,35.6499024],[129.2982251,35.6499007],[129.2982336,35.6498924],[129.29827,35.6497887],[129.2983599,35.6496394],[129.2984109,35.6495524],[129.2984206,35.6495308],[129.2984477,35.6494287],[129.2984646,35.6493445],[129.2984657,35.6493175],[129.298463,35.6492128],[129.2984647,35.6490025],[129.2984316,35.6490023],[129.2984299,35.649213],[129.2984325,35.6493174],[129.2984316,35.6493422],[129.2984198,35.6494274],[129.2983715,35.6495729],[129.2983167,35.6496318],[129.2982351,35.6497793],[129.2982112,35.6498266],[129.2982091,35.6498283],[129.2982048,35.64983],[129.2981259,35.6498337],[129.2980684,35.6498507],[129.2980318,35.6498637],[129.2980268,35.6498643],[129.2979693,35.6498637],[129.2979641,35.649864],[129.2979596,35.6498646],[129.297955,35.6498662],[129.2979463,35.6498692],[129.2979428,35.6498742],[129.2979399,35.6498835],[129.297939,35.6499],[129.2979508,35.65],[129.2979587,35.6500666],[129.2979627,35.6500936],[129.2979899,35.6502543],[129.2980138,35.6503875],[129.2980233,35.6505003],[129.2980303,35.6506276],[129.2980258,35.6506826],[129.2979966,35.6507979],[129.2979721,35.6508917],[129.2979565,35.650901],[129.2979356,35.6509396]]]]}},{"type":"Feature","properties":{"UFID":"100035906042A00110100000000527801"},"geometry":{"type":"MultiPolygon","coordinates":[[[[129.2874622,35.6493638],[129.2874057,35.6493238],[129.2873528,35.6492656],[129.2873387,35.6492297],[129.2873361,35.6492178],[129.2872376,35.6492373],[129.2872231,35.6492335],[129.2872354,35.6492515],[129.2872698,35.6492943],[129.2873205,35.6493556],[129.2873686,35.6493999],[129.2873867,35.6494372],[129.2874622,35.6493638]]]]}},{"type":"Feature","properties":{"UFID":"100035906042A00110100000000528251"},"geometry":{"type":"MultiPolygon","coordinates":[[[[129.2870981,35.6492876],[129.2871294,35.6492628],[129.2870858,35.6492912],[129.2870881,35.6492929],[129.2870981,35.6492876]]]]}},{"type":"Feature","properties":{"UFID":"100035906042A00110100000000528273"},"geometry":{"type":"MultiPolygon","coordinates":[[[[129.2886702,35.6498224],[129.2887135,35.6498418],[129.2887933,35.6497745],[129.2888706,35.6497322],[129.2889024,35.6497093],[129.2888839,35.6496924],[129.2888426,35.6497136],[129.2887604,35.6497568],[129.2886861,35.6498106],[129.2886702,35.6498224]]]]}},{"type":"Feature","properties":{"UFID":"100035906042A00110100000000528274"},"geometry":{"type":"MultiPolygon","coordinates":[[[[129.2887135,35.6498418],[129.2886702,35.6498224],[129.2886374,35.6498703],[129.2886703,35.6498865],[129.2887135,35.6498418]]]]}},{"type":"Feature","properties":{"UFID":"100035906032A00110100000004544262"},"geometry":{"type":"MultiPolygon","coordinates":[[[[129.2922333,35.6522166],[129.2920984,35.6521525],[129.291925,35.6520703],[129.2917893,35.6519926],[129.2917025,35.6519289],[129.2916376,35.6518724],[129.2915529,35.6517902],[129.2914708,35.6517305],[129.2913935,35.6516867],[129.2912987,35.6516473],[129.2911659,35.6516109],[129.2910005,35.6515765],[129.2907722,35.6515411],[129.2905339,35.6515036],[129.2903772,35.6514626],[129.2902359,35.6514035],[129.2901019,35.6513165],[129.2899526,35.651191],[129.2897869,35.6510372],[129.2896273,35.65088],[129.2894892,35.6507366],[129.2893527,35.6505862],[129.2892523,35.6505047],[129.2891584,35.6504394],[129.2890198,35.6503598],[129.2888143,35.6502441],[129.2886508,35.6501474],[129.2885076,35.6500482],[129.2884437,35.6500006],[129.2884428,35.65],[129.2883903,35.6499609],[129.2883687,35.6499443],[129.2883597,35.6499288],[129.2883595,35.6499261],[129.2883009,35.6499787],[129.2883298,35.65],[129.2883306,35.6500006],[129.2883565,35.6500198],[129.2884338,35.6500868],[129.2885373,35.6501651],[129.2886451,35.6502301],[129.2887746,35.6503022],[129.2889015,35.6503733],[129.2890018,35.6504258],[129.2891359,35.6505129],[129.2892408,35.6505959],[129.2893251,35.650669],[129.2894586,35.6508175],[129.2896455,35.6510066],[129.2898019,35.6511563],[129.2899186,35.6512565],[129.2900527,35.6513769],[129.2901622,35.6514521],[129.2902262,35.651481],[129.2903484,35.6515297],[129.2904565,35.6515607],[129.29058,35.6515846],[129.2907789,35.6516156],[129.2909876,35.6516451],[129.2911917,35.6516916],[129.2913186,35.6517327],[129.2914256,35.651791],[129.2915374,35.6518844],[129.291619,35.6519635],[129.2916899,35.6520167],[129.2917938,35.6520861],[129.2919297,35.6521577],[129.292119,35.6522515],[129.2922052,35.6522936],[129.2922333,35.6522166]]]]}},{"type":"Feature","properties":{"UFID":"100035906042A00110100000004544271"},"geometry":{"type":"MultiPolygon","coordinates":[[[[129.2951962,35.650668],[129.2953131,35.6506963],[129.2953617,35.650583],[129.2953712,35.6505571],[129.2953807,35.6505312],[129.2953902,35.6505052],[129.2953996,35.6504793],[129.295409,35.6504534],[129.2954183,35.6504274],[129.2954277,35.6504014],[129.295437,35.6503755],[129.2954462,35.6503495],[129.2954555,35.6503235],[129.2954647,35.6502975],[129.2954738,35.6502715],[129.295483,35.6502455],[129.2954921,35.6502195],[129.2955052,35.650182],[129.2955194,35.6501415],[129.2955284,35.6501154],[129.2955373,35.6500894],[129.2955463,35.6500634],[129.2955551,35.6500373],[129.295564,35.6500112],[129.2955677,35.6500004],[129.2955678,35.65],[129.2955728,35.6499852],[129.2955816,35.6499591],[129.2955904,35.649933],[129.2955992,35.6499069],[129.2956079,35.6498808],[129.2956165,35.6498547],[129.2956252,35.6498286],[129.2956338,35.6498025],[129.2956424,35.6497763],[129.2956509,35.6497502],[129.2956595,35.6497241],[129.295668,35.6496979],[129.2956764,35.6496717],[129.2956848,35.6496456],[129.2956932,35.6496194],[129.2957016,35.6495932],[129.2957099,35.649567],[129.2957186,35.6495396],[129.2957446,35.649457],[129.2957539,35.6494273],[129.295762,35.6494011],[129.2957701,35.6493749],[129.2957782,35.6493486],[129.2957863,35.6493224],[129.2957943,35.6492961],[129.2958023,35.6492699],[129.2958102,35.6492436],[129.2958181,35.6492173],[129.295826,35.6491911],[129.2958339,35.6491648],[129.2958417,35.6491385],[129.2958495,35.6491122],[129.2958573,35.6490859],[129.295865,35.6490596],[129.2958727,35.6490333],[129.2958804,35.649007],[129.295888,35.6489807],[129.2958956,35.6489543],[129.2959032,35.648928],[129.2959108,35.6489017],[129.2959183,35.6488753],[129.2959258,35.648849],[129.2959332,35.6488226],[129.2959406,35.6487962],[129.295948,35.6487699],[129.2959554,35.6487435],[129.2959627,35.6487171],[129.29597,35.6486907],[129.2959773,35.6486643],[129.2959845,35.6486379],[129.2959917,35.6486115],[129.2959989,35.6485851],[129.296006,35.6485587],[129.2960131,35.6485323],[129.2960202,35.6485059],[129.2960273,35.6484794],[129.2960343,35.648453],[129.2960413,35.6484265],[129.2960482,35.6484001],[129.2960551,35.6483736],[129.296062,35.6483472],[129.2960689,35.6483207],[129.2960757,35.6482942],[129.2960825,35.6482678],[129.2960893,35.6482413],[129.296096,35.6482148],[129.2961027,35.6481883],[129.2961094,35.6481618],[129.296116,35.6481353],[129.2961226,35.6481088],[129.2961292,35.6480823],[129.2961358,35.6480558],[129.2961423,35.6480292],[129.2961487,35.6480027],[129.2961552,35.6479762],[129.2961616,35.6479496],[129.296168,35.6479231],[129.2961743,35.6478965],[129.2961807,35.64787],[129.296187,35.6478434],[129.2961932,35.6478169],[129.2961995,35.6477903],[129.2962057,35.6477637],[129.2962118,35.6477371],[129.296218,35.6477106],[129.2962382,35.6476219],[129.2962442,35.6475953],[129.2962502,35.6475687],[129.2962561,35.6475421],[129.296262,35.6475155],[129.2962679,35.6474888],[129.2962737,35.6474622],[129.2962795,35.6474356],[129.2962853,35.6474089],[129.296291,35.6473823],[129.2962968,35.6473557],[129.2963024,35.647329],[129.2963081,35.6473023],[129.2963137,35.6472757],[129.2963193,35.647249],[129.2963249,35.6472224],[129.2963304,35.6471957],[129.2963359,35.647169],[129.2963413,35.6471423],[129.2963468,35.6471156],[129.2963522,35.647089],[129.2963575,35.6470623],[129.2963629,35.6470356],[129.2963682,35.6470089],[129.2963734,35.6469821],[129.2963787,35.6469554],[129.2963839,35.6469287],[129.2963891,35.646902],[129.2963942,35.6468753],[129.2963993,35.6468486],[129.2964044,35.6468218],[129.2964095,35.6467951],[129.2964145,35.6467683],[129.2964195,35.6467416],[129.2964244,35.6467149],[129.2964293,35.6466881],[129.2964342,35.6466614],[129.2964391,35.6466346],[129.2964439,35.6466078],[129.2964487,35.6465811],[129.2964535,35.6465543],[129.2964582,35.6465275],[129.2964629,35.6465007],[129.2964676,35.646474],[129.2964722,35.6464472],[129.2964768,35.6464204],[129.2964814,35.6463936],[129.2964859,35.6463668],[129.2964904,35.64634],[129.2964949,35.6463132],[129.2964994,35.6462864],[129.2965038,35.6462596],[129.2965082,35.6462328],[129.2965125,35.6462059],[129.2965168,35.6461791],[129.2965211,35.6461523],[129.2965254,35.6461255],[129.2965296,35.6460986],[129.2965338,35.6460718],[129.296538,35.646045],[129.2965421,35.6460181],[129.2965462,35.6459913],[129.2965502,35.6459644],[129.2965543,35.6459376],[129.2965583,35.6459107],[129.2965623,35.6458839],[129.2965662,35.645857],[129.2965701,35.6458302],[129.296574,35.6458033],[129.2965778,35.6457764],[129.2965816,35.6457496],[129.2965854,35.6457227],[129.2965891,35.6456958],[129.2965929,35.6456689],[129.2965965,35.645642],[129.2966002,35.6456151],[129.2966038,35.6455883],[129.2966074,35.6455614],[129.296611,35.6455345],[129.296615,35.6455033],[129.2966271,35.6454089],[129.2966305,35.645382],[129.2966338,35.6453551],[129.2966372,35.6453282],[129.2966404,35.6453013],[129.2966437,35.6452743],[129.2966469,35.6452474],[129.2966501,35.6452205],[129.2966532,35.6451936],[129.2966563,35.6451666],[129.2966594,35.6451397],[129.2966625,35.6451128],[129.2966655,35.6450858],[129.2966685,35.6450589],[129.2966715,35.6450319],[129.2966723,35.6450245],[129.2965484,35.6449703],[129.2965447,35.6450047],[129.2965408,35.6450405],[129.2965369,35.6450763],[129.2965328,35.645112],[129.2965288,35.6451478],[129.2965246,35.6451836],[129.2965204,35.6452194],[129.2965162,35.6452551],[129.2965119,35.6452909],[129.2965075,35.6453266],[129.2965031,35.6453624],[129.2964986,35.6453981],[129.2964941,35.6454339],[129.2964895,35.6454696],[129.2964848,35.6455053],[129.2964802,35.6455411],[129.2964754,35.6455768],[129.2964706,35.6456125],[129.2964657,35.6456482],[129.2964608,35.6456839],[129.2964558,35.6457196],[129.2964508,35.6457553],[129.2964457,35.645791],[129.2964405,35.6458267],[129.2964353,35.6458624],[129.29643,35.6458981],[129.2964247,35.6459337],[129.2964193,35.6459694],[129.2964139,35.6460051],[129.2964084,35.6460407],[129.2964029,35.6460763],[129.2963973,35.646112],[129.2963916,35.6461476],[129.2963859,35.6461832],[129.2963801,35.6462189],[129.2963743,35.6462545],[129.2963684,35.6462901],[129.2963624,35.6463257],[129.2963564,35.6463613],[129.2963504,35.6463969],[129.2963443,35.6464325],[129.2963381,35.646468],[129.2963319,35.6465036],[129.2963256,35.6465392],[129.2963193,35.6465747],[129.2963129,35.6466103],[129.2963064,35.6466458],[129.2962999,35.6466814],[129.2962934,35.6467169],[129.2962868,35.6467524],[129.2962801,35.6467879],[129.2962734,35.6468235],[129.2962666,35.646859],[129.2962597,35.6468945],[129.2962528,35.6469299],[129.2962459,35.6469654],[129.2962389,35.6470009],[129.2962318,35.6470364],[129.2962247,35.6470718],[129.2962175,35.6471073],[129.2962103,35.6471427],[129.296203,35.6471782],[129.2961956,35.6472136],[129.2961882,35.647249],[129.2961808,35.6472844],[129.2961733,35.6473198],[129.2961657,35.6473552],[129.2961581,35.6473906],[129.2961504,35.647426],[129.2961427,35.6474614],[129.2961349,35.6474967],[129.296127,35.6475321],[129.2961191,35.6475674],[129.2961111,35.6476028],[129.2961031,35.6476381],[129.2960951,35.6476734],[129.2960869,35.6477087],[129.2960787,35.647744],[129.2960705,35.6477794],[129.2960622,35.6478146],[129.2960539,35.6478499],[129.2960455,35.6478852],[129.296037,35.6479204],[129.2960285,35.6479557],[129.2960199,35.6479909],[129.2960113,35.6480262],[129.2960026,35.6480614],[129.2959938,35.6480966],[129.295985,35.6481318],[129.2959762,35.648167],[129.2959673,35.6482022],[129.2959583,35.6482374],[129.2959493,35.6482726],[129.2959402,35.6483077],[129.2959311,35.6483429],[129.2959219,35.648378],[129.2959127,35.6484131],[129.2959034,35.6484483],[129.295894,35.6484834],[129.2958846,35.6485185],[129.2958751,35.6485536],[129.2958656,35.6485887],[129.295856,35.6486237],[129.2958464,35.6486588],[129.2958367,35.6486938],[129.295827,35.6487289],[129.2958172,35.6487639],[129.2958073,35.6487989],[129.2957974,35.6488339],[129.2957874,35.6488689],[129.2957774,35.6489039],[129.2957674,35.6489389],[129.2957572,35.6489739],[129.295747,35.6490088],[129.2957368,35.6490438],[129.2957265,35.6490787],[129.2957162,35.6491137],[129.2957057,35.6491486],[129.2956953,35.6491835],[129.2956848,35.6492184],[129.2956742,35.6492532],[129.2956636,35.6492881],[129.2956529,35.649323],[129.2956422,35.6493578],[129.2956314,35.6493927],[129.2956205,35.6494275],[129.2956096,35.6494623],[129.2955987,35.6494971],[129.2955876,35.6495319],[129.2955766,35.6495667],[129.2955655,35.6496014],[129.2955543,35.6496362],[129.2955431,35.6496709],[129.2955318,35.6497057],[129.2955204,35.6497404],[129.295509,35.6497751],[129.2954976,35.6498098],[129.2954861,35.6498445],[129.2954745,35.6498791],[129.2954629,35.6499138],[129.2954512,35.6499484],[129.2954395,35.6499831],[129.2954337,35.65],[129.2954336,35.6500004],[129.2954277,35.6500177],[129.2954159,35.6500523],[129.295404,35.6500869],[129.2953921,35.6501215],[129.2953809,35.6501532],[129.2953709,35.6501819],[129.2953588,35.6502165],[129.2953466,35.650251],[129.2953344,35.6502856],[129.2953222,35.6503201],[129.2953099,35.6503546],[129.2952975,35.6503891],[129.2952851,35.6504235],[129.2952726,35.650458],[129.29526,35.6504924],[129.2952475,35.6505269],[129.2952348,35.6505613],[129.2951962,35.650668]]]]}},{"type":"Feature","properties":{"UFID":"100035906042A00110100000004544272"},"geometry":{"type":"MultiPolygon","coordinates":[[[[129.2954052,35.6511181],[129.2955175,35.6511486],[129.2955993,35.6509651],[129.2956092,35.6509392],[129.295619,35.6509133],[129.2956289,35.6508874],[129.2956387,35.6508615],[129.2956484,35.6508355],[129.2956582,35.6508096],[129.2956679,35.6507837],[129.2956775,35.6507577],[129.2956872,35.6507317],[129.2956968,35.6507058],[129.2957064,35.6506798],[129.2957159,35.6506538],[129.2957254,35.6506278],[129.2957349,35.6506018],[129.2957444,35.6505758],[129.2957538,35.6505498],[129.2957632,35.6505238],[129.2957726,35.6504978],[129.2957819,35.6504717],[129.2957912,35.6504457],[129.2958005,35.6504196],[129.2958098,35.6503936],[129.295819,35.6503675],[129.2958282,35.6503415],[129.2958373,35.6503154],[129.2958464,35.6502893],[129.2958555,35.6502632],[129.2958647,35.6502371],[129.2958738,35.650211],[129.2958828,35.6501849],[129.2958917,35.6501588],[129.2959007,35.6501327],[129.2959096,35.6501065],[129.2959184,35.6500804],[129.2959273,35.6500542],[129.2959361,35.6500281],[129.2959449,35.6500019],[129.2959454,35.6500004],[129.2959455,35.65],[129.2959536,35.6499757],[129.2959624,35.6499496],[129.2959711,35.6499234],[129.2959797,35.6498972],[129.2959883,35.649871],[129.2959969,35.6498448],[129.2960055,35.6498186],[129.296014,35.6497924],[129.2960226,35.6497661],[129.296031,35.6497399],[129.2960395,35.6497137],[129.2960479,35.6496874],[129.2960563,35.6496612],[129.2960646,35.6496349],[129.2960729,35.6496087],[129.2960812,35.6495824],[129.2960895,35.6495561],[129.2960977,35.6495298],[129.2961059,35.6495036],[129.2961141,35.6494773],[129.2961222,35.649451],[129.2961303,35.6494247],[129.2961384,35.6493983],[129.2961464,35.649372],[129.2961544,35.6493457],[129.2961624,35.6493194],[129.2961704,35.649293],[129.2961783,35.6492667],[129.2961862,35.6492403],[129.296194,35.649214],[129.2962019,35.6491876],[129.2962097,35.6491612],[129.2962174,35.6491349],[129.2962252,35.6491085],[129.2962329,35.6490821],[129.2962405,35.6490557],[129.2962482,35.6490293],[129.2962558,35.6490029],[129.2962633,35.6489765],[129.2962709,35.6489501],[129.2962784,35.6489236],[129.2962859,35.6488972],[129.2962933,35.6488708],[129.2963008,35.6488443],[129.2963082,35.6488179],[129.2963155,35.6487914],[129.2963228,35.648765],[129.2963301,35.6487385],[129.2963374,35.648712],[129.2963446,35.6486856],[129.2963519,35.6486591],[129.296359,35.6486326],[129.2963662,35.6486061],[129.2963733,35.6485796],[129.2963804,35.6485531],[129.2963874,35.6485266],[129.2963944,35.6485001],[129.2964014,35.6484736],[129.2964084,35.648447],[129.2964153,35.6484205],[129.2964222,35.648394],[129.296429,35.6483674],[129.2964359,35.6483409],[129.2964427,35.6483143],[129.2964494,35.6482878],[129.2964562,35.6482612],[129.2964629,35.6482346],[129.2964695,35.648208],[129.2964762,35.6481815],[129.2964828,35.6481549],[129.2964894,35.6481283],[129.2964959,35.6481017],[129.2965024,35.6480751],[129.2965089,35.6480485],[129.2965154,35.6480219],[129.2965218,35.6479953],[129.2965282,35.6479686],[129.2965345,35.647942],[129.2965409,35.6479154],[129.2965472,35.6478888],[129.2965534,35.6478621],[129.2965597,35.6478355],[129.2965659,35.6478088],[129.296572,35.6477822],[129.2965782,35.6477555],[129.2965843,35.6477288],[129.2965904,35.6477022],[129.2965964,35.6476755],[129.2966024,35.6476488],[129.2966084,35.6476221],[129.2966144,35.6475954],[129.2966203,35.6475688],[129.2966262,35.6475421],[129.296632,35.6475154],[129.2966379,35.6474887],[129.2966437,35.6474619],[129.2966494,35.6474352],[129.2966552,35.6474085],[129.2966609,35.6473818],[129.2966665,35.6473551],[129.2966722,35.6473283],[129.2966778,35.6473016],[129.2966834,35.6472748],[129.2966889,35.6472481],[129.2966944,35.6472213],[129.2966999,35.6471946],[129.2967053,35.6471678],[129.2967107,35.6471411],[129.2967161,35.6471143],[129.2967215,35.6470875],[129.2967268,35.6470607],[129.2967321,35.647034],[129.2967374,35.6470072],[129.2967426,35.6469804],[129.2967478,35.6469536],[129.296753,35.6469268],[129.2967581,35.6469],[129.2967632,35.6468732],[129.2967683,35.6468464],[129.2967733,35.6468196],[129.2967783,35.6467928],[129.2967833,35.6467659],[129.2967882,35.6467391],[129.2967931,35.6467123],[129.296798,35.6466855],[129.2968029,35.6466586],[129.2968077,35.6466318],[129.2968125,35.6466049],[129.2968172,35.6465781],[129.296822,35.6465512],[129.2968267,35.6465244],[129.2968313,35.6464975],[129.2968359,35.6464707],[129.2968406,35.6464438],[129.2968451,35.6464169],[129.2968497,35.6463901],[129.2968542,35.6463632],[129.2968586,35.6463363],[129.2968631,35.6463094],[129.2968675,35.6462825],[129.2968718,35.6462556],[129.2968762,35.6462287],[129.2968805,35.6462018],[129.2968848,35.646175],[129.296889,35.646148],[129.2968932,35.6461211],[129.2968974,35.6460942],[129.2969016,35.6460673],[129.2969057,35.6460404],[129.2969098,35.6460135],[129.2969139,35.6459866],[129.2969179,35.6459596],[129.2969219,35.6459327],[129.2969258,35.6459058],[129.2969298,35.6458788],[129.2969337,35.6458519],[129.2969376,35.6458249],[129.2969414,35.645798],[129.2969452,35.6457711],[129.2969489,35.6457446],[129.2968741,35.645322],[129.2968721,35.6453381],[129.2968677,35.6453739],[129.2968633,35.6454098],[129.2968597,35.6454384],[129.2968484,35.6455262],[129.2968437,35.6455621],[129.2968389,35.6455979],[129.2968341,35.6456337],[129.2968293,35.6456695],[129.2968243,35.6457053],[129.2968194,35.6457411],[129.2968143,35.6457769],[129.2968092,35.6458127],[129.2968041,35.6458485],[129.2967989,35.6458843],[129.2967936,35.6459201],[129.2967883,35.6459558],[129.2967829,35.6459916],[129.2967775,35.6460274],[129.296772,35.6460631],[129.2967665,35.6460989],[129.2967609,35.6461346],[129.2967552,35.6461704],[129.2967495,35.6462061],[129.2967438,35.6462418],[129.296738,35.6462775],[129.2967321,35.6463132],[129.2967261,35.6463489],[129.2967202,35.6463846],[129.2967141,35.6464203],[129.296708,35.646456],[129.2967019,35.6464917],[129.2966957,35.6465274],[129.2966894,35.6465631],[129.296683,35.6465987],[129.2966767,35.6466344],[129.2966702,35.64667],[129.2966637,35.6467057],[129.2966572,35.6467413],[129.2966506,35.6467769],[129.2966439,35.6468125],[129.2966372,35.6468482],[129.2966305,35.6468838],[129.2966236,35.6469194],[129.2966167,35.646955],[129.2966098,35.6469905],[129.2966028,35.6470261],[129.2965958,35.6470617],[129.2965887,35.6470973],[129.2965815,35.6471328],[129.2965743,35.6471684],[129.296567,35.6472039],[129.2965597,35.6472394],[129.2965523,35.647275],[129.2965448,35.6473105],[129.2965373,35.647346],[129.2965298,35.6473815],[129.2965222,35.647417],[129.2965145,35.6474525],[129.2965068,35.647488],[129.296499,35.6475234],[129.2964912,35.6475589],[129.2964833,35.6475943],[129.2964754,35.6476298],[129.2964686,35.6476599],[129.2964492,35.6477449],[129.296441,35.6477803],[129.2964328,35.6478157],[129.2964245,35.6478511],[129.2964161,35.6478865],[129.2964077,35.6479219],[129.2963993,35.6479573],[129.2963908,35.6479926],[129.2963822,35.648028],[129.2963736,35.6480633],[129.2963649,35.6480986],[129.2963562,35.648134],[129.2963474,35.6481693],[129.2963385,35.6482046],[129.2963296,35.6482399],[129.2963207,35.6482752],[129.2963117,35.6483104],[129.2963026,35.6483457],[129.2962935,35.6483809],[129.2962843,35.6484162],[129.2962751,35.6484514],[129.2962658,35.6484867],[129.2962565,35.6485219],[129.2962471,35.6485571],[129.2962376,35.6485923],[129.2962281,35.6486275],[129.2962185,35.6486626],[129.2962089,35.6486978],[129.2961992,35.648733],[129.2961895,35.6487681],[129.2961797,35.6488033],[129.2961699,35.6488384],[129.29616,35.6488735],[129.2961501,35.6489086],[129.2961401,35.6489437],[129.29613,35.6489788],[129.2961199,35.6490139],[129.2961097,35.6490489],[129.2960995,35.649084],[129.2960892,35.649119],[129.2960789,35.6491541],[129.2960685,35.6491891],[129.2960581,35.6492241],[129.2960476,35.6492591],[129.296037,35.6492941],[129.2960264,35.6493291],[129.2960157,35.649364],[129.296005,35.649399],[129.2959942,35.6494339],[129.2959834,35.6494689],[129.2959725,35.6495038],[129.2959396,35.6496085],[129.2959285,35.6496434],[129.2959173,35.6496782],[129.2959061,35.6497131],[129.2958948,35.6497479],[129.2958835,35.6497827],[129.2958721,35.6498176],[129.2958607,35.6498524],[129.2958492,35.6498872],[129.2958377,35.6499219],[129.2958261,35.6499567],[129.2958144,35.6499915],[129.2958116,35.65],[129.2958115,35.6500004],[129.2958027,35.6500262],[129.295791,35.6500609],[129.2957792,35.6500957],[129.2957673,35.6501304],[129.2957554,35.6501651],[129.2957434,35.6501998],[129.2957312,35.6502344],[129.2957192,35.6502691],[129.295707,35.6503037],[129.2956948,35.6503383],[129.2956826,35.650373],[129.2956703,35.6504076],[129.2956579,35.6504422],[129.2956455,35.6504767],[129.295633,35.6505113],[129.2956205,35.6505459],[129.295608,35.6505804],[129.2955953,35.6506149],[129.2955826,35.6506494],[129.2955699,35.650684],[129.2955571,35.6507184],[129.2955443,35.6507529],[129.2955314,35.6507874],[129.2955184,35.6508218],[129.2955054,35.6508563],[129.2954924,35.6508907],[129.2954793,35.6509251],[129.2954661,35.6509595],[129.2954052,35.6511181]]]]}},{"type":"Feature","properties":{"UFID":"100035906042A00110100000004576647"},"geometry":{"type":"MultiPolygon","coordinates":[[[[129.2883595,35.6499261],[129.2882893,35.6498623],[129.2882209,35.6499195],[129.2883009,35.6499787],[129.2883595,35.6499261]]]]}},{"type":"Feature","properties":{"UFID":"100035906042A00110100000004576648"},"geometry":{"type":"MultiPolygon","coordinates":[[[[129.2882893,35.6498623],[129.2882828,35.649861],[129.2882413,35.6498467],[129.2882075,35.6498208],[129.288134,35.6497637],[129.2880979,35.6498334],[129.2881958,35.649901],[129.2882209,35.6499195],[129.2882893,35.6498623]]]]}},{"type":"Feature","properties":{"UFID":"100035906042A00110100000004576726"},"geometry":{"type":"MultiPolygon","coordinates":[[[[129.2863198,35.6498938],[129.286287,35.6498762],[129.2862772,35.649887],[129.2862782,35.6499115],[129.2862731,35.6499577],[129.2862746,35.6499801],[129.2863077,35.6499795],[129.2863063,35.6499582],[129.2863113,35.6499126],[129.2863114,35.6499118],[129.2863198,35.6498938]]]]}},{"type":"Feature","properties":{"UFID":"100035906032A00110100000004577915"},"geometry":{"type":"MultiPolygon","coordinates":[[[[129.2867953,35.6502884],[129.286789,35.6502841],[129.2867831,35.6502773],[129.2867283,35.6501992],[129.2866617,35.6501279],[129.2866228,35.6500927],[129.2865969,35.6500568],[129.2865819,35.6500006],[129.2865818,35.65],[129.2865509,35.6498718],[129.2865463,35.6498628],[129.2865407,35.6498548],[129.2864988,35.6498357],[129.2864522,35.6498317],[129.2864271,35.64984],[129.2863425,35.649859],[129.2863366,35.6498596],[129.2863243,35.6498598],[129.2863198,35.6498938],[129.2863266,35.6498886],[129.2863318,35.6498867],[129.2863389,35.6498866],[129.286349,35.6498856],[129.2864378,35.6498656],[129.286457,35.6498593],[129.2864886,35.649862],[129.2865165,35.6498747],[129.2865191,35.6498797],[129.2865479,35.65],[129.286548,35.6500006],[129.2865657,35.6500668],[129.2865959,35.6501087],[129.2866362,35.6501452],[129.2867006,35.6502142],[129.2867526,35.6502882],[129.2867537,35.650291],[129.2867532,35.6502975],[129.2867953,35.6502884]]]]}},{"type":"Feature","properties":{"UFID":"100035906032A00110100000004577916"},"geometry":{"type":"MultiPolygon","coordinates":[[[[129.2880979,35.6498334],[129.2880085,35.6497925],[129.2880101,35.6498041],[129.2880077,35.6498123],[129.2879961,35.6498296],[129.2879728,35.6498525],[129.2879595,35.64987],[129.2879528,35.6498834],[129.2879486,35.6498979],[129.2879448,35.649921],[129.287919,35.649977],[129.2879063,35.65],[129.287906,35.6500006],[129.2878588,35.6500867],[129.2878314,35.6501364],[129.2877826,35.6502089],[129.2877342,35.6502544],[129.2876595,35.6503058],[129.2876179,35.6503264],[129.2875247,35.6503587],[129.2874477,35.6503662],[129.2875477,35.6503944],[129.2875568,35.6503822],[129.2876331,35.6503506],[129.2876789,35.6503278],[129.2877575,35.6502737],[129.28781,35.6502245],[129.2878611,35.6501485],[129.287889,35.6500978],[129.2879423,35.6500006],[129.2879426,35.65],[129.2879496,35.6499873],[129.2879767,35.6499287],[129.2880194,35.6498699],[129.2880659,35.6498392],[129.2880979,35.6498334]]]]}},{"type":"Feature","properties":{"UFID":"100035906042A00110100000004577917"},"geometry":{"type":"MultiPolygon","coordinates":[[[[129.2936425,35.6503496],[129.2937146,35.6504],[129.2937117,35.6503867],[129.2937154,35.6503773],[129.2937212,35.6503661],[129.2937314,35.6503411],[129.2937306,35.6501441],[129.2937286,35.6500005],[129.2937286,35.65],[129.2937279,35.6499494],[129.2937218,35.6497144],[129.29371,35.649494],[129.2937071,35.6493487],[129.2936277,35.6493388],[129.2936299,35.6494264],[129.2936387,35.6496044],[129.2936421,35.6497737],[129.2936501,35.65],[129.2936502,35.6500005],[129.2936503,35.6500039],[129.2936544,35.6501707],[129.2936554,35.6503288],[129.2936533,35.650336],[129.2936503,35.6503413],[129.2936425,35.6503496]]]]}},{"type":"Feature","properties":{"UFID":"100035906042A00110100000004577918"},"geometry":{"type":"MultiPolygon","coordinates":[[[[129.2941921,35.6492689],[129.294159,35.6492676],[129.2941595,35.6493381],[129.2941595,35.6493457],[129.2941627,35.6493689],[129.294165,35.6493796],[129.2942077,35.6494752],[129.294248,35.6495551],[129.2942485,35.6495567],[129.2942557,35.6496263],[129.2942529,35.6497168],[129.294244,35.6497971],[129.2942374,35.6498283],[129.2942079,35.6499403],[129.2941891,35.65],[129.2941889,35.6500005],[129.2941683,35.6500664],[129.2941282,35.6501695],[129.2940745,35.6502886],[129.2940319,35.6503636],[129.2939961,35.6503971],[129.2939943,35.650399],[129.2939566,35.650416],[129.2939091,35.6504238],[129.2938398,35.6504251],[129.2938137,35.6504241],[129.2937362,35.6504168],[129.2937203,35.6504057],[129.2937146,35.6504],[129.2936454,35.6504428],[129.2937023,35.6504414],[129.2937204,35.6504426],[129.2938111,35.6504511],[129.2938394,35.6504522],[129.2939127,35.6504507],[129.2939682,35.6504417],[129.2940163,35.6504199],[129.2940216,35.6504143],[129.29406,35.6503784],[129.2941051,35.650299],[129.2941596,35.6501783],[129.2942002,35.6500738],[129.2942231,35.6500005],[129.2942233,35.65],[129.2942402,35.6499465],[129.29427,35.6498334],[129.2942768,35.6498006],[129.294286,35.6497184],[129.2942888,35.6496255],[129.2942813,35.6495524],[129.2942796,35.6495467],[129.2942386,35.6494654],[129.2941972,35.6493726],[129.2941955,35.6493651],[129.2941926,35.6493441],[129.2941926,35.649338],[129.2941921,35.6492689]]]]}},{"type":"Feature","properties":{"UFID":"100035906042A00110100000004577920"},"geometry":{"type":"MultiPolygon","coordinates":[[[[129.2933825,35.6506331],[129.2933755,35.6506283],[129.2933508,35.6505507],[129.2933028,35.6504099],[129.2932824,35.6503412],[129.293257,35.6502066],[129.2932548,35.6501803],[129.2932472,35.6501463],[129.293234,35.6501158],[129.2931911,35.6500557],[129.2931476,35.6500005],[129.2931472,35.65],[129.293093,35.6499313],[129.2930157,35.6498403],[129.2929513,35.6497548],[129.2928724,35.6496281],[129.2928211,35.649553],[129.2927954,35.6494834],[129.2927872,35.649424],[129.292784,35.6493964],[129.2927827,35.6493847],[129.292777,35.6493643],[129.2927415,35.6493151],[129.2927316,35.6493102],[129.2927274,35.6493032],[129.2927172,35.6492835],[129.2926888,35.6492079],[129.2926206,35.64925],[129.2926611,35.6493496],[129.2927128,35.6494724],[129.2927641,35.649578],[129.2928169,35.6496664],[129.2928799,35.6497571],[129.2929491,35.6498524],[129.2930275,35.6499452],[129.2930739,35.65],[129.2930743,35.6500005],[129.2931107,35.6500435],[129.2931595,35.6501187],[129.2931867,35.650179],[129.293218,35.650298],[129.2932528,35.6504225],[129.2932911,35.6505494],[129.2933195,35.6506389],[129.2933314,35.6506698],[129.2933337,35.6506891],[129.2933825,35.6506331]]]]}},{"type":"Feature","properties":{"UFID":"100035906042A00110100000004578660"},"geometry":{"type":"MultiPolygon","coordinates":[[[[129.288134,35.6497637],[129.2880767,35.6497192],[129.2880268,35.6497728],[129.2880085,35.6497925],[129.2880979,35.6498334],[129.288134,35.6497637]]]]}},{"type":"Feature","properties":{"UFID":"100035906042A00110100000004578661"},"geometry":{"type":"MultiPolygon","coordinates":[[[[129.2876356,35.6494728],[129.2874622,35.6493638],[129.2873867,35.6494372],[129.2875035,35.6495081],[129.2875619,35.6495378],[129.2876356,35.6494728]]]]}},{"type":"Feature","properties":{"UFID":"100035906042A00110100000004578662"},"geometry":{"type":"MultiPolygon","coordinates":[[[[129.2879456,35.6496369],[129.2878363,35.6495847],[129.2877915,35.6496564],[129.2878692,35.6496976],[129.2878877,35.6496828],[129.2879456,35.6496369]]]]}},{"type":"Feature","properties":{"UFID":"100035906042A00110100000004578663"},"geometry":{"type":"MultiPolygon","coordinates":[[[[129.2880767,35.6497192],[129.2879456,35.6496369],[129.2878877,35.6496828],[129.2878692,35.6496976],[129.2879249,35.6497272],[129.2879911,35.6497718],[129.2880049,35.6497853],[129.2880085,35.6497925],[129.2880268,35.6497728],[129.2880767,35.6497192]]]]}},{"type":"Feature","properties":{"UFID":"100035906042A00110100000004578664"},"geometry":{"type":"MultiPolygon","coordinates":[[[[129.2878363,35.6495847],[129.2876617,35.6494884],[129.2876356,35.6494728],[129.2875619,35.6495378],[129.2877075,35.649612],[129.2877915,35.6496564],[129.2878363,35.6495847]]]]}},{"type":"Feature","properties":{"UFID":"100035906042A00110100000004584430"},"geometry":{"type":"MultiPolygon","coordinates":[[[[129.2941685,35.649192],[129.2942015,35.6491939],[129.2942046,35.6491263],[129.2941921,35.6490258],[129.2941863,35.6489804],[129.2941732,35.6488684],[129.2941628,35.6487993],[129.2941371,35.6487249],[129.2940911,35.648645],[129.2940715,35.6486071],[129.2940414,35.6485281],[129.2939922,35.6483988],[129.2939441,35.648337],[129.293924,35.6483175],[129.2938997,35.6482798],[129.2938884,35.6482168],[129.2938859,35.6481875],[129.2938812,35.6481106],[129.2938813,35.6480762],[129.2938763,35.6480417],[129.2938745,35.6480379],[129.2938511,35.6479967],[129.2937805,35.6479401],[129.2937261,35.647897],[129.2937111,35.6478772],[129.2936757,35.6478218],[129.2936415,35.6477665],[129.2936068,35.6477441],[129.2935806,35.6477398],[129.2935603,35.6477406],[129.2934838,35.6477622],[129.2933445,35.647803],[129.2932467,35.6478401],[129.2932316,35.6478458],[129.2932178,35.6478483],[129.2932077,35.6478489],[129.293194,35.6478472],[129.2931891,35.6478441],[129.2931802,35.6478337],[129.2931692,35.6478034],[129.2931687,35.6477937],[129.2931671,35.6477174],[129.293145,35.6476614],[129.2930887,35.6475825],[129.2929866,35.6474401],[129.2929523,35.6473795],[129.2929486,35.6473715],[129.2929478,35.6473671],[129.2929465,35.647358],[129.2929466,35.6473541],[129.2929465,35.6473413],[129.2929504,35.6473203],[129.2929517,35.6473171],[129.2929953,35.6472616],[129.293123,35.6471249],[129.2931487,35.6471062],[129.2932086,35.6470527],[129.2932209,35.6470083],[129.2932224,35.6469902],[129.2932158,35.6469225],[129.2931739,35.6467616],[129.293139,35.64667],[129.2931291,35.6466499],[129.2931232,35.6466342],[129.2930921,35.6465735],[129.2930852,35.6465652],[129.2930786,35.6465649],[129.2930703,35.6465649],[129.2930612,35.6465679],[129.2930375,35.6465774],[129.2929934,35.6466026],[129.2929826,35.6466169],[129.2929606,35.6466723],[129.2929585,35.6466753],[129.2929508,35.6466867],[129.2929342,35.6466983],[129.2928736,35.6467352],[129.2927773,35.6467951],[129.2927501,35.6468161],[129.292662,35.6469051],[129.2926135,35.646967],[129.2925898,35.6470029],[129.2925632,35.6470432],[129.2925398,35.6470789],[129.2924829,35.6471657],[129.2924426,35.647257],[129.29239,35.6473729],[129.2924211,35.6473823],[129.2924737,35.6472663],[129.2925132,35.6471768],[129.292569,35.6470917],[129.292584,35.6470688],[129.2925994,35.6470479],[129.2926284,35.6470014],[129.2926421,35.6469807],[129.2926889,35.6469209],[129.2927745,35.6468345],[129.2927987,35.6468157],[129.2928936,35.6467568],[129.2929552,35.6467192],[129.2929848,35.6467027],[129.2930213,35.6466799],[129.2930343,35.6466588],[129.2930364,35.6466474],[129.2930412,35.6466384],[129.293051,35.6466284],[129.2930613,35.6466264],[129.2930729,35.6466287],[129.2930838,35.646635],[129.2931027,35.6466687],[129.2931078,35.6466791],[129.2931418,35.6467684],[129.2931829,35.6469264],[129.2931892,35.6469904],[129.293188,35.6470043],[129.2931782,35.6470397],[129.2931254,35.6470869],[129.2930986,35.6471065],[129.2929681,35.6472461],[129.2929216,35.6473053],[129.292918,35.647314],[129.2929133,35.6473394],[129.2929135,35.6473538],[129.2929133,35.6473591],[129.292915,35.6473707],[129.2929164,35.6473784],[129.2929218,35.64739],[129.2929571,35.6474526],[129.2930601,35.6475962],[129.2931146,35.6476724],[129.293134,35.6477218],[129.2931356,35.6477944],[129.2931292,35.6478597],[129.2931312,35.6478684],[129.2931386,35.6478764],[129.2931492,35.6478841],[129.2931599,35.6478883],[129.2931704,35.6478905],[129.2931857,35.6478911],[129.2932142,35.6478883],[129.2932796,35.6478574],[129.293357,35.6478281],[129.2934948,35.6477877],[129.2935666,35.6477675],[129.2935782,35.647767],[129.2935925,35.6477693],[129.2936152,35.647784],[129.2936463,35.6478342],[129.2936823,35.6478906],[129.2937001,35.6479141],[129.2937574,35.6479595],[129.2938236,35.6480125],[129.2938439,35.6480482],[129.2938481,35.6480762],[129.2938481,35.6481113],[129.2938528,35.6481891],[129.2938554,35.6482197],[129.2938678,35.6482882],[129.2938964,35.6483327],[129.2939173,35.648353],[129.2939619,35.6484103],[129.2940098,35.6485361],[129.2940403,35.6486164],[129.2940609,35.648656],[129.294106,35.6487344],[129.2941302,35.6488047],[129.2941403,35.6488713],[129.2941534,35.6489831],[129.2941592,35.6490286],[129.2941714,35.6491272],[129.2941685,35.649192]]]]}},{"type":"Feature","properties":{"UFID":"100035906042A00110100000004584431"},"geometry":{"type":"MultiPolygon","coordinates":[[[[129.2942015,35.6491939],[129.2941685,35.649192],[129.294159,35.6492676],[129.2941921,35.6492689],[129.2942015,35.6491939]]]]}},{"type":"Feature","properties":{"UFID":"100035906042A00110100000004584432"},"geometry":{"type":"MultiPolygon","coordinates":[[[[129.2942015,35.6491939],[129.2941921,35.6492689],[129.2942109,35.649251],[129.2942498,35.6492058],[129.2943066,35.6491433],[129.2943556,35.6491038],[129.2943384,35.6490929],[129.2943138,35.6491082],[129.2942324,35.6491833],[129.2942015,35.6491939]]]]}},{"type":"Feature","properties":{"UFID":"100035906042A00110100000004584435"},"geometry":{"type":"MultiPolygon","coordinates":[[[[129.2926888,35.6492079],[129.2926697,35.6491566],[129.2926585,35.6491257],[129.2925778,35.6491384],[129.2926206,35.64925],[129.2926888,35.6492079]]]]}},{"type":"Feature","properties":{"UFID":"100035906042A00110100000004584436"},"geometry":{"type":"MultiPolygon","coordinates":[[[[129.2926206,35.64925],[129.2925778,35.6491384],[129.2925632,35.6491477],[129.2924314,35.6491818],[129.2924628,35.6492775],[129.2925244,35.6492621],[129.292584,35.6492496],[129.2925916,35.649248],[129.2926206,35.64925]]]]}},{"type":"Feature","properties":{"UFID":"100035906042A00110100000004584437"},"geometry":{"type":"MultiPolygon","coordinates":[[[[129.2926585,35.6491257],[129.2926082,35.6489868],[129.2925515,35.6488139],[129.2924756,35.6488313],[129.292532,35.6489826],[129.2925753,35.6491129],[129.2925789,35.6491286],[129.2925778,35.6491384],[129.2926585,35.6491257]]]]}},{"type":"Feature","properties":{"UFID":"100035906042A00110100000004584451"},"geometry":{"type":"MultiPolygon","coordinates":[[[[129.2878363,35.6495847],[129.2879456,35.6496369],[129.2879725,35.6495885],[129.2880375,35.6495294],[129.2881026,35.6494649],[129.2881369,35.6493966],[129.2881682,35.6493324],[129.2881783,35.649323],[129.2882319,35.6492933],[129.2883475,35.6492469],[129.2884772,35.6491892],[129.2886285,35.6491174],[129.2887678,35.6490525],[129.2887847,35.6490424],[129.2888413,35.6490076],[129.2888147,35.6489788],[129.2887584,35.6490135],[129.2887438,35.6490222],[129.2886065,35.6490861],[129.2884555,35.6491578],[129.2883272,35.6492149],[129.2882097,35.6492621],[129.2881488,35.6492957],[129.28813,35.6493133],[129.2880959,35.6493831],[129.2880643,35.6494461],[129.288004,35.6495059],[129.2879391,35.6495649],[129.2879022,35.6495795],[129.2878806,35.6495841],[129.2878605,35.6495867],[129.2878363,35.6495847]]]]}},{"type":"Feature","properties":{"UFID":"100035906042A00110100000004584452"},"geometry":{"type":"MultiPolygon","coordinates":[[[[129.2874622,35.6493638],[129.2876356,35.6494728],[129.2876667,35.6494434],[129.2878638,35.6492985],[129.2878576,35.6492896],[129.2878926,35.649258],[129.2878426,35.649184],[129.2877999,35.6492047],[129.2874622,35.6493638]]]]}},{"type":"Feature","properties":{"UFID":"100035906042A00110100000004584455"},"geometry":{"type":"MultiPolygon","coordinates":[[[[129.2863243,35.6498598],[129.2863146,35.6498589],[129.2863145,35.6498588],[129.2862902,35.6498727],[129.286287,35.6498762],[129.2863198,35.6498938],[129.2863243,35.6498598]]]]}}]}